<?xml version="1.0" encoding="UTF-8"?>
<kml xmlns="http://www.opengis.net/kml/2.2" xmlns:gx="http://www.google.com/kml/ext/2.2" xmlns:kml="http://www.opengis.net/kml/2.2" xmlns:atom="http://www.w3.org/2005/Atom" xmlns:xsi="http://www.w3.org/2001/XMLSchema-instance">
<Document id="ManesarLalDora" xsi:schemaLocation="http://www.opengis.net/kml/2.2 http://schemas.opengis.net/kml/2.2.0/ogckml22.xsd http://www.google.com/kml/ext/2.2 http://code.google.com/apis/kml/schema/kml22gx.xsd">
	<name>ManesarLalDora</name>
	<Snippet maxLines="0"></Snippet>
	<Style id="PolyStyle00">
		<LabelStyle>
			<color>00000000</color>
			<scale>0</scale>
		</LabelStyle>
		<LineStyle>
			<color>ff6e6e6e</color>
			<width>0.4</width>
		</LineStyle>
		<PolyStyle>
			<color>fff7c6c6</color>
		</PolyStyle>
	</Style>
	<Folder id="FeatureLayer0">
		<name>ManesarLalDora</name>
		<Snippet maxLines="0"></Snippet>
		<Placemark id="ID_00000">
			<name>Dhana</name>
			<Snippet maxLines="0"></Snippet>
			<description><![CDATA[<html xmlns:fo="http://www.w3.org/1999/XSL/Format" xmlns:msxsl="urn:schemas-microsoft-com:xslt">

<head>

<META http-equiv="Content-Type" content="text/html">

<meta http-equiv="content-type" content="text/html; charset=UTF-8">

</head>

<body style="margin:0px 0px 0px 0px;overflow:auto;background:#FFFFFF;">

<table style="font-family:Arial,Verdana,Times;font-size:12px;text-align:left;width:100%;border-collapse:collapse;padding:3px 3px 3px 3px">

<tr style="text-align:center;font-weight:bold;background:#9CBCE2">

<td>Dhana</td>

</tr>

<tr>

<td>

<table style="font-family:Arial,Verdana,Times;font-size:12px;text-align:left;width:100%;border-spacing:0px; padding:3px 3px 3px 3px">

<tr>

<td>FID</td>

<td>0</td>

</tr>

<tr bgcolor="#D4E4F3">

<td>COLONYNAME</td>

<td>Dhana</td>

</tr>

</table>

</td>

</tr>

</table>

</body>

</html>]]></description>
			<styleUrl>#PolyStyle00</styleUrl>
			<MultiGeometry>
				<Polygon>
					<outerBoundaryIs>
						<LinearRing>
							<coordinates>
								76.88655818431188,28.37258657581545,0 76.88666699448891,28.3727219126931,0 76.88680301947808,28.3728362859707,0 76.88700464562919,28.37268611335552,0 76.88707627330371,28.37263276363123,0 76.88721771584832,28.37252741572429,0 76.88730706776748,28.37261024769322,0 76.88738309590335,28.37269175530689,0 76.88828066444016,28.37338846059682,0 76.88809131357486,28.37354332807675,0 76.88795015371117,28.37345870938278,0 76.88755420457025,28.37373850914364,0 76.88739280170141,28.37373160156069,0 76.88733363459215,28.37373707478093,0 76.88723740794012,28.37382206182363,0 76.88711930404583,28.37388158526152,0 76.88709216687305,28.37383408009734,0 76.88701009572497,28.37369331354682,0 76.88696657156888,28.37366955027994,0 76.8867117260028,28.37340549092757,0 76.88651965426435,28.37328003133478,0 76.88636106608521,28.37315394641601,0 76.88613517797454,28.3728981833518,0 76.88655818431188,28.37258657581545,0 
							</coordinates>
						</LinearRing>
					</outerBoundaryIs>
				</Polygon>
			</MultiGeometry>
		</Placemark>
		<Placemark id="ID_00001">
			<name>Baskusla</name>
			<Snippet maxLines="0"></Snippet>
			<description><![CDATA[<html xmlns:fo="http://www.w3.org/1999/XSL/Format" xmlns:msxsl="urn:schemas-microsoft-com:xslt">

<head>

<META http-equiv="Content-Type" content="text/html">

<meta http-equiv="content-type" content="text/html; charset=UTF-8">

</head>

<body style="margin:0px 0px 0px 0px;overflow:auto;background:#FFFFFF;">

<table style="font-family:Arial,Verdana,Times;font-size:12px;text-align:left;width:100%;border-collapse:collapse;padding:3px 3px 3px 3px">

<tr style="text-align:center;font-weight:bold;background:#9CBCE2">

<td>Baskusla</td>

</tr>

<tr>

<td>

<table style="font-family:Arial,Verdana,Times;font-size:12px;text-align:left;width:100%;border-spacing:0px; padding:3px 3px 3px 3px">

<tr>

<td>FID</td>

<td>1</td>

</tr>

<tr bgcolor="#D4E4F3">

<td>COLONYNAME</td>

<td>Baskusla</td>

</tr>

</table>

</td>

</tr>

</table>

</body>

</html>]]></description>
			<styleUrl>#PolyStyle00</styleUrl>
			<MultiGeometry>
				<Polygon>
					<outerBoundaryIs>
						<LinearRing>
							<coordinates>
								76.90767914324832,28.37415034654111,0 76.90772431492243,28.37420519665085,0 76.90802102842764,28.37452646000505,0 76.90824718126572,28.37477714205187,0 76.90828294827176,28.37481751103121,0 76.90824337928331,28.37484648276745,0 76.90792287710563,28.37506640616188,0 76.90789370078774,28.37509406908595,0 76.9083317713373,28.37553686069548,0 76.90823509109659,28.37562263905727,0 76.90819924065592,28.37565142966865,0 76.90809786385979,28.37573288441778,0 76.90812439013428,28.37582026992233,0 76.90800713854522,28.37586652575852,0 76.90775235620582,28.37600674329198,0 76.90773040848475,28.37601838567378,0 76.90768288170884,28.37602371199293,0 76.90749297664864,28.37603128149338,0 76.90741070998961,28.37603898998902,0 76.9072217467306,28.37605443474478,0 76.90714854334263,28.37599114231212,0 76.90682639108005,28.37568758187962,0 76.90669621633758,28.37556156078097,0 76.90658168202629,28.37547106583892,0 76.90663961767198,28.37540566920623,0 76.90660885451565,28.37526501596686,0 76.90647212876246,28.37525853664425,0 76.90634188816244,28.37510938295222,0 76.90655499497313,28.37501211274231,0 76.90641791022331,28.37462158318377,0 76.90658475893558,28.37446945143069,0 76.90669917880943,28.37435688357526,0 76.90640119650368,28.37398907717478,0 76.90664872075348,28.3739281470777,0 76.90692890769232,28.37381841584849,0 76.90696582671355,28.37394073537548,0 76.90701685842588,28.37410981308886,0 76.90727527846875,28.37405607854972,0 76.90729645849261,28.37407972739202,0 76.90753006810351,28.37400514216999,0 76.90767914324832,28.37415034654111,0 
							</coordinates>
						</LinearRing>
					</outerBoundaryIs>
				</Polygon>
			</MultiGeometry>
		</Placemark>
		<Placemark id="ID_00002">
			<name>Garhi Harsaru</name>
			<Snippet maxLines="0"></Snippet>
			<description><![CDATA[<html xmlns:fo="http://www.w3.org/1999/XSL/Format" xmlns:msxsl="urn:schemas-microsoft-com:xslt">

<head>

<META http-equiv="Content-Type" content="text/html">

<meta http-equiv="content-type" content="text/html; charset=UTF-8">

</head>

<body style="margin:0px 0px 0px 0px;overflow:auto;background:#FFFFFF;">

<table style="font-family:Arial,Verdana,Times;font-size:12px;text-align:left;width:100%;border-collapse:collapse;padding:3px 3px 3px 3px">

<tr style="text-align:center;font-weight:bold;background:#9CBCE2">

<td>Garhi Harsaru</td>

</tr>

<tr>

<td>

<table style="font-family:Arial,Verdana,Times;font-size:12px;text-align:left;width:100%;border-spacing:0px; padding:3px 3px 3px 3px">

<tr>

<td>FID</td>

<td>2</td>

</tr>

<tr bgcolor="#D4E4F3">

<td>COLONYNAME</td>

<td>Garhi Harsaru</td>

</tr>

</table>

</td>

</tr>

</table>

</body>

</html>]]></description>
			<styleUrl>#PolyStyle00</styleUrl>
			<MultiGeometry>
				<Polygon>
					<outerBoundaryIs>
						<LinearRing>
							<coordinates>
								76.93731532925567,28.44701140611102,0 76.93717367577217,28.44671215331335,0 76.9372445535552,28.44666982009517,0 76.93745718555357,28.44654282115068,0 76.93741484943712,28.44647712301501,0 76.93723644166788,28.44624605285227,0 76.93716672576777,28.44612470898852,0 76.93702288446239,28.44595543445407,0 76.9369655803286,28.44588799831626,0 76.93689365995159,28.44580336139764,0 76.93685676013868,28.44575121892585,0 76.93680212361829,28.44567401248427,0 76.93674768942053,28.44559709099841,0 76.93670232747805,28.44553298959204,0 76.93666603777356,28.44548170917835,0 76.93660774313676,28.44539933350921,0 76.93669436154877,28.44532623792945,0 76.93668950549076,28.44525075287816,0 76.93667276284521,28.44519210503621,0 76.93666020587442,28.44514811915248,0 76.93663509198365,28.44506014828139,0 76.93660783493165,28.44496650753047,0 76.93651900709403,28.44473158200247,0 76.93649305609176,28.4446363181824,0 76.93647845622985,28.4446013482293,0 76.93646875425159,28.44451887907321,0 76.93644057136648,28.44443968784537,0 76.93657136046021,28.44420877857177,0 76.93655483993756,28.44417821976199,0 76.93685283752872,28.44379968263249,0 76.9369756527051,28.44357517707163,0 76.93704445366299,28.4436901272154,0 76.93720871127309,28.44367390970779,0 76.93836904682482,28.44356815453955,0 76.93858179590804,28.44355052618707,0 76.93873541980666,28.4435413625326,0 76.93890573296929,28.44341494113399,0 76.93911387887589,28.44361553679188,0 76.93914855618523,28.44364898039094,0 76.93929262666485,28.4437884616643,0 76.93944258107371,28.44393363777422,0 76.93972230956091,28.44424539843511,0 76.93943237957359,28.44445753471724,0 76.93934898290129,28.44451043303495,0 76.93958193041419,28.44460559498774,0 76.93966532703332,28.44455269652988,0 76.93992411642776,28.44438854694132,0 76.9400196260143,28.44432796589286,0 76.94022538713985,28.44461442507674,0 76.94014044017001,28.44468903664061,0 76.93991892120981,28.44492917124722,0 76.93988081715599,28.44495956462628,0 76.93979191029531,28.44503048032902,0 76.93982170802707,28.44513300149822,0 76.93985150682639,28.44523552173991,0 76.93985907256452,28.44526155148053,0 76.93988887043895,28.44536407262539,0 76.93990645091623,28.44542455885476,0 76.93991496447346,28.4454538507376,0 76.93989471129048,28.44547822603524,0 76.93982382358,28.44556354138234,0 76.93978331610199,28.44561229196573,0 76.93974280860391,28.4456610434407,0 76.93969403311429,28.44571974519247,0 76.93962314508703,28.44580506044781,0 76.9395922061519,28.44584582018301,0 76.93972942412347,28.4459114434574,0 76.93967842425283,28.44598784564669,0 76.93959595729176,28.44593381975958,0 76.93949789263186,28.44605722683262,0 76.93968467013669,28.44618975757689,0 76.93951895159985,28.44634260768327,0 76.93944388578916,28.4464149203775,0 76.93923304163457,28.44629967648896,0 76.93894465701031,28.44646244918263,0 76.93891581830212,28.44647872687452,0 76.9386851102858,28.44660894456585,0 76.93865645158502,28.44662546779614,0 76.93854158296131,28.44667566935398,0 76.93842343712338,28.44673674344773,0 76.9383492635134,28.44663563753058,0 76.93812724877823,28.44676354125059,0 76.93798916418675,28.44670197140742,0 76.93766105056133,28.44684892821821,0 76.93731532925567,28.44701140611102,0 
							</coordinates>
						</LinearRing>
					</outerBoundaryIs>
				</Polygon>
			</MultiGeometry>
		</Placemark>
		<Placemark id="ID_00003">
			<name>Wazirpur</name>
			<Snippet maxLines="0"></Snippet>
			<description><![CDATA[<html xmlns:fo="http://www.w3.org/1999/XSL/Format" xmlns:msxsl="urn:schemas-microsoft-com:xslt">

<head>

<META http-equiv="Content-Type" content="text/html">

<meta http-equiv="content-type" content="text/html; charset=UTF-8">

</head>

<body style="margin:0px 0px 0px 0px;overflow:auto;background:#FFFFFF;">

<table style="font-family:Arial,Verdana,Times;font-size:12px;text-align:left;width:100%;border-collapse:collapse;padding:3px 3px 3px 3px">

<tr style="text-align:center;font-weight:bold;background:#9CBCE2">

<td>Wazirpur</td>

</tr>

<tr>

<td>

<table style="font-family:Arial,Verdana,Times;font-size:12px;text-align:left;width:100%;border-spacing:0px; padding:3px 3px 3px 3px">

<tr>

<td>FID</td>

<td>3</td>

</tr>

<tr bgcolor="#D4E4F3">

<td>COLONYNAME</td>

<td>Wazirpur</td>

</tr>

</table>

</td>

</tr>

</table>

</body>

</html>]]></description>
			<styleUrl>#PolyStyle00</styleUrl>
			<MultiGeometry>
				<Polygon>
					<outerBoundaryIs>
						<LinearRing>
							<coordinates>
								76.91210361858604,28.42068112888628,0 76.91240068184075,28.42043129064298,0 76.91278360751932,28.42084771147362,0 76.91293027433555,28.42088798726492,0 76.91340687528893,28.42136119954589,0 76.91345765547821,28.42138748002223,0 76.91375756879539,28.42144470610395,0 76.91380250011009,28.42151926659309,0 76.91399953519388,28.42184038888693,0 76.91427219818212,28.42216355421542,0 76.91425566740297,28.42226051728969,0 76.91424168035445,28.42234256316692,0 76.91423404199669,28.42250837134653,0 76.91413975348628,28.42257320529227,0 76.91403333173444,28.4226487967102,0 76.91386388913945,28.42278889675372,0 76.91371739366991,28.42291236224884,0 76.91387528530886,28.42302664254393,0 76.913647836157,28.42326054631598,0 76.91355082351058,28.42332216143193,0 76.9136909605797,28.42344575700076,0 76.91342155922206,28.42365466911861,0 76.91331798035104,28.42372881773107,0 76.91277039446557,28.4241246421458,0 76.91084146949994,28.42281673015177,0 76.91139283482849,28.42244655701937,0 76.911528839349,28.42234389535135,0 76.91149723493669,28.42220064052744,0 76.9117606760863,28.42185367691209,0 76.91190392585658,28.42160113052893,0 76.9120884761644,28.42163144774009,0 76.91225135986208,28.42166373761557,0 76.912357034495,28.42169817472316,0 76.91231202262342,28.4215061371818,0 76.91225469305104,28.42131668206111,0 76.91192149259307,28.42086842861779,0 76.91210361858604,28.42068112888628,0 
							</coordinates>
						</LinearRing>
					</outerBoundaryIs>
				</Polygon>
			</MultiGeometry>
		</Placemark>
		<Placemark id="ID_00004">
			<name>Hayatpur</name>
			<Snippet maxLines="0"></Snippet>
			<description><![CDATA[<html xmlns:fo="http://www.w3.org/1999/XSL/Format" xmlns:msxsl="urn:schemas-microsoft-com:xslt">

<head>

<META http-equiv="Content-Type" content="text/html">

<meta http-equiv="content-type" content="text/html; charset=UTF-8">

</head>

<body style="margin:0px 0px 0px 0px;overflow:auto;background:#FFFFFF;">

<table style="font-family:Arial,Verdana,Times;font-size:12px;text-align:left;width:100%;border-collapse:collapse;padding:3px 3px 3px 3px">

<tr style="text-align:center;font-weight:bold;background:#9CBCE2">

<td>Hayatpur</td>

</tr>

<tr>

<td>

<table style="font-family:Arial,Verdana,Times;font-size:12px;text-align:left;width:100%;border-spacing:0px; padding:3px 3px 3px 3px">

<tr>

<td>FID</td>

<td>4</td>

</tr>

<tr bgcolor="#D4E4F3">

<td>COLONYNAME</td>

<td>Hayatpur</td>

</tr>

</table>

</td>

</tr>

</table>

</body>

</html>]]></description>
			<styleUrl>#PolyStyle00</styleUrl>
			<MultiGeometry>
				<Polygon>
					<outerBoundaryIs>
						<LinearRing>
							<coordinates>
								76.9558418632228,28.42091640455498,0 76.95575353636919,28.42096608841247,0 76.95540411276603,28.42118280255961,0 76.95523547087629,28.4211531029209,0 76.95510640975998,28.42123019848639,0 76.95490725536057,28.42108736255563,0 76.95479166685405,28.42109936211162,0 76.95470974606938,28.42094648071481,0 76.95456229130866,28.42067129346827,0 76.95444724012567,28.42047238590276,0 76.95441483632553,28.42039610602851,0 76.95440859189571,28.42033545163983,0 76.95431585288738,28.41984941220472,0 76.95429213230349,28.41980356418281,0 76.95441766388198,28.41985132536304,0 76.95458454947044,28.41974549504247,0 76.95524451719299,28.41935229664228,0 76.95527946626282,28.41932268550183,0 76.95533757401348,28.41931349834721,0 76.95532908774686,28.41966654747118,0 76.95594508846722,28.4196781184259,0 76.95615042134558,28.41968197449859,0 76.95616181034204,28.41968218802745,0 76.95617326676214,28.4198843055211,0 76.95614128451511,28.41997451088372,0 76.95598136942016,28.42042553494471,0 76.95586585397348,28.42083199008335,0 76.9558418632228,28.42091640455498,0 
							</coordinates>
						</LinearRing>
					</outerBoundaryIs>
				</Polygon>
			</MultiGeometry>
		</Placemark>
		<Placemark id="ID_00005">
			<name>Hayatpur</name>
			<Snippet maxLines="0"></Snippet>
			<description><![CDATA[<html xmlns:fo="http://www.w3.org/1999/XSL/Format" xmlns:msxsl="urn:schemas-microsoft-com:xslt">

<head>

<META http-equiv="Content-Type" content="text/html">

<meta http-equiv="content-type" content="text/html; charset=UTF-8">

</head>

<body style="margin:0px 0px 0px 0px;overflow:auto;background:#FFFFFF;">

<table style="font-family:Arial,Verdana,Times;font-size:12px;text-align:left;width:100%;border-collapse:collapse;padding:3px 3px 3px 3px">

<tr style="text-align:center;font-weight:bold;background:#9CBCE2">

<td>Hayatpur</td>

</tr>

<tr>

<td>

<table style="font-family:Arial,Verdana,Times;font-size:12px;text-align:left;width:100%;border-spacing:0px; padding:3px 3px 3px 3px">

<tr>

<td>FID</td>

<td>5</td>

</tr>

<tr bgcolor="#D4E4F3">

<td>COLONYNAME</td>

<td>Hayatpur</td>

</tr>

</table>

</td>

</tr>

</table>

</body>

</html>]]></description>
			<styleUrl>#PolyStyle00</styleUrl>
			<MultiGeometry>
				<Polygon>
					<outerBoundaryIs>
						<LinearRing>
							<coordinates>
								76.93552897030828,28.41630168469235,0 76.93577093760793,28.41620637898918,0 76.93586119212112,28.41618556602123,0 76.93587967293888,28.41615331887084,0 76.93608388503679,28.4159547790787,0 76.93615606295981,28.41588118407835,0 76.93618173363753,28.41586258346098,0 76.93625373062571,28.41579200948331,0 76.93635911745251,28.41570580127708,0 76.93643555500246,28.4156453673809,0 76.9365373156169,28.41554264543697,0 76.9365599278423,28.41551981995067,0 76.93664654923643,28.41544692073282,0 76.93669335768482,28.41540289585655,0 76.93674032466046,28.41535872252263,0 76.93680420862219,28.41529863757795,0 76.93688663641409,28.41537549728824,0 76.93698184243863,28.41551006530017,0 76.93717885027526,28.41568850902016,0 76.9372345850927,28.41575535640168,0 76.9372863715283,28.41581690967193,0 76.93730707326323,28.41584097059147,0 76.93736073937038,28.41581778877601,0 76.9374824573656,28.41600648708889,0 76.93748958684837,28.41604247402135,0 76.93739568125756,28.4161430833644,0 76.93728604344112,28.41625926890161,0 76.93740901476058,28.41632741531867,0 76.93754648654101,28.41640359767105,0 76.93754400035576,28.41650629982133,0 76.93754253617561,28.41656680969596,0 76.93753667743545,28.41680885012127,0 76.93752656188792,28.41722681256974,0 76.93714227084375,28.41672818282833,0 76.93703053374625,28.41688911691939,0 76.93697586018448,28.41694731758909,0 76.93691518081822,28.41701191230379,0 76.93683913546388,28.41713715961784,0 76.9368094458235,28.41708262374144,0 76.93678863487027,28.41705044008589,0 76.93644891908453,28.41676289114784,0 76.93616395405307,28.41694254156793,0 76.93593976856704,28.41707848877491,0 76.9357716473247,28.41691993814626,0 76.9357005461212,28.41685443484995,0 76.93552975464908,28.41674179490824,0 76.93530995276605,28.41687174644796,0 76.93511943623049,28.41695421985548,0 76.93512033406127,28.4169171576216,0 76.93504587620014,28.41666279331933,0 76.93499169779362,28.41650339441041,0 76.93504936988455,28.41648250907279,0 76.93510659893386,28.41646111654867,0 76.93538324965509,28.41635770591584,0 76.93543999803103,28.41633649334843,0 76.93549438220565,28.41631616442398,0 76.93552897030828,28.41630168469235,0 
							</coordinates>
						</LinearRing>
					</outerBoundaryIs>
				</Polygon>
			</MultiGeometry>
		</Placemark>
		<Placemark id="ID_00006">
			<name>Basharia</name>
			<Snippet maxLines="0"></Snippet>
			<description><![CDATA[<html xmlns:fo="http://www.w3.org/1999/XSL/Format" xmlns:msxsl="urn:schemas-microsoft-com:xslt">

<head>

<META http-equiv="Content-Type" content="text/html">

<meta http-equiv="content-type" content="text/html; charset=UTF-8">

</head>

<body style="margin:0px 0px 0px 0px;overflow:auto;background:#FFFFFF;">

<table style="font-family:Arial,Verdana,Times;font-size:12px;text-align:left;width:100%;border-collapse:collapse;padding:3px 3px 3px 3px">

<tr style="text-align:center;font-weight:bold;background:#9CBCE2">

<td>Basharia</td>

</tr>

<tr>

<td>

<table style="font-family:Arial,Verdana,Times;font-size:12px;text-align:left;width:100%;border-spacing:0px; padding:3px 3px 3px 3px">

<tr>

<td>FID</td>

<td>6</td>

</tr>

<tr bgcolor="#D4E4F3">

<td>COLONYNAME</td>

<td>Basharia</td>

</tr>

</table>

</td>

</tr>

</table>

</body>

</html>]]></description>
			<styleUrl>#PolyStyle00</styleUrl>
			<MultiGeometry>
				<Polygon>
					<outerBoundaryIs>
						<LinearRing>
							<coordinates>
								76.89454056978302,28.3737656134645,0 76.89440765841239,28.37386129186827,0 76.89440733926452,28.37393886549004,0 76.89453450445447,28.37393928859386,0 76.8945726311548,28.37393941545864,0 76.89382685123178,28.37435506014888,0 76.89368742214816,28.37424285408022,0 76.89343156981126,28.37404114585663,0 76.89325399151474,28.37393502461811,0 76.8932016797671,28.37393484991042,0 76.89308262228465,28.37393445279774,0 76.89303044420772,28.37393427887441,0 76.89305623236956,28.37381518804285,0 76.89315708533647,28.37379747499292,0 76.89310162276325,28.37365406322715,0 76.89326461816138,28.37352211720999,0 76.89341901327386,28.37338007073452,0 76.89344569573448,28.37336104449674,0 76.89366126547159,28.37318772303145,0 76.89375774623986,28.37310157662795,0 76.89387546559564,28.37301344297142,0 76.89454056978302,28.3737656134645,0 
							</coordinates>
						</LinearRing>
					</outerBoundaryIs>
				</Polygon>
			</MultiGeometry>
		</Placemark>
		<Placemark id="ID_00007">
			<name>Dhorka</name>
			<Snippet maxLines="0"></Snippet>
			<description><![CDATA[<html xmlns:fo="http://www.w3.org/1999/XSL/Format" xmlns:msxsl="urn:schemas-microsoft-com:xslt">

<head>

<META http-equiv="Content-Type" content="text/html">

<meta http-equiv="content-type" content="text/html; charset=UTF-8">

</head>

<body style="margin:0px 0px 0px 0px;overflow:auto;background:#FFFFFF;">

<table style="font-family:Arial,Verdana,Times;font-size:12px;text-align:left;width:100%;border-collapse:collapse;padding:3px 3px 3px 3px">

<tr style="text-align:center;font-weight:bold;background:#9CBCE2">

<td>Dhorka</td>

</tr>

<tr>

<td>

<table style="font-family:Arial,Verdana,Times;font-size:12px;text-align:left;width:100%;border-spacing:0px; padding:3px 3px 3px 3px">

<tr>

<td>FID</td>

<td>7</td>

</tr>

<tr bgcolor="#D4E4F3">

<td>COLONYNAME</td>

<td>Dhorka</td>

</tr>

</table>

</td>

</tr>

</table>

</body>

</html>]]></description>
			<styleUrl>#PolyStyle00</styleUrl>
			<MultiGeometry>
				<Polygon>
					<outerBoundaryIs>
						<LinearRing>
							<coordinates>
								76.9066550744346,28.40497375362449,0 76.90688642847309,28.40551994605744,0 76.90603785539123,28.40591799030631,0 76.90623001039778,28.40618098615172,0 76.90482675555506,28.40673163521265,0 76.90410764283479,28.40676987873933,0 76.90380664123009,28.40623029327839,0 76.90374059707567,28.4061312883322,0 76.90463547840355,28.40551812851532,0 76.90551446124286,28.40522395246283,0 76.90506858949711,28.40438697389545,0 76.90585190924777,28.40388109271844,0 76.9066550744346,28.40497375362449,0 
							</coordinates>
						</LinearRing>
					</outerBoundaryIs>
				</Polygon>
			</MultiGeometry>
		</Placemark>
		<Placemark id="ID_00008">
			<name>Bhangrola</name>
			<Snippet maxLines="0"></Snippet>
			<description><![CDATA[<html xmlns:fo="http://www.w3.org/1999/XSL/Format" xmlns:msxsl="urn:schemas-microsoft-com:xslt">

<head>

<META http-equiv="Content-Type" content="text/html">

<meta http-equiv="content-type" content="text/html; charset=UTF-8">

</head>

<body style="margin:0px 0px 0px 0px;overflow:auto;background:#FFFFFF;">

<table style="font-family:Arial,Verdana,Times;font-size:12px;text-align:left;width:100%;border-collapse:collapse;padding:3px 3px 3px 3px">

<tr style="text-align:center;font-weight:bold;background:#9CBCE2">

<td>Bhangrola</td>

</tr>

<tr>

<td>

<table style="font-family:Arial,Verdana,Times;font-size:12px;text-align:left;width:100%;border-spacing:0px; padding:3px 3px 3px 3px">

<tr>

<td>FID</td>

<td>8</td>

</tr>

<tr bgcolor="#D4E4F3">

<td>COLONYNAME</td>

<td>Bhangrola</td>

</tr>

</table>

</td>

</tr>

</table>

</body>

</html>]]></description>
			<styleUrl>#PolyStyle00</styleUrl>
			<MultiGeometry>
				<Polygon>
					<outerBoundaryIs>
						<LinearRing>
							<coordinates>
								76.90866482222545,28.39468760925612,0 76.90838375939384,28.39413933839063,0 76.90811979587383,28.39359130282484,0 76.90809225527546,28.393553033365,0 76.90744231622897,28.39321903458718,0 76.90734663295629,28.39315731105566,0 76.90744284928721,28.39318879755951,0 76.90779696642575,28.3933010329232,0 76.90792151744576,28.39319743782782,0 76.90799146708709,28.39315397019652,0 76.90815671389328,28.39311511434057,0 76.9082558155456,28.39309165050147,0 76.90825782135873,28.39311970604371,0 76.90863284941155,28.39319559620321,0 76.90857541302451,28.39305317817115,0 76.90851279042018,28.39274051528813,0 76.90852939106533,28.392744136839,0 76.90842437401389,28.39258494378953,0 76.90810840631616,28.39266537889591,0 76.90800764992106,28.3926824686697,0 76.90801025282485,28.39265231544886,0 76.90813790606842,28.3925632405862,0 76.90820735821033,28.3925037080509,0 76.90862250302644,28.39222459005649,0 76.90900338814991,28.39197027074403,0 76.90907257260677,28.39192585677089,0 76.90940571986545,28.39177534364257,0 76.90941868706288,28.39213330066379,0 76.908988312616,28.39243208391721,0 76.90943575820843,28.39280590180278,0 76.90970753589242,28.39271472378503,0 76.90999594031287,28.39314359603546,0 76.91069308392576,28.39360685688893,0 76.91071851474952,28.39362707488087,0 76.91077391139029,28.39370590304429,0 76.91087318763168,28.3938471717424,0 76.91111926732265,28.39417698657212,0 76.910797125315,28.39450524441762,0 76.91066517286521,28.39471514044509,0 76.91054176967461,28.39492515376392,0 76.91050126968189,28.39500020784052,0 76.91053910993543,28.39507633960334,0 76.91058720965488,28.39525846781664,0 76.91058772352186,28.39528870457058,0 76.91044945892601,28.39535745601517,0 76.91035039984726,28.39531288980649,0 76.91014108896871,28.39534306354465,0 76.9099336206645,28.39540872782314,0 76.90945720491855,28.39533365209846,0 76.90914623088027,28.39528237754285,0 76.90909976195108,28.39523799818114,0 76.90881166064463,28.39490937405304,0 76.9087813064919,28.39487068035629,0 76.90866482222545,28.39468760925612,0 
							</coordinates>
						</LinearRing>
					</outerBoundaryIs>
				</Polygon>
			</MultiGeometry>
		</Placemark>
		<Placemark id="ID_00009">
			<name>Kankrola</name>
			<Snippet maxLines="0"></Snippet>
			<description><![CDATA[<html xmlns:fo="http://www.w3.org/1999/XSL/Format" xmlns:msxsl="urn:schemas-microsoft-com:xslt">

<head>

<META http-equiv="Content-Type" content="text/html">

<meta http-equiv="content-type" content="text/html; charset=UTF-8">

</head>

<body style="margin:0px 0px 0px 0px;overflow:auto;background:#FFFFFF;">

<table style="font-family:Arial,Verdana,Times;font-size:12px;text-align:left;width:100%;border-collapse:collapse;padding:3px 3px 3px 3px">

<tr style="text-align:center;font-weight:bold;background:#9CBCE2">

<td>Kankrola</td>

</tr>

<tr>

<td>

<table style="font-family:Arial,Verdana,Times;font-size:12px;text-align:left;width:100%;border-spacing:0px; padding:3px 3px 3px 3px">

<tr>

<td>FID</td>

<td>9</td>

</tr>

<tr bgcolor="#D4E4F3">

<td>COLONYNAME</td>

<td>Kankrola</td>

</tr>

</table>

</td>

</tr>

</table>

</body>

</html>]]></description>
			<styleUrl>#PolyStyle00</styleUrl>
			<MultiGeometry>
				<Polygon>
					<outerBoundaryIs>
						<LinearRing>
							<coordinates>
								76.92014046349732,28.38747150906423,0 76.92018477715629,28.38739065936082,0 76.92024027809138,28.3872894003094,0 76.92033232492209,28.3873570541589,0 76.92036435570166,28.38740363564791,0 76.92049926252469,28.38772528435445,0 76.92046025865172,28.38777496714518,0 76.92049423178206,28.38781256490349,0 76.92053497478649,28.38785765457554,0 76.92032310951856,28.38798547836788,0 76.92041571601209,28.38820991963917,0 76.92050142673074,28.38834780701593,0 76.92056935291822,28.38850082292214,0 76.92061490866745,28.38862357190706,0 76.92066982901238,28.3887840706236,0 76.92032163886468,28.38903651120004,0 76.91978578642409,28.3893614686345,0 76.91951149011913,28.38955431364908,0 76.91947407258185,28.38958534380516,0 76.91915780228307,28.389765442151,0 76.91908826012293,28.38978854693794,0 76.91907579859328,28.38979268764398,0 76.91898269255532,28.38984979105776,0 76.91862162213859,28.39006348848879,0 76.91845451104186,28.39016326519787,0 76.91821966373818,28.39036177417267,0 76.9181513227971,28.3903593633922,0 76.91804978448991,28.39023770505256,0 76.91798857245901,28.38987886882541,0 76.91788648125059,28.38986991515972,0 76.91785089908142,28.38953565938029,0 76.91783595194536,28.38948970668488,0 76.91772776171052,28.38924357629352,0 76.91771281569575,28.3891976235638,0 76.9176822089204,28.38912082620478,0 76.91763523173837,28.38902829133636,0 76.91760533783304,28.38893638587325,0 76.91755693627975,28.38887406621224,0 76.91754270216342,28.38881300629177,0 76.91749430070597,28.38875068660292,0 76.91746226966205,28.38870410351842,0 76.91740034607611,28.38856561578611,0 76.91740248345451,28.38852029336233,0 76.91735764316883,28.38838243505255,0 76.91723593431192,28.38806013698347,0 76.91751995399873,28.38784360249712,0 76.91762672874188,28.38775673605034,0 76.91789010325336,28.38761510907715,0 76.9182118486895,28.3873242943756,0 76.9185948047985,28.3871870751743,0 76.91874883528511,28.3871312445211,0 76.91902902861933,28.3870186424452,0 76.919293804376,28.38687989795094,0 76.91936918478658,28.3868934574566,0 76.9194931079294,28.38700831486585,0 76.91991437117721,28.38752263392279,0 76.91994882523157,28.38750585099926,0 76.9199892544374,28.38748615753725,0 76.92007620631622,28.38758874303963,0 76.92014046349732,28.38747150906423,0 
							</coordinates>
						</LinearRing>
					</outerBoundaryIs>
				</Polygon>
			</MultiGeometry>
		</Placemark>
		<Placemark id="ID_00010">
			<name>Nainwal</name>
			<Snippet maxLines="0"></Snippet>
			<description><![CDATA[<html xmlns:fo="http://www.w3.org/1999/XSL/Format" xmlns:msxsl="urn:schemas-microsoft-com:xslt">

<head>

<META http-equiv="Content-Type" content="text/html">

<meta http-equiv="content-type" content="text/html; charset=UTF-8">

</head>

<body style="margin:0px 0px 0px 0px;overflow:auto;background:#FFFFFF;">

<table style="font-family:Arial,Verdana,Times;font-size:12px;text-align:left;width:100%;border-collapse:collapse;padding:3px 3px 3px 3px">

<tr style="text-align:center;font-weight:bold;background:#9CBCE2">

<td>Nainwal</td>

</tr>

<tr>

<td>

<table style="font-family:Arial,Verdana,Times;font-size:12px;text-align:left;width:100%;border-spacing:0px; padding:3px 3px 3px 3px">

<tr>

<td>FID</td>

<td>10</td>

</tr>

<tr bgcolor="#D4E4F3">

<td>COLONYNAME</td>

<td>Nainwal</td>

</tr>

</table>

</td>

</tr>

</table>

</body>

</html>]]></description>
			<styleUrl>#PolyStyle00</styleUrl>
			<MultiGeometry>
				<Polygon>
					<outerBoundaryIs>
						<LinearRing>
							<coordinates>
								76.94744621275599,28.33590474385221,0 76.94734686111353,28.33568149000721,0 76.94710239587357,28.33533917461421,0 76.94706225888581,28.33528149067631,0 76.94709053933646,28.33526506938205,0 76.94728115111158,28.33515439059306,0 76.94737024318484,28.3351032240768,0 76.94749289550452,28.33503747833324,0 76.947590291137,28.33497522357063,0 76.94759626026099,28.33497195918585,0 76.94782644853804,28.33484608033047,0 76.94785521963441,28.33483034672301,0 76.94815801677346,28.33524600634592,0 76.94823648011266,28.33517869291127,0 76.94828622405012,28.33518724000134,0 76.94847578834064,28.33503785360873,0 76.94855155173784,28.33511847057232,0 76.9486363963931,28.33521858306042,0 76.94853151947814,28.33536485028792,0 76.94844186685428,28.33549979143647,0 76.94841483628852,28.3355265700045,0 76.94831204343863,28.33564639866414,0 76.9482296324605,28.33576036560194,0 76.94814954592103,28.33578871507951,0 76.94800307861101,28.33586348444861,0 76.9478859157377,28.33592329480544,0 76.94779175657176,28.3359548527616,0 76.94750660755355,28.3360504207741,0 76.94725760438862,28.33609199697424,0 76.94721985810443,28.33609238070059,0 76.947185507596,28.33607483944831,0 76.9470947585032,28.33601232388838,0 76.94718750714341,28.33597420897221,0 76.94744621275599,28.33590474385221,0 
							</coordinates>
						</LinearRing>
					</outerBoundaryIs>
				</Polygon>
			</MultiGeometry>
		</Placemark>
		<Placemark id="ID_00011">
			<name>Naurangpur</name>
			<Snippet maxLines="0"></Snippet>
			<description><![CDATA[<html xmlns:fo="http://www.w3.org/1999/XSL/Format" xmlns:msxsl="urn:schemas-microsoft-com:xslt">

<head>

<META http-equiv="Content-Type" content="text/html">

<meta http-equiv="content-type" content="text/html; charset=UTF-8">

</head>

<body style="margin:0px 0px 0px 0px;overflow:auto;background:#FFFFFF;">

<table style="font-family:Arial,Verdana,Times;font-size:12px;text-align:left;width:100%;border-collapse:collapse;padding:3px 3px 3px 3px">

<tr style="text-align:center;font-weight:bold;background:#9CBCE2">

<td>Naurangpur</td>

</tr>

<tr>

<td>

<table style="font-family:Arial,Verdana,Times;font-size:12px;text-align:left;width:100%;border-spacing:0px; padding:3px 3px 3px 3px">

<tr>

<td>FID</td>

<td>11</td>

</tr>

<tr bgcolor="#D4E4F3">

<td>COLONYNAME</td>

<td>Naurangpur</td>

</tr>

</table>

</td>

</tr>

</table>

</body>

</html>]]></description>
			<styleUrl>#PolyStyle00</styleUrl>
			<MultiGeometry>
				<Polygon>
					<outerBoundaryIs>
						<LinearRing>
							<coordinates>
								76.96714939286737,28.35464514223568,0 76.96714688875173,28.35464166807757,0 76.96715705283269,28.35451155213767,0 76.9671645312045,28.35445972380227,0 76.96720475553241,28.354428870008,0 76.96732130635657,28.35433946955693,0 76.96726198519124,28.3542394502763,0 76.9672462002698,28.35421283560401,0 76.96718970390847,28.35411757623065,0 76.96717019525192,28.35408468502366,0 76.96711420123478,28.3539902729261,0 76.96710062625669,28.35396738479489,0 76.96709284913243,28.35395427250432,0 76.96707300040994,28.35392080414667,0 76.96703244575565,28.35386684802242,0 76.96691706477276,28.35371333708138,0 76.96696103445616,28.35369016370184,0 76.96704053750361,28.35364563151191,0 76.96711307793827,28.35360499970533,0 76.96703821208499,28.35346136473148,0 76.96708399578809,28.35342112081692,0 76.96725727562576,28.3532879878635,0 76.96812840387017,28.35269583159524,0 76.96836558798951,28.35295616012789,0 76.96866943782824,28.35328965673004,0 76.9691605276829,28.35299216825263,0 76.96927020253112,28.35315423939067,0 76.9690207577259,28.35337316046887,0 76.96912578056673,28.35355492494652,0 76.96925618948845,28.35349729437013,0 76.96930445742871,28.35360422047134,0 76.9689871402109,28.35377077726378,0 76.96909015876241,28.35391964705533,0 76.96885275301511,28.3540558840958,0 76.96890746146536,28.35414096795205,0 76.96936202363487,28.35467457974639,0 76.96988920549593,28.3544346737112,0 76.9699629107286,28.35445533092259,0 76.96990400651676,28.3547224073611,0 76.97001605278508,28.35483618468172,0 76.96966771001154,28.35509372537257,0 76.96990164423406,28.35534294787777,0 76.96983078884594,28.35539749329698,0 76.969559036934,28.35561708068965,0 76.9694362322287,28.35570547065846,0 76.96933674199221,28.3557770794915,0 76.96922395079132,28.35585826162643,0 76.96915753520499,28.35590606490698,0 76.96913105936179,28.35592512137679,0 76.9693025256398,28.35608838513937,0 76.96920050284633,28.35611748738356,0 76.96912753203502,28.35613954546425,0 76.96927005852757,28.35629740508165,0 76.96910245650238,28.35638836762171,0 76.96896525121903,28.35618840855386,0 76.9689490373343,28.3561654531743,0 76.96863857712104,28.35572589975092,0 76.96853374994431,28.35580413011234,0 76.96841597909936,28.35574142097735,0 76.96800099235165,28.35530933822605,0 76.96762735556072,28.3555178107275,0 76.96739369268359,28.35523409363763,0 76.96750652805588,28.35515221931471,0 76.96747588274508,28.35509825569267,0 76.96720428922602,28.35472133015091,0 76.96714939286737,28.35464514223568,0 
							</coordinates>
						</LinearRing>
					</outerBoundaryIs>
				</Polygon>
			</MultiGeometry>
		</Placemark>
		<Placemark id="ID_00012">
			<name>Sikanderpur Badha</name>
			<Snippet maxLines="0"></Snippet>
			<description><![CDATA[<html xmlns:fo="http://www.w3.org/1999/XSL/Format" xmlns:msxsl="urn:schemas-microsoft-com:xslt">

<head>

<META http-equiv="Content-Type" content="text/html">

<meta http-equiv="content-type" content="text/html; charset=UTF-8">

</head>

<body style="margin:0px 0px 0px 0px;overflow:auto;background:#FFFFFF;">

<table style="font-family:Arial,Verdana,Times;font-size:12px;text-align:left;width:100%;border-collapse:collapse;padding:3px 3px 3px 3px">

<tr style="text-align:center;font-weight:bold;background:#9CBCE2">

<td>Sikanderpur Badha</td>

</tr>

<tr>

<td>

<table style="font-family:Arial,Verdana,Times;font-size:12px;text-align:left;width:100%;border-spacing:0px; padding:3px 3px 3px 3px">

<tr>

<td>FID</td>

<td>12</td>

</tr>

<tr bgcolor="#D4E4F3">

<td>COLONYNAME</td>

<td>Sikanderpur Badha</td>

</tr>

</table>

</td>

</tr>

</table>

</body>

</html>]]></description>
			<styleUrl>#PolyStyle00</styleUrl>
			<MultiGeometry>
				<Polygon>
					<outerBoundaryIs>
						<LinearRing>
							<coordinates>
								76.95578437701415,28.40153919216824,0 76.95598456391153,28.40143699933861,0 76.95693028715026,28.40238495995252,0 76.957223642746,28.4025255525301,0 76.95715953903041,28.40258740660559,0 76.95707927699929,28.40300025313145,0 76.95700736910732,28.40321152994114,0 76.95687123916692,28.40330826390717,0 76.95704697126997,28.40348242473417,0 76.95628897498072,28.40402479232792,0 76.95631448392817,28.40396291829262,0 76.95643824684797,28.40374450157076,0 76.95629998044286,28.40361018258712,0 76.9564698541018,28.40342998089733,0 76.95674334594393,28.40336696381995,0 76.95670841958965,28.40329001658546,0 76.95644855225589,28.40333314505891,0 76.95585479366771,28.40329463589491,0 76.95576925816147,28.40329983582988,0 76.95508215072164,28.40234136397413,0 76.95515011707707,28.40232039938176,0 76.95497864701636,28.40198246366759,0 76.95504712036544,28.40192620671885,0 76.95578437701415,28.40153919216824,0 
							</coordinates>
						</LinearRing>
					</outerBoundaryIs>
				</Polygon>
			</MultiGeometry>
		</Placemark>
		<Placemark id="ID_00013">
			<name>Badha</name>
			<Snippet maxLines="0"></Snippet>
			<description><![CDATA[<html xmlns:fo="http://www.w3.org/1999/XSL/Format" xmlns:msxsl="urn:schemas-microsoft-com:xslt">

<head>

<META http-equiv="Content-Type" content="text/html">

<meta http-equiv="content-type" content="text/html; charset=UTF-8">

</head>

<body style="margin:0px 0px 0px 0px;overflow:auto;background:#FFFFFF;">

<table style="font-family:Arial,Verdana,Times;font-size:12px;text-align:left;width:100%;border-collapse:collapse;padding:3px 3px 3px 3px">

<tr style="text-align:center;font-weight:bold;background:#9CBCE2">

<td>Badha</td>

</tr>

<tr>

<td>

<table style="font-family:Arial,Verdana,Times;font-size:12px;text-align:left;width:100%;border-spacing:0px; padding:3px 3px 3px 3px">

<tr>

<td>FID</td>

<td>13</td>

</tr>

<tr bgcolor="#D4E4F3">

<td>COLONYNAME</td>

<td>Badha</td>

</tr>

</table>

</td>

</tr>

</table>

</body>

</html>]]></description>
			<styleUrl>#PolyStyle00</styleUrl>
			<MultiGeometry>
				<Polygon>
					<outerBoundaryIs>
						<LinearRing>
							<coordinates>
								76.94432154187568,28.403419589714,0 76.94443708711168,28.40331716636695,0 76.94454282500084,28.40340636560664,0 76.94456392809967,28.40343753690457,0 76.94507484515732,28.40416410747356,0 76.94517046371581,28.40421215646215,0 76.94517361265461,28.40426479840056,0 76.94517432234322,28.40428816737304,0 76.94476840033062,28.40443159963723,0 76.94472158618056,28.40445096213609,0 76.9449450677474,28.40472794419732,0 76.94480546346439,28.40477371849056,0 76.94476030317871,28.40477753086875,0 76.94467511428881,28.40478472133679,0 76.9444820606807,28.4047949347338,0 76.94423145870766,28.40484080090285,0 76.94389289291806,28.40491936707399,0 76.94383582097693,28.40493338738143,0 76.94372432774387,28.40479727513082,0 76.94352027344847,28.40483193382779,0 76.94321681710099,28.40471369757724,0 76.94319478947352,28.40465613623036,0 76.94331332341002,28.40455796739951,0 76.94316382032554,28.40421874205966,0 76.94307862845335,28.40404738101308,0 76.94323050771845,28.40385454043764,0 76.94306645373567,28.40362390415321,0 76.94315768404715,28.40352486985467,0 76.94319767115002,28.40350157163496,0 76.94337848363136,28.40339271498301,0 76.9435143673781,28.40369363314435,0 76.94369187363347,28.40361437112923,0 76.94382088299415,28.40355839702998,0 76.94379179942062,28.40352097406861,0 76.94409333984635,28.40336728953636,0 76.94415078937325,28.40348990185023,0 76.94432154187568,28.403419589714,0 
							</coordinates>
						</LinearRing>
					</outerBoundaryIs>
				</Polygon>
			</MultiGeometry>
		</Placemark>
		<Placemark id="ID_00014">
			<name>Lakhnola</name>
			<Snippet maxLines="0"></Snippet>
			<description><![CDATA[<html xmlns:fo="http://www.w3.org/1999/XSL/Format" xmlns:msxsl="urn:schemas-microsoft-com:xslt">

<head>

<META http-equiv="Content-Type" content="text/html">

<meta http-equiv="content-type" content="text/html; charset=UTF-8">

</head>

<body style="margin:0px 0px 0px 0px;overflow:auto;background:#FFFFFF;">

<table style="font-family:Arial,Verdana,Times;font-size:12px;text-align:left;width:100%;border-collapse:collapse;padding:3px 3px 3px 3px">

<tr style="text-align:center;font-weight:bold;background:#9CBCE2">

<td>Lakhnola</td>

</tr>

<tr>

<td>

<table style="font-family:Arial,Verdana,Times;font-size:12px;text-align:left;width:100%;border-spacing:0px; padding:3px 3px 3px 3px">

<tr>

<td>FID</td>

<td>14</td>

</tr>

<tr bgcolor="#D4E4F3">

<td>COLONYNAME</td>

<td>Lakhnola</td>

</tr>

</table>

</td>

</tr>

</table>

</body>

</html>]]></description>
			<styleUrl>#PolyStyle00</styleUrl>
			<MultiGeometry>
				<Polygon>
					<outerBoundaryIs>
						<LinearRing>
							<coordinates>
								76.95081544488519,28.38081124601282,0 76.95042752457999,28.38104976572655,0 76.95028621137524,28.3807321979488,0 76.95020520732639,28.3805401303262,0 76.95005928814955,28.38018483874727,0 76.95045913107869,28.38005202246883,0 76.9504119758156,28.37992238686762,0 76.95036839822959,28.37977604008705,0 76.9503149630868,28.3796736129905,0 76.95021308004112,28.37948200301495,0 76.95035937236672,28.37947113767979,0 76.95033838593272,28.37935989896017,0 76.9503069394912,28.37919761010169,0 76.95048694297149,28.37907362383066,0 76.95044864961694,28.37894169651048,0 76.95043824372887,28.37889723126228,0 76.95037527081075,28.3785996596607,0 76.95034328939768,28.37841102411388,0 76.95030510544254,28.37820793981382,0 76.95029121391683,28.37816423462133,0 76.95040210529778,28.37818162726306,0 76.9504865747307,28.37819340167031,0 76.95070132967372,28.37821592349756,0 76.95093357002686,28.3782654278707,0 76.95099080070534,28.37827762717762,0 76.95113895785327,28.37831337623898,0 76.95119692346772,28.37832246882975,0 76.95125420915554,28.37833220822077,0 76.95135402670846,28.37835452870258,0 76.95155327293247,28.37839664831792,0 76.95165998236112,28.37837247343557,0 76.95179794388213,28.37833496735054,0 76.95213182703181,28.37824709368118,0 76.95225093887909,28.37823866603628,0 76.95224628536853,28.37833865622743,0 76.95236376792657,28.37863249489727,0 76.95248772318791,28.37902045655249,0 76.95225021031624,28.37910561659548,0 76.95201801002148,28.37921490313923,0 76.95208951190604,28.3793276593213,0 76.95216472843954,28.37943849248149,0 76.95222337781097,28.37956112350386,0 76.95217145778092,28.37958416099702,0 76.95199992226398,28.37967801101179,0 76.95212729480609,28.38002353058735,0 76.9509337410373,28.38045440993178,0 76.95081544488519,28.38081124601282,0 
							</coordinates>
						</LinearRing>
					</outerBoundaryIs>
				</Polygon>
			</MultiGeometry>
		</Placemark>
		<Placemark id="ID_00015">
			<name>Nawada Fatehpur</name>
			<Snippet maxLines="0"></Snippet>
			<description><![CDATA[<html xmlns:fo="http://www.w3.org/1999/XSL/Format" xmlns:msxsl="urn:schemas-microsoft-com:xslt">

<head>

<META http-equiv="Content-Type" content="text/html">

<meta http-equiv="content-type" content="text/html; charset=UTF-8">

</head>

<body style="margin:0px 0px 0px 0px;overflow:auto;background:#FFFFFF;">

<table style="font-family:Arial,Verdana,Times;font-size:12px;text-align:left;width:100%;border-collapse:collapse;padding:3px 3px 3px 3px">

<tr style="text-align:center;font-weight:bold;background:#9CBCE2">

<td>Nawada Fatehpur</td>

</tr>

<tr>

<td>

<table style="font-family:Arial,Verdana,Times;font-size:12px;text-align:left;width:100%;border-spacing:0px; padding:3px 3px 3px 3px">

<tr>

<td>FID</td>

<td>15</td>

</tr>

<tr bgcolor="#D4E4F3">

<td>COLONYNAME</td>

<td>Nawada Fatehpur</td>

</tr>

</table>

</td>

</tr>

</table>

</body>

</html>]]></description>
			<styleUrl>#PolyStyle00</styleUrl>
			<MultiGeometry>
				<Polygon>
					<outerBoundaryIs>
						<LinearRing>
							<coordinates>
								76.9411469247153,28.39574189292455,0 76.94109566932235,28.39574042701567,0 76.94103447176522,28.39558350245172,0 76.94099607687201,28.39549957222391,0 76.94098308660728,28.39546494397622,0 76.94094844755929,28.39517968078446,0 76.9407736698948,28.39532202864174,0 76.94079371319992,28.39541083618681,0 76.9404960845628,28.39544303404593,0 76.94042235448502,28.39546433057949,0 76.94036905130393,28.3954823671878,0 76.9403452231921,28.395427381904,0 76.94017205239544,28.39545903225122,0 76.93999060293608,28.39513470551208,0 76.93994350053448,28.39502759920866,0 76.93982438649817,28.39481946247972,0 76.93976327824197,28.39482603502234,0 76.93967809097195,28.39483240090446,0 76.93937141524333,28.39485531676092,0 76.93931697759174,28.39486899340697,0 76.93909353228315,28.39445938258353,0 76.93895174176693,28.39410927856775,0 76.93894676261077,28.39398286377919,0 76.93911421260425,28.39393327121174,0 76.93918040047961,28.3939179636861,0 76.93926431596421,28.39390343786327,0 76.93929292928149,28.39393539567093,0 76.93938994401425,28.39409484501624,0 76.93959249769883,28.39401019669618,0 76.93979827278356,28.39393563877928,0 76.9399580098535,28.39388152666641,0 76.94027748347612,28.39377330190098,0 76.94022011284707,28.39364084033233,0 76.9401993612565,28.39359292833588,0 76.94040283731177,28.39343543363773,0 76.94045048945181,28.39341859020578,0 76.940500316097,28.39348037911626,0 76.94073270801476,28.39384950871721,0 76.94081962599411,28.3940522929364,0 76.94087681605789,28.39418481544006,0 76.94096341773565,28.39438493838079,0 76.94101947088093,28.39451446662867,0 76.94108896892909,28.39453973578232,0 76.94115907515494,28.39451511561402,0 76.9413186681244,28.39437818603444,0 76.94146677981297,28.39438789709223,0 76.94171951107084,28.39467367058792,0 76.94178335735332,28.39482976568494,0 76.94171752389525,28.39486032165471,0 76.94117764960731,28.39502245987236,0 76.94120777592491,28.39506375438407,0 76.94133399342267,28.39527782283423,0 76.94139042477545,28.39538773832274,0 76.94147066235305,28.39536717600265,0 76.94149395927816,28.39561583905362,0 76.9411469247153,28.39574189292455,0 
							</coordinates>
						</LinearRing>
					</outerBoundaryIs>
				</Polygon>
			</MultiGeometry>
		</Placemark>
		<Placemark id="ID_00016">
			<name>Naharpur Kasan</name>
			<Snippet maxLines="0"></Snippet>
			<description><![CDATA[<html xmlns:fo="http://www.w3.org/1999/XSL/Format" xmlns:msxsl="urn:schemas-microsoft-com:xslt">

<head>

<META http-equiv="Content-Type" content="text/html">

<meta http-equiv="content-type" content="text/html; charset=UTF-8">

</head>

<body style="margin:0px 0px 0px 0px;overflow:auto;background:#FFFFFF;">

<table style="font-family:Arial,Verdana,Times;font-size:12px;text-align:left;width:100%;border-collapse:collapse;padding:3px 3px 3px 3px">

<tr style="text-align:center;font-weight:bold;background:#9CBCE2">

<td>Naharpur Kasan</td>

</tr>

<tr>

<td>

<table style="font-family:Arial,Verdana,Times;font-size:12px;text-align:left;width:100%;border-spacing:0px; padding:3px 3px 3px 3px">

<tr>

<td>FID</td>

<td>16</td>

</tr>

<tr bgcolor="#D4E4F3">

<td>COLONYNAME</td>

<td>Naharpur Kasan</td>

</tr>

</table>

</td>

</tr>

</table>

</body>

</html>]]></description>
			<styleUrl>#PolyStyle00</styleUrl>
			<MultiGeometry>
				<Polygon>
					<outerBoundaryIs>
						<LinearRing>
							<coordinates>
								76.93381547730564,28.37623971760207,0 76.93387221621096,28.37626725208151,0 76.9339933679038,28.376323842675,0 76.9341169896929,28.37621483637288,0 76.93430763875358,28.37635525819043,0 76.93449043842827,28.37647906074013,0 76.93439737455199,28.37662784251647,0 76.93447979430678,28.37669834158636,0 76.9347059310234,28.37687146711986,0 76.93476272860937,28.37691631103334,0 76.93470883806776,28.37695376495719,0 76.93462800115508,28.37700994536951,0 76.934601430445,28.37708179961148,0 76.93457485970177,28.37715365384928,0 76.93452990305256,28.37738679355662,0 76.93444097711019,28.37749803380067,0 76.93434092027246,28.37760168223781,0 76.933817273491,28.37797055109486,0 76.93373160230884,28.3779674174495,0 76.93337721663146,28.37777462326663,0 76.93324826024237,28.37771652041155,0 76.93306162114652,28.37762533819059,0 76.93299462375963,28.37759112952244,0 76.93292022277214,28.37756799267231,0 76.93285355427956,28.37752699144025,0 76.93278264538054,28.37749330378707,0 76.9328599513529,28.37746052943845,0 76.93291454270222,28.37742852938383,0 76.93288150899939,28.37739191131537,0 76.93275360784949,28.37722294080984,0 76.93260615733105,28.37703739700202,0 76.93258141957236,28.3768192830886,0 76.933125388723,28.37631201347052,0 76.93341796105462,28.37602178552491,0 76.93370494223454,28.37618695935386,0 76.93381547730564,28.37623971760207,0 
							</coordinates>
						</LinearRing>
					</outerBoundaryIs>
				</Polygon>
			</MultiGeometry>
		</Placemark>
		<Placemark id="ID_00017">
			<name>Khoh</name>
			<Snippet maxLines="0"></Snippet>
			<description><![CDATA[<html xmlns:fo="http://www.w3.org/1999/XSL/Format" xmlns:msxsl="urn:schemas-microsoft-com:xslt">

<head>

<META http-equiv="Content-Type" content="text/html">

<meta http-equiv="content-type" content="text/html; charset=UTF-8">

</head>

<body style="margin:0px 0px 0px 0px;overflow:auto;background:#FFFFFF;">

<table style="font-family:Arial,Verdana,Times;font-size:12px;text-align:left;width:100%;border-collapse:collapse;padding:3px 3px 3px 3px">

<tr style="text-align:center;font-weight:bold;background:#9CBCE2">

<td>Khoh</td>

</tr>

<tr>

<td>

<table style="font-family:Arial,Verdana,Times;font-size:12px;text-align:left;width:100%;border-spacing:0px; padding:3px 3px 3px 3px">

<tr>

<td>FID</td>

<td>17</td>

</tr>

<tr bgcolor="#D4E4F3">

<td>COLONYNAME</td>

<td>Khoh</td>

</tr>

</table>

</td>

</tr>

</table>

</body>

</html>]]></description>
			<styleUrl>#PolyStyle00</styleUrl>
			<MultiGeometry>
				<Polygon>
					<outerBoundaryIs>
						<LinearRing>
							<coordinates>
								76.92039590464601,28.35635186558287,0 76.92087355860505,28.35598169324425,0 76.92132999725483,28.35562795960875,0 76.92185839188812,28.35533993464665,0 76.92406600427181,28.35494034173983,0 76.92479471611193,28.35449816455982,0 76.92506607778655,28.35477145493056,0 76.92518974939487,28.35487632899509,0 76.92499743155103,28.35492401507648,0 76.92494588460131,28.35493956218546,0 76.92464225319226,28.35499373129377,0 76.92450821427425,28.35479683630084,0 76.92410759979789,28.35514415944392,0 76.924018111867,28.35532588925845,0 76.92398929249666,28.35544504934493,0 76.92396132609461,28.35554877985664,0 76.92395333554408,28.35557841740469,0 76.92396997325639,28.35566838845452,0 76.9239866120375,28.35575836038763,0 76.92401176114539,28.35584671963133,0 76.92401940513476,28.3558734870669,0 76.92403732539384,28.3559660677929,0 76.92407016337165,28.35613174905694,0 76.92407019178199,28.35617738219566,0 76.92397531052201,28.3562136885088,0 76.92391752319088,28.35627032484175,0 76.92398555027376,28.35640094570141,0 76.92381829346334,28.35651549008208,0 76.92383179405856,28.35660668755574,0 76.92373499387666,28.3566251406132,0 76.92354255965344,28.35638327371087,0 76.92349172569639,28.35639858553922,0 76.92357451822946,28.35666190036422,0 76.92336929215189,28.3567412873051,0 76.92319563874611,28.35680846029737,0 76.92308415561557,28.35652135387048,0 76.92285591549144,28.35659010413402,0 76.92291449070993,28.3568275453303,0 76.92289326445101,28.35682530899977,0 76.92271437777843,28.35690003341622,0 76.92268614183877,28.35676250948451,0 76.92266527215975,28.35666086130977,0 76.92236917824738,28.35661143629617,0 76.92234903127854,28.35660331002219,0 76.92210866429485,28.35661409011105,0 76.92219039732834,28.35682999418576,0 76.92187086224999,28.35689140768955,0 76.92173698983872,28.35691992851453,0 76.92166902389761,28.3564833317204,0 76.92156130681427,28.35653138883437,0 76.92152694066061,28.35654043434752,0 76.92121764706545,28.35662184536366,0 76.92106326012345,28.3566688335375,0 76.9209894523777,28.35668436803684,0 76.92087402316093,28.3567761888195,0 76.92065961854038,28.35692859985805,0 76.9205400240352,28.35670343260637,0 76.92039590464601,28.35635186558287,0 
							</coordinates>
						</LinearRing>
					</outerBoundaryIs>
				</Polygon>
			</MultiGeometry>
		</Placemark>
		<Placemark id="ID_00018">
			<name>Kasan</name>
			<Snippet maxLines="0"></Snippet>
			<description><![CDATA[<html xmlns:fo="http://www.w3.org/1999/XSL/Format" xmlns:msxsl="urn:schemas-microsoft-com:xslt">

<head>

<META http-equiv="Content-Type" content="text/html">

<meta http-equiv="content-type" content="text/html; charset=UTF-8">

</head>

<body style="margin:0px 0px 0px 0px;overflow:auto;background:#FFFFFF;">

<table style="font-family:Arial,Verdana,Times;font-size:12px;text-align:left;width:100%;border-collapse:collapse;padding:3px 3px 3px 3px">

<tr style="text-align:center;font-weight:bold;background:#9CBCE2">

<td>Kasan</td>

</tr>

<tr>

<td>

<table style="font-family:Arial,Verdana,Times;font-size:12px;text-align:left;width:100%;border-spacing:0px; padding:3px 3px 3px 3px">

<tr>

<td>FID</td>

<td>18</td>

</tr>

<tr bgcolor="#D4E4F3">

<td>COLONYNAME</td>

<td>Kasan</td>

</tr>

</table>

</td>

</tr>

</table>

</body>

</html>]]></description>
			<styleUrl>#PolyStyle00</styleUrl>
			<MultiGeometry>
				<Polygon>
					<outerBoundaryIs>
						<LinearRing>
							<coordinates>
								76.90283554829215,28.35635292581135,0 76.90330571437235,28.35906665729627,0 76.90328558201864,28.35927174602066,0 76.90094192662711,28.36066495673711,0 76.89982947323327,28.36134205334303,0 76.8996038707151,28.35945701611705,0 76.8995865208167,28.35942149726922,0 76.89956328323677,28.35937392849064,0 76.89955336540329,28.35921583663864,0 76.89968761954027,28.35921433026415,0 76.89968662855993,28.35915238924042,0 76.89962714840671,28.35915307377714,0 76.89978427874182,28.35903972710096,0 76.89982668444902,28.3590168159219,0 76.89949105127516,28.35860443541534,0 76.8997466557225,28.3584832327527,0 76.89969475483019,28.35840505489735,0 76.89978878271668,28.3583608313558,0 76.8997952951734,28.35824025465086,0 76.89981364438208,28.35810530275347,0 76.89970653897699,28.35815201781947,0 76.89956637857148,28.35794386691609,0 76.89949356255181,28.35784148093082,0 76.89942050806862,28.35773875711278,0 76.89932284158161,28.35765486832953,0 76.89929228996996,28.35763656632398,0 76.89912981037637,28.35747321732438,0 76.89897159011876,28.35727083104027,0 76.89895627339472,28.3572438187404,0 76.89883627273908,28.35706364416292,0 76.89872331509295,28.35685788553525,0 76.89883265100869,28.35683708986012,0 76.89893503197429,28.3568359127888,0 76.89893479064442,28.35682080892675,0 76.89903717158856,28.35681963177947,0 76.8992419334559,28.35681727725448,0 76.89944669529531,28.3568149224222,0 76.89965145710678,28.35681256728265,0 76.89969240906741,28.35681209676484,0 76.89978113930741,28.35681107589999,0 76.89988487659537,28.3570512409737,0 76.90008462362429,28.3570133658793,0 76.9001997654477,28.35694855894785,0 76.90026996158798,28.35718218583354,0 76.90039159209066,28.35712743135527,0 76.90080051519051,28.35723552005431,0 76.90092699924926,28.35730109310187,0 76.90103704476938,28.3573727221221,0 76.90105277795425,28.35741585980643,0 76.9016949880464,28.35724677349573,0 76.90167115597569,28.35720158670543,0 76.90163790898539,28.35695862868881,0 76.90159355339436,28.35663941331726,0 76.90155579481177,28.35636767000654,0 76.90176333399171,28.35628300766767,0 76.90186319319879,28.35624227225145,0 76.9021223846417,28.35614821390502,0 76.90222150810816,28.35611016955385,0 76.90276333973958,28.3559099834409,0 76.90283554829215,28.35635292581135,0 
							</coordinates>
						</LinearRing>
					</outerBoundaryIs>
				</Polygon>
			</MultiGeometry>
		</Placemark>
		<Placemark id="ID_00019">
			<name>Manesar</name>
			<Snippet maxLines="0"></Snippet>
			<description><![CDATA[<html xmlns:fo="http://www.w3.org/1999/XSL/Format" xmlns:msxsl="urn:schemas-microsoft-com:xslt">

<head>

<META http-equiv="Content-Type" content="text/html">

<meta http-equiv="content-type" content="text/html; charset=UTF-8">

</head>

<body style="margin:0px 0px 0px 0px;overflow:auto;background:#FFFFFF;">

<table style="font-family:Arial,Verdana,Times;font-size:12px;text-align:left;width:100%;border-collapse:collapse;padding:3px 3px 3px 3px">

<tr style="text-align:center;font-weight:bold;background:#9CBCE2">

<td>Manesar</td>

</tr>

<tr>

<td>

<table style="font-family:Arial,Verdana,Times;font-size:12px;text-align:left;width:100%;border-spacing:0px; padding:3px 3px 3px 3px">

<tr>

<td>FID</td>

<td>19</td>

</tr>

<tr bgcolor="#D4E4F3">

<td>COLONYNAME</td>

<td>Manesar</td>

</tr>

</table>

</td>

</tr>

</table>

</body>

</html>]]></description>
			<styleUrl>#PolyStyle00</styleUrl>
			<MultiGeometry>
				<Polygon>
					<outerBoundaryIs>
						<LinearRing>
							<coordinates>
								76.93986498785179,28.35567779676656,0 76.93962253365085,28.35575908838142,0 76.9395417212052,28.35580075040095,0 76.93942822458501,28.35567864021982,0 76.93936761662943,28.35567189165759,0 76.93916498690776,28.35576798913608,0 76.93901547322606,28.355633557041,0 76.93906570456903,28.35560578958117,0 76.93894921125312,28.35548640893589,0 76.9389489510102,28.35545435588,0 76.93887626645478,28.35547809940886,0 76.93875491824832,28.35536755622731,0 76.93874604090576,28.35534586883117,0 76.93862647211282,28.35520355748918,0 76.9385430773132,28.35483343397705,0 76.93855630428158,28.35478253747066,0 76.9383192614534,28.35447182774075,0 76.93800528245394,28.35424635535133,0 76.93780028075435,28.35423785418389,0 76.93779578515429,28.35413199103863,0 76.93780747275498,28.35390524006504,0 76.9379482299817,28.35406870283155,0 76.93815205098073,28.35394131498502,0 76.93828886166546,28.3538558078592,0 76.9383539617824,28.35379853835092,0 76.9385338638654,28.35403241024423,0 76.93861746639089,28.35396930340016,0 76.93866266736762,28.35394099401049,0 76.93889473899793,28.35379061362614,0 76.93871683889897,28.35360545945193,0 76.93857211814002,28.35347371446858,0 76.93838133869696,28.35326734710578,0 76.93825346837399,28.35306024026089,0 76.93816424730518,28.35298008538795,0 76.93831798818665,28.35287173070493,0 76.93840488400177,28.3528104866589,0 76.93842449467665,28.35287828740782,0 76.93847164798193,28.35292219267645,0 76.93879825814668,28.3526948166318,0 76.93885362378725,28.35265933025465,0 76.93901145016275,28.35283723661542,0 76.93914661337674,28.3530002416901,0 76.93917857354089,28.35304435107695,0 76.93925170701071,28.35301991974353,0 76.93937858446544,28.35314161156082,0 76.939499196236,28.3530746208019,0 76.93931275136299,28.35282370671904,0 76.93924694483736,28.35273514394164,0 76.939216284132,28.3527484356308,0 76.93917291307521,28.35266670427587,0 76.93913655137467,28.35259817995724,0 76.93929682449784,28.35247204702118,0 76.93939974552848,28.35233486055915,0 76.93927685044193,28.3522134504672,0 76.93919692979341,28.35213449590695,0 76.93925885440764,28.35201119763111,0 76.93920138255771,28.35198617136727,0 76.93942358282322,28.35192987922795,0 76.93950575778641,28.35190906050084,0 76.93960049855623,28.35194253436647,0 76.93965481772918,28.35202761473977,0 76.93968692253625,28.35212092607613,0 76.93971395433118,28.35216412004525,0 76.93985622250146,28.35244673715976,0 76.93991352682461,28.35243386031902,0 76.93999082813586,28.35241220012091,0 76.94009420675053,28.3523789898851,0 76.94021831485014,28.35259491886432,0 76.94037333498473,28.35250079620073,0 76.94046974898048,28.35260676134249,0 76.94050079956537,28.35266864523403,0 76.94060145040643,28.35282430723211,0 76.94062613495092,28.35287077672176,0 76.94073836540562,28.35299662100281,0 76.94078107299084,28.35305156457767,0 76.94084059852544,28.35311462761185,0 76.94086648825626,28.35316857068907,0 76.94091444303504,28.35325652589409,0 76.94097153405943,28.35334062771171,0 76.94104438557849,28.35331775787699,0 76.94111956653542,28.35328561519559,0 76.9413791771491,28.35318981984344,0 76.94148351736624,28.35314127395986,0 76.94157340237028,28.35311629601724,0 76.94181771886392,28.35302620604736,0 76.94209782220204,28.35290606770279,0 76.94217922964805,28.35305612436431,0 76.94230516696068,28.35332899618249,0 76.94198061717711,28.35352526622628,0 76.94201460516955,28.35356627154663,0 76.94206984479457,28.35374137975225,0 76.94213353475209,28.35381263977743,0 76.94219722479585,28.35388389976793,0 76.9417628228959,28.35408063792753,0 76.94164098251551,28.35411524311219,0 76.9416815352144,28.35429307743992,0 76.94174736600075,28.35439211088422,0 76.94177785256221,28.35447471967789,0 76.94178316295269,28.35448911035513,0 76.94156889987948,28.35459543147827,0 76.94128418402809,28.35467303513177,0 76.94099171775417,28.35477030168624,0 76.94105797723449,28.35492021551173,0 76.94096740941323,28.35498809740942,0 76.94078228165745,28.35503952392624,0 76.94091298918602,28.35524136101225,0 76.94080005493484,28.35533894419178,0 76.94053888570267,28.35548283598514,0 76.94033650810725,28.35551638374473,0 76.94031970254278,28.35551916951088,0 76.94022774079056,28.35554535117731,0 76.94013781601096,28.35557797578259,0 76.94000065702319,28.35562764562426,0 76.93986498785179,28.35567779676656,0 
							</coordinates>
						</LinearRing>
					</outerBoundaryIs>
				</Polygon>
				<Polygon>
					<outerBoundaryIs>
						<LinearRing>
							<coordinates>
								76.93767254253157,28.35373300512473,0 76.93765228350345,28.35412604003383,0 76.93705799752206,28.35410139284655,0 76.93697194501162,28.35403950905308,0 76.93714725153288,28.35386436864213,0 76.9371454023351,28.35378039340484,0 76.93711100367257,28.35373201192986,0 76.93706936103737,28.35367344242852,0 76.93688230151031,28.35374791396506,0 76.9367863707061,28.35354476100332,0 76.93671463770642,28.35339285249058,0 76.93700998552532,28.35330160925153,0 76.93706963909574,28.35327997672081,0 76.93720713542801,28.35319014656715,0 76.93741419396946,28.35343127569273,0 76.93753843016265,28.35357595298246,0 76.93767254253157,28.35373300512473,0 
							</coordinates>
						</LinearRing>
					</outerBoundaryIs>
				</Polygon>
			</MultiGeometry>
		</Placemark>
		<Placemark id="ID_00020">
			<name>Kukrola</name>
			<Snippet maxLines="0"></Snippet>
			<description><![CDATA[<html xmlns:fo="http://www.w3.org/1999/XSL/Format" xmlns:msxsl="urn:schemas-microsoft-com:xslt">

<head>

<META http-equiv="Content-Type" content="text/html">

<meta http-equiv="content-type" content="text/html; charset=UTF-8">

</head>

<body style="margin:0px 0px 0px 0px;overflow:auto;background:#FFFFFF;">

<table style="font-family:Arial,Verdana,Times;font-size:12px;text-align:left;width:100%;border-collapse:collapse;padding:3px 3px 3px 3px">

<tr style="text-align:center;font-weight:bold;background:#9CBCE2">

<td>Kukrola</td>

</tr>

<tr>

<td>

<table style="font-family:Arial,Verdana,Times;font-size:12px;text-align:left;width:100%;border-spacing:0px; padding:3px 3px 3px 3px">

<tr>

<td>FID</td>

<td>20</td>

</tr>

<tr bgcolor="#D4E4F3">

<td>COLONYNAME</td>

<td>Kukrola</td>

</tr>

</table>

</td>

</tr>

</table>

</body>

</html>]]></description>
			<styleUrl>#PolyStyle00</styleUrl>
			<MultiGeometry>
				<Polygon>
					<outerBoundaryIs>
						<LinearRing>
							<coordinates>
								76.89861526547011,28.31666203206517,0 76.89882592544124,28.31666044698127,0 76.89891279786347,28.31663015411205,0 76.89893729033568,28.31662161391687,0 76.89905310671242,28.31659525242739,0 76.89984032238466,28.31620744493181,0 76.90016040143034,28.31651698338437,0 76.90022356476641,28.3165780661303,0 76.90038799777807,28.31675000940898,0 76.9003892124576,28.31675133708631,0 76.90048405622139,28.31685499647689,0 76.9004696554251,28.31690643065344,0 76.90043503765372,28.31703008317028,0 76.9005903913837,28.31720171314416,0 76.90058738246198,28.31720958800098,0 76.9010836297936,28.31777888403792,0 76.90125326736835,28.31797349080481,0 76.90082137689485,28.31831720295348,0 76.90049129281961,28.31884527185212,0 76.90038818219867,28.318999908887,0 76.90023755251265,28.31920124788347,0 76.90007563500038,28.31902382531078,0 76.89991773187501,28.31872087242749,0 76.89982018269946,28.31847757941436,0 76.89973489927208,28.31835642407007,0 76.89920904590129,28.31823762722846,0 76.89906432453874,28.31802146339852,0 76.89884983243704,28.31767553598625,0 76.89890226527068,28.31737733022824,0 76.89895469684194,28.31707912446606,0 76.89903140359932,28.31703224676196,0 76.89887389594563,28.31681718736577,0 76.89872419426892,28.31692751967162,0 76.89869174827039,28.31689207858784,0 76.89854608126933,28.31669535438876,0 76.89858450492814,28.31667684817413,0 76.89861526547011,28.31666203206517,0 
							</coordinates>
						</LinearRing>
					</outerBoundaryIs>
				</Polygon>
			</MultiGeometry>
		</Placemark>
		<Placemark id="ID_00021">
			<name>Fazalwas</name>
			<Snippet maxLines="0"></Snippet>
			<description><![CDATA[<html xmlns:fo="http://www.w3.org/1999/XSL/Format" xmlns:msxsl="urn:schemas-microsoft-com:xslt">

<head>

<META http-equiv="Content-Type" content="text/html">

<meta http-equiv="content-type" content="text/html; charset=UTF-8">

</head>

<body style="margin:0px 0px 0px 0px;overflow:auto;background:#FFFFFF;">

<table style="font-family:Arial,Verdana,Times;font-size:12px;text-align:left;width:100%;border-collapse:collapse;padding:3px 3px 3px 3px">

<tr style="text-align:center;font-weight:bold;background:#9CBCE2">

<td>Fazalwas</td>

</tr>

<tr>

<td>

<table style="font-family:Arial,Verdana,Times;font-size:12px;text-align:left;width:100%;border-spacing:0px; padding:3px 3px 3px 3px">

<tr>

<td>FID</td>

<td>21</td>

</tr>

<tr bgcolor="#D4E4F3">

<td>COLONYNAME</td>

<td>Fazalwas</td>

</tr>

</table>

</td>

</tr>

</table>

</body>

</html>]]></description>
			<styleUrl>#PolyStyle00</styleUrl>
			<MultiGeometry>
				<Polygon>
					<outerBoundaryIs>
						<LinearRing>
							<coordinates>
								76.90045707514348,28.31705443014262,0 76.90043503765372,28.31703008317028,0 76.90048405622139,28.31685499647689,0 76.90038799777807,28.31675000940898,0 76.90022356476641,28.3165780661303,0 76.89984032238466,28.31620744493181,0 76.89905310671242,28.31659525242739,0 76.8990088578162,28.31646592075103,0 76.89899410787005,28.31642281019214,0 76.89893876526672,28.31626105485422,0 76.89930959990458,28.31603413070243,0 76.89946107939971,28.31596264631515,0 76.89980051826687,28.3157756466467,0 76.89982589759951,28.31575844341834,0 76.900101166681,28.31562354483124,0 76.90011651511396,28.31575018602508,0 76.90019894873814,28.31573791220518,0 76.90019073780543,28.31556576490186,0 76.90005782729196,28.31531452044058,0 76.90011615494353,28.31531296281659,0 76.90010073270545,28.3152769041758,0 76.90030191330568,28.31519600857212,0 76.90032141972074,28.31518218536895,0 76.90039493232216,28.31529141657552,0 76.90045560265008,28.31522807043797,0 76.90075391322495,28.31505451877648,0 76.90083788655731,28.31508337768894,0 76.90111816107175,28.31495659410022,0 76.90125856387365,28.31513421349175,0 76.90132274804451,28.31524133616371,0 76.90152110077439,28.31554643926041,0 76.90168478050755,28.31584243352155,0 76.90229382845531,28.31552936415991,0 76.90238412408706,28.31561923539879,0 76.90209482769218,28.31596026008551,0 76.90214845466832,28.31618045287568,0 76.90200197962928,28.31625680482907,0 76.9019419841828,28.31652928356166,0 76.90188635523778,28.31660492132145,0 76.90158603108006,28.31642989163896,0 76.90149761136053,28.3164491071663,0 76.90156168599103,28.31657963707601,0 76.90125612251767,28.31674300052207,0 76.90143568114145,28.31682794577115,0 76.90149446333074,28.31685796022404,0 76.90165273128183,28.31715704388436,0 76.90158258548054,28.31726011867049,0 76.90182660607009,28.31748973400467,0 76.90149361743373,28.31775871605332,0 76.90120731649149,28.31776560160146,0 76.90110307656047,28.31776810809107,0 76.9010836297936,28.31777888403792,0 76.90058738246198,28.31720958800098,0 76.90059039139975,28.31720171404636,0 76.90045707514348,28.31705443014262,0 
							</coordinates>
						</LinearRing>
					</outerBoundaryIs>
					<innerBoundaryIs>
						<LinearRing>
							<coordinates>
								76.90084415557344,28.31580341954772,0 76.90108194333764,28.31580369831775,0 76.90108273833624,28.31560839606353,0 76.90084495099092,28.31560811637174,0 76.90084415557344,28.31580341954772,0 
							</coordinates>
						</LinearRing>
					</innerBoundaryIs>
				</Polygon>
			</MultiGeometry>
		</Placemark>
		<Placemark id="ID_00022">
			<name>Jhund Sarai Abad</name>
			<Snippet maxLines="0"></Snippet>
			<description><![CDATA[<html xmlns:fo="http://www.w3.org/1999/XSL/Format" xmlns:msxsl="urn:schemas-microsoft-com:xslt">

<head>

<META http-equiv="Content-Type" content="text/html">

<meta http-equiv="content-type" content="text/html; charset=UTF-8">

</head>

<body style="margin:0px 0px 0px 0px;overflow:auto;background:#FFFFFF;">

<table style="font-family:Arial,Verdana,Times;font-size:12px;text-align:left;width:100%;border-collapse:collapse;padding:3px 3px 3px 3px">

<tr style="text-align:center;font-weight:bold;background:#9CBCE2">

<td>Jhund Sarai Abad</td>

</tr>

<tr>

<td>

<table style="font-family:Arial,Verdana,Times;font-size:12px;text-align:left;width:100%;border-spacing:0px; padding:3px 3px 3px 3px">

<tr>

<td>FID</td>

<td>22</td>

</tr>

<tr bgcolor="#D4E4F3">

<td>COLONYNAME</td>

<td>Jhund Sarai Abad</td>

</tr>

</table>

</td>

</tr>

</table>

</body>

</html>]]></description>
			<styleUrl>#PolyStyle00</styleUrl>
			<MultiGeometry>
				<Polygon>
					<outerBoundaryIs>
						<LinearRing>
							<coordinates>
								76.87428788661163,28.39836974130072,0 76.87392993116136,28.39803514938469,0 76.87375694700714,28.39764914525704,0 76.87378264250428,28.39735529426195,0 76.87380474577907,28.39725916944275,0 76.87383203116401,28.39711774267277,0 76.87386929833018,28.39705844506623,0 76.87398722555329,28.39686893960247,0 76.8741525112702,28.39657798305354,0 76.87418465519946,28.39655661742672,0 76.8742300751815,28.39652980714051,0 76.87445825925569,28.39691929686746,0 76.87466269564166,28.39686467475308,0 76.87468682167568,28.39690472375253,0 76.87483027120909,28.3968627858826,0 76.87589368004171,28.39778339422402,0 76.87610763993108,28.3979768782978,0 76.87472401837569,28.39877740354873,0 76.87470544502018,28.39876004235766,0 76.87465230971308,28.39871037594101,0 76.87446422030712,28.39853456456089,0 76.87428788661163,28.39836974130072,0 
							</coordinates>
						</LinearRing>
					</outerBoundaryIs>
				</Polygon>
			</MultiGeometry>
		</Placemark>
		<Placemark id="ID_00023">
			<name>Harsaru</name>
			<Snippet maxLines="0"></Snippet>
			<description><![CDATA[<html xmlns:fo="http://www.w3.org/1999/XSL/Format" xmlns:msxsl="urn:schemas-microsoft-com:xslt">

<head>

<META http-equiv="Content-Type" content="text/html">

<meta http-equiv="content-type" content="text/html; charset=UTF-8">

</head>

<body style="margin:0px 0px 0px 0px;overflow:auto;background:#FFFFFF;">

<table style="font-family:Arial,Verdana,Times;font-size:12px;text-align:left;width:100%;border-collapse:collapse;padding:3px 3px 3px 3px">

<tr style="text-align:center;font-weight:bold;background:#9CBCE2">

<td>Harsaru</td>

</tr>

<tr>

<td>

<table style="font-family:Arial,Verdana,Times;font-size:12px;text-align:left;width:100%;border-spacing:0px; padding:3px 3px 3px 3px">

<tr>

<td>FID</td>

<td>23</td>

</tr>

<tr bgcolor="#D4E4F3">

<td>COLONYNAME</td>

<td>Harsaru</td>

</tr>

</table>

</td>

</tr>

</table>

</body>

</html>]]></description>
			<styleUrl>#PolyStyle00</styleUrl>
			<MultiGeometry>
				<Polygon>
					<outerBoundaryIs>
						<LinearRing>
							<coordinates>
								76.95562717047824,28.4302645512722,0 76.95571830506596,28.4301960564571,0 76.95592390483036,28.43004337006678,0 76.9558973342176,28.42986993575026,0 76.95589427175878,28.42983979684236,0 76.95584977276202,28.42953515102005,0 76.95581167043213,28.42932775064045,0 76.95574655849394,28.42914736953537,0 76.95569580349708,28.42895178355549,0 76.95565918595949,28.42878623687628,0 76.95564098374675,28.42871100412165,0 76.95563396373336,28.42868147432787,0 76.95560237423783,28.42854859024023,0 76.95555871641082,28.4283649372839,0 76.95551117092484,28.4281733667017,0 76.95706940569255,28.42791175783344,0 76.95901023536459,28.42898172849697,0 76.95873505043669,28.42930111008434,0 76.95865068563863,28.42939582559042,0 76.95843284709927,28.42964039129463,0 76.95848597763518,28.42984644288827,0 76.95849621119548,28.42989133533975,0 76.95851387487873,28.42994967555043,0 76.95859201327838,28.43000871376085,0 76.95838196516036,28.43030105222856,0 76.95830689622122,28.43026446342712,0 76.95836642245582,28.43017867277026,0 76.95843424054061,28.43013267334416,0 76.95825486503854,28.43001588469988,0 76.95814596302719,28.43007723095177,0 76.95797778977422,28.43029578757119,0 76.95792122304668,28.43037927863146,0 76.95712978968278,28.43094493713784,0 76.95671836045854,28.43094863995573,0 76.95632182325132,28.43040912014141,0 76.95615627326147,28.4302124124727,0 76.95596058027877,28.43023976285982,0 76.95591986707957,28.43025070105758,0 76.95568179784937,28.43031225041278,0 76.95562717047824,28.4302645512722,0 
							</coordinates>
						</LinearRing>
					</outerBoundaryIs>
				</Polygon>
			</MultiGeometry>
		</Placemark>
		<Placemark id="ID_00024">
			<name>Sehrawan</name>
			<Snippet maxLines="0"></Snippet>
			<description><![CDATA[<html xmlns:fo="http://www.w3.org/1999/XSL/Format" xmlns:msxsl="urn:schemas-microsoft-com:xslt">

<head>

<META http-equiv="Content-Type" content="text/html">

<meta http-equiv="content-type" content="text/html; charset=UTF-8">

</head>

<body style="margin:0px 0px 0px 0px;overflow:auto;background:#FFFFFF;">

<table style="font-family:Arial,Verdana,Times;font-size:12px;text-align:left;width:100%;border-collapse:collapse;padding:3px 3px 3px 3px">

<tr style="text-align:center;font-weight:bold;background:#9CBCE2">

<td>Sehrawan</td>

</tr>

<tr>

<td>

<table style="font-family:Arial,Verdana,Times;font-size:12px;text-align:left;width:100%;border-spacing:0px; padding:3px 3px 3px 3px">

<tr>

<td>FID</td>

<td>24</td>

</tr>

<tr bgcolor="#D4E4F3">

<td>COLONYNAME</td>

<td>Sehrawan</td>

</tr>

</table>

</td>

</tr>

</table>

</body>

</html>]]></description>
			<styleUrl>#PolyStyle00</styleUrl>
			<MultiGeometry>
				<Polygon>
					<outerBoundaryIs>
						<LinearRing>
							<coordinates>
								76.91747034592753,28.34722995385471,0 76.91743293710839,28.34724766171294,0 76.91696179661859,28.34655933833062,0 76.91743277506833,28.34612491665796,0 76.91768367558838,28.34633359037753,0 76.91777247830298,28.34625584366817,0 76.91785564633152,28.3463218136798,0 76.91803334750557,28.34647558526075,0 76.91810725954051,28.34643448959941,0 76.9183163880955,28.34652651023652,0 76.91848839027284,28.34646670994584,0 76.91854227066618,28.34647820105724,0 76.91874301786143,28.34644193767176,0 76.91865845511234,28.3466585784268,0 76.9185545014296,28.34670853457817,0 76.91786191790665,28.3470445946989,0 76.91747034592753,28.34722995385471,0 
							</coordinates>
						</LinearRing>
					</outerBoundaryIs>
				</Polygon>
			</MultiGeometry>
		</Placemark>
		<Placemark id="ID_00025">
			<name>Meoka</name>
			<Snippet maxLines="0"></Snippet>
			<description><![CDATA[<html xmlns:fo="http://www.w3.org/1999/XSL/Format" xmlns:msxsl="urn:schemas-microsoft-com:xslt">

<head>

<META http-equiv="Content-Type" content="text/html">

<meta http-equiv="content-type" content="text/html; charset=UTF-8">

</head>

<body style="margin:0px 0px 0px 0px;overflow:auto;background:#FFFFFF;">

<table style="font-family:Arial,Verdana,Times;font-size:12px;text-align:left;width:100%;border-collapse:collapse;padding:3px 3px 3px 3px">

<tr style="text-align:center;font-weight:bold;background:#9CBCE2">

<td>Meoka</td>

</tr>

<tr>

<td>

<table style="font-family:Arial,Verdana,Times;font-size:12px;text-align:left;width:100%;border-spacing:0px; padding:3px 3px 3px 3px">

<tr>

<td>FID</td>

<td>25</td>

</tr>

<tr bgcolor="#D4E4F3">

<td>COLONYNAME</td>

<td>Meoka</td>

</tr>

</table>

</td>

</tr>

</table>

</body>

</html>]]></description>
			<styleUrl>#PolyStyle00</styleUrl>
			<MultiGeometry>
				<Polygon>
					<outerBoundaryIs>
						<LinearRing>
							<coordinates>
								76.91612700292376,28.40833258066704,0 76.91616948081064,28.40838987980781,0 76.91620412145016,28.40841974264071,0 76.91630804244866,28.40850933019237,0 76.91640170231649,28.40859903320546,0 76.91642608074446,28.4086290106365,0 76.9165267978557,28.40873375916032,0 76.91660313765324,28.40880853019511,0 76.91657893638049,28.40881651055743,0 76.91658711525677,28.40888433512835,0 76.91660573478633,28.40899000185735,0 76.91667653615504,28.40914413724177,0 76.9165852771349,28.40918576625517,0 76.91646307237961,28.40923991208785,0 76.91643240523149,28.40925349979349,0 76.91628941868871,28.40931685367114,0 76.91614643298904,28.40938020739189,0 76.91611541946921,28.40939394879873,0 76.91597442422787,28.40945641976271,0 76.91603331346553,28.40954859846601,0 76.91608378943721,28.40962760773515,0 76.91612585417744,28.40969344935735,0 76.91616791795106,28.40975929097779,0 76.91620998177849,28.40982513258209,0 76.91625204565968,28.40989097417029,0 76.91569056014249,28.41034426912722,0 76.91511040365131,28.40996450447541,0 76.91517763266997,28.40995325615198,0 76.91493687672835,28.40956029583061,0 76.9148731352758,28.40956989051561,0 76.91443985056165,28.40879762912638,0 76.91417016351387,28.40875671148506,0 76.91419547960176,28.40864505017692,0 76.91442593730424,28.40813119799393,0 76.91469579706559,28.40805657962904,0 76.91466962756871,28.40798458702985,0 76.9153359525822,28.40752194559063,0 76.91549334870382,28.40780973506947,0 76.91506884959668,28.40814326949455,0 76.91529480425405,28.4087182323181,0 76.915849182573,28.40847205819971,0 76.91610063281118,28.4083603999946,0 76.91612700292376,28.40833258066704,0 
							</coordinates>
						</LinearRing>
					</outerBoundaryIs>
				</Polygon>
			</MultiGeometry>
		</Placemark>
		<Placemark id="ID_00026">
			<name>Sikhopur</name>
			<Snippet maxLines="0"></Snippet>
			<description><![CDATA[<html xmlns:fo="http://www.w3.org/1999/XSL/Format" xmlns:msxsl="urn:schemas-microsoft-com:xslt">

<head>

<META http-equiv="Content-Type" content="text/html">

<meta http-equiv="content-type" content="text/html; charset=UTF-8">

</head>

<body style="margin:0px 0px 0px 0px;overflow:auto;background:#FFFFFF;">

<table style="font-family:Arial,Verdana,Times;font-size:12px;text-align:left;width:100%;border-collapse:collapse;padding:3px 3px 3px 3px">

<tr style="text-align:center;font-weight:bold;background:#9CBCE2">

<td>Sikhopur</td>

</tr>

<tr>

<td>

<table style="font-family:Arial,Verdana,Times;font-size:12px;text-align:left;width:100%;border-spacing:0px; padding:3px 3px 3px 3px">

<tr>

<td>FID</td>

<td>26</td>

</tr>

<tr bgcolor="#D4E4F3">

<td>COLONYNAME</td>

<td>Sikhopur</td>

</tr>

</table>

</td>

</tr>

</table>

</body>

</html>]]></description>
			<styleUrl>#PolyStyle00</styleUrl>
			<MultiGeometry>
				<Polygon>
					<outerBoundaryIs>
						<LinearRing>
							<coordinates>
								76.98485289052999,28.36835046870509,0 76.98479071323851,28.36838146872279,0 76.9848166556167,28.36842527512201,0 76.98475671231196,28.36847023763164,0 76.98469332326691,28.36851380738981,0 76.98457419299471,28.36856676962477,0 76.98450926687565,28.3686109157479,0 76.98447501827761,28.36857775923752,0 76.98443217542234,28.36848973669904,0 76.98438853394077,28.3685122802161,0 76.98431034682278,28.36855932197779,0 76.98400441668188,28.36829392240799,0 76.98396030076647,28.36823521317186,0 76.98365059745946,28.36845596570575,0 76.98339053620113,28.3686214686342,0 76.98321152955634,28.36834760274273,0 76.98294993831635,28.36851868939766,0 76.98272634689845,28.36822607934537,0 76.98342654666824,28.36782018298743,0 76.98315002135634,28.367665806633,0 76.98327102827236,28.36731791790828,0 76.98351024869663,28.36722719946435,0 76.98347589414983,28.3671832607403,0 76.98352538428115,28.3670924492781,0 76.98351332751778,28.36707819024655,0 76.98338389093163,28.36688626664048,0 76.9833728017467,28.36687043780542,0 76.98358617719147,28.36675640152935,0 76.9837066294951,28.36669199318597,0 76.98383361291583,28.36661595812383,0 76.98374600757765,28.36650174100072,0 76.98380850273274,28.3664283708966,0 76.98370520987091,28.36633838185686,0 76.98364974383193,28.36630843688914,0 76.98367368156957,28.3661799465312,0 76.98368774693328,28.36609341086115,0 76.9837006544595,28.36606561098138,0 76.98373873374562,28.36597434109416,0 76.98377092347023,28.36589689299362,0 76.98383969202852,28.36594380489305,0 76.98391179547502,28.36601686166784,0 76.98409364459184,28.36589799201714,0 76.98426060545444,28.36578289338649,0 76.9842038701144,28.36569514605713,0 76.98409601992012,28.36556921406668,0 76.98416064904205,28.36552931370499,0 76.98426843195595,28.36545821591663,0 76.98436221560439,28.3653959919695,0 76.98445208042639,28.36553570512302,0 76.98450025508269,28.36550398786676,0 76.98454865682628,28.36546726177232,0 76.98458112086958,28.36551569907306,0 76.98471683965307,28.36570349010492,0 76.98478589344175,28.3656728123358,0 76.98482752012097,28.36566464233951,0 76.98487932198032,28.36570134850492,0 76.9850017506388,28.36580573969687,0 76.98511336323936,28.36589197988091,0 76.98524822384395,28.36584077969033,0 76.98532818702262,28.36582010536203,0 76.98556824827246,28.36571751391558,0 76.98550091106195,28.36561173681729,0 76.98564848283888,28.3655380306433,0 76.98571183635495,28.36560409321974,0 76.98578842397309,28.36567876386641,0 76.98586257321956,28.36577615497642,0 76.98593631437248,28.36586751234418,0 76.98595361088813,28.3658889409305,0 76.98611948885417,28.36579808482531,0 76.98616529324616,28.36577299704557,0 76.98629987654544,28.36569928093716,0 76.98640314623201,28.36564271697468,0 76.98641906905182,28.36563399528783,0 76.98649343634052,28.36572406002886,0 76.98655167213879,28.36578228921365,0 76.98658451492776,28.36581431427502,0 76.98663355306465,28.36589161306911,0 76.98668580550391,28.36587427462656,0 76.98675129407528,28.36599169439592,0 76.98670863561696,28.36602223652726,0 76.98657029874806,28.36608006267002,0 76.98669355667059,28.36628902530775,0 76.98673784024243,28.3663414795034,0 76.98678483405239,28.36633598202549,0 76.98684094774805,28.36633614396438,0 76.98694128972245,28.36631740769322,0 76.98697716309465,28.36630521507997,0 76.98706154126172,28.36626902839743,0 76.98711458701467,28.36637231490282,0 76.98715318120215,28.36645892764001,0 76.98718761853249,28.36654348037861,0 76.9872436891029,28.36663158616829,0 76.9871197021189,28.36668449861952,0 76.98695990405119,28.36673615358164,0 76.98672174689908,28.36680672400109,0 76.98646793911101,28.3668947386796,0 76.98647695611467,28.36694393774599,0 76.98619566989889,28.36703765936821,0 76.986079140019,28.3670645259661,0 76.98602966269337,28.36707550166912,0 76.98604457315244,28.3671433735972,0 76.98593972625231,28.36718288093837,0 76.98590106273389,28.36719340393598,0 76.98575653668829,28.36723377268592,0 76.98559914218079,28.36728041353862,0 76.98521019775697,28.36741986517531,0 76.98529855903874,28.36766024580336,0 76.98537880620455,28.36782607155802,0 76.98530468816992,28.36785429586645,0 76.98490966311425,28.36832853330002,0 76.98485289052999,28.36835046870509,0 
							</coordinates>
						</LinearRing>
					</outerBoundaryIs>
				</Polygon>
			</MultiGeometry>
		</Placemark>
		<Placemark id="ID_00027">
			<name>Rampura</name>
			<Snippet maxLines="0"></Snippet>
			<description><![CDATA[<html xmlns:fo="http://www.w3.org/1999/XSL/Format" xmlns:msxsl="urn:schemas-microsoft-com:xslt">

<head>

<META http-equiv="Content-Type" content="text/html">

<meta http-equiv="content-type" content="text/html; charset=UTF-8">

</head>

<body style="margin:0px 0px 0px 0px;overflow:auto;background:#FFFFFF;">

<table style="font-family:Arial,Verdana,Times;font-size:12px;text-align:left;width:100%;border-collapse:collapse;padding:3px 3px 3px 3px">

<tr style="text-align:center;font-weight:bold;background:#9CBCE2">

<td>Rampura</td>

</tr>

<tr>

<td>

<table style="font-family:Arial,Verdana,Times;font-size:12px;text-align:left;width:100%;border-spacing:0px; padding:3px 3px 3px 3px">

<tr>

<td>FID</td>

<td>27</td>

</tr>

<tr bgcolor="#D4E4F3">

<td>COLONYNAME</td>

<td>Rampura</td>

</tr>

</table>

</td>

</tr>

</table>

</body>

</html>]]></description>
			<styleUrl>#PolyStyle00</styleUrl>
			<MultiGeometry>
				<Polygon>
					<outerBoundaryIs>
						<LinearRing>
							<coordinates>
								76.96285599310458,28.3817476810162,0 76.96290144216646,28.38179773313059,0 76.96278721263224,28.38184917892115,0 76.96271027565032,28.38189551948577,0 76.962634707234,28.38193628339389,0 76.96256096776591,28.38197912618412,0 76.96252267393639,28.38191818464929,0 76.96242842230414,28.38184024776199,0 76.9622983401176,28.38190293152485,0 76.96223812353695,28.38183164666729,0 76.96215808488891,28.38175566247943,0 76.96202160426034,28.38181170993384,0 76.96189103609518,28.38166750997565,0 76.96197467218093,28.38159829803945,0 76.96190815171124,28.3815125176126,0 76.96187010652889,28.38151786707953,0 76.96183842560065,28.38153476298065,0 76.96181920030064,28.38155466494347,0 76.96179755002977,28.38155962489966,0 76.9616716454648,28.38135101913235,0 76.96192750587238,28.3813553606684,0 76.96193769184691,28.38129184293039,0 76.96181320427523,28.38127209829356,0 76.96189230616866,28.38121887252487,0 76.96194150330908,28.38119039670222,0 76.96201873669091,28.38115035277421,0 76.96212068925027,28.38104688044119,0 76.96207835954667,28.3809941950664,0 76.96223703433813,28.38088781853058,0 76.96226756853051,28.38087687225707,0 76.96230123725788,28.38085573348461,0 76.96239916388525,28.38079164768893,0 76.96247233142321,28.38084327965373,0 76.96253541788094,28.38088891875573,0 76.96256695793953,28.38093375343005,0 76.96262540825764,28.38102001164811,0 76.96265881569597,28.38107869991622,0 76.96256658529046,28.38113484856468,0 76.96270651754509,28.38127867113417,0 76.962831170144,28.38121735294268,0 76.96269008626265,28.38106097774315,0 76.96283760266961,28.38097208439905,0 76.96286247717696,28.38095644049102,0 76.96315187489289,28.38132945948345,0 76.96281373434245,28.38152195584177,0 76.96284132433011,28.38156465183965,0 76.96291272764651,28.38164172017246,0 76.96281684586066,28.38170505678204,0 76.96285599310458,28.3817476810162,0 
							</coordinates>
						</LinearRing>
					</outerBoundaryIs>
				</Polygon>
			</MultiGeometry>
		</Placemark>
		<Placemark id="ID_00028">
			<name>Garhi Harsaru PartII</name>
			<Snippet maxLines="0"></Snippet>
			<description><![CDATA[<html xmlns:fo="http://www.w3.org/1999/XSL/Format" xmlns:msxsl="urn:schemas-microsoft-com:xslt">

<head>

<META http-equiv="Content-Type" content="text/html">

<meta http-equiv="content-type" content="text/html; charset=UTF-8">

</head>

<body style="margin:0px 0px 0px 0px;overflow:auto;background:#FFFFFF;">

<table style="font-family:Arial,Verdana,Times;font-size:12px;text-align:left;width:100%;border-collapse:collapse;padding:3px 3px 3px 3px">

<tr style="text-align:center;font-weight:bold;background:#9CBCE2">

<td>Garhi Harsaru PartII</td>

</tr>

<tr>

<td>

<table style="font-family:Arial,Verdana,Times;font-size:12px;text-align:left;width:100%;border-spacing:0px; padding:3px 3px 3px 3px">

<tr>

<td>FID</td>

<td>28</td>

</tr>

<tr bgcolor="#D4E4F3">

<td>COLONYNAME</td>

<td>Garhi Harsaru PartII</td>

</tr>

</table>

</td>

</tr>

</table>

</body>

</html>]]></description>
			<styleUrl>#PolyStyle00</styleUrl>
			<MultiGeometry>
				<Polygon>
					<outerBoundaryIs>
						<LinearRing>
							<coordinates>
								76.93477289098597,28.44570655534307,0 76.9348162397573,28.44578020264324,0 76.93485155198276,28.4458401946919,0 76.93499211405494,28.4460389415488,0 76.93516647131635,28.44622121809966,0 76.93511694103084,28.44632037405096,0 76.93501760043557,28.4465032653761,0 76.93496965687162,28.44656588178877,0 76.93460095783902,28.44704741840022,0 76.93406678788502,28.44713779887347,0 76.93394580172595,28.44715826871404,0 76.93338014110462,28.44594958492948,0 76.93378985670422,28.44579476915522,0 76.9343261056313,28.44559727945568,0 76.93473796084649,28.44544389055054,0 76.93477289098597,28.44570655534307,0 
							</coordinates>
						</LinearRing>
					</outerBoundaryIs>
				</Polygon>
			</MultiGeometry>
		</Placemark>
		<Placemark id="ID_00029">
			<name>Bar Gujjar</name>
			<Snippet maxLines="0"></Snippet>
			<description><![CDATA[<html xmlns:fo="http://www.w3.org/1999/XSL/Format" xmlns:msxsl="urn:schemas-microsoft-com:xslt">

<head>

<META http-equiv="Content-Type" content="text/html">

<meta http-equiv="content-type" content="text/html; charset=UTF-8">

</head>

<body style="margin:0px 0px 0px 0px;overflow:auto;background:#FFFFFF;">

<table style="font-family:Arial,Verdana,Times;font-size:12px;text-align:left;width:100%;border-collapse:collapse;padding:3px 3px 3px 3px">

<tr style="text-align:center;font-weight:bold;background:#9CBCE2">

<td>Bar Gujjar</td>

</tr>

<tr>

<td>

<table style="font-family:Arial,Verdana,Times;font-size:12px;text-align:left;width:100%;border-spacing:0px; padding:3px 3px 3px 3px">

<tr>

<td>FID</td>

<td>29</td>

</tr>

<tr bgcolor="#D4E4F3">

<td>COLONYNAME</td>

<td>Bar Gujjar</td>

</tr>

</table>

</td>

</tr>

</table>

</body>

</html>]]></description>
			<styleUrl>#PolyStyle00</styleUrl>
			<MultiGeometry>
				<Polygon>
					<outerBoundaryIs>
						<LinearRing>
							<coordinates>
								76.97532645327578,28.33913359077296,0 76.97569363163373,28.33895988153862,0 76.97592181557603,28.33885192824813,0 76.97614741219483,28.33923067085478,0 76.97643294656558,28.33905701566441,0 76.97682789434461,28.33925423446829,0 76.97695256887688,28.33942910741959,0 76.97678154123754,28.33951992686869,0 76.97680360974034,28.33954587005902,0 76.97606425470127,28.33984070713064,0 76.97603134992515,28.33981253312152,0 76.97570252298746,28.33954272704648,0 76.97546639759062,28.33932410346758,0 76.97532645327578,28.33913359077296,0 
							</coordinates>
						</LinearRing>
					</outerBoundaryIs>
				</Polygon>
			</MultiGeometry>
		</Placemark>
	</Folder>
</Document>
</kml>
