<?xml version="1.0" encoding="UTF-8"?>
<kml xmlns="http://www.opengis.net/kml/2.2" xmlns:gx="http://www.google.com/kml/ext/2.2" xmlns:kml="http://www.opengis.net/kml/2.2" xmlns:atom="http://www.w3.org/2005/Atom">
<Folder>
	<name>MCM KML</name>
	<open>1</open>
	<Document>
		<name>MCM ZOne-VII.kml</name>
		<StyleMap id="m_ylw-pushpin">
			<Pair>
				<key>normal</key>
				<styleUrl>#s_ylw-pushpin</styleUrl>
			</Pair>
			<Pair>
				<key>highlight</key>
				<styleUrl>#s_ylw-pushpin_hl</styleUrl>
			</Pair>
		</StyleMap>
		<Style id="s_ylw-pushpin">
			<IconStyle>
				<scale>1.1</scale>
				<Icon>
					<href>http://maps.google.com/mapfiles/kml/pushpin/ylw-pushpin.png</href>
				</Icon>
				<hotSpot x="20" y="2" xunits="pixels" yunits="pixels"/>
			</IconStyle>
			<LineStyle>
				<color>ffffff55</color>
				<width>5</width>
			</LineStyle>
			<PolyStyle>
				<color>ffffff55</color>
				<fill>0</fill>
			</PolyStyle>
		</Style>
		<Style id="s_ylw-pushpin_hl">
			<IconStyle>
				<scale>1.3</scale>
				<Icon>
					<href>http://maps.google.com/mapfiles/kml/pushpin/ylw-pushpin.png</href>
				</Icon>
				<hotSpot x="20" y="2" xunits="pixels" yunits="pixels"/>
			</IconStyle>
			<LineStyle>
				<color>ffffff55</color>
				<width>5</width>
			</LineStyle>
			<PolyStyle>
				<color>ffffff55</color>
				<fill>0</fill>
			</PolyStyle>
		</Style>
		<Placemark>
			<name>MCM ZOne-VII</name>
			<styleUrl>#m_ylw-pushpin</styleUrl>
			<Polygon>
				<tessellate>1</tessellate>
				<outerBoundaryIs>
					<LinearRing>
						<coordinates>
							76.86456561367277,28.38095803802123,0 76.86369414742096,28.38010724067999,0 76.86308957910089,28.37957969809759,0 76.8619663974489,28.37851935712657,0 76.86110393144357,28.37786863606069,0 76.8599756115444,28.37672831543001,0 76.85929671967821,28.37630346392808,0 76.85859109993325,28.37609189609089,0 76.85846275111638,28.37580917199211,0 76.85930928734302,28.37465812672914,0 76.85883882944118,28.37371856727236,0 76.85850530715545,28.37321627718857,0 76.85843187864575,28.37291276188648,0 76.85834559355473,28.37272459002033,0 76.85845351472503,28.37263972584046,0 76.85883336505238,28.37208606647883,0 76.85937297400469,28.37155822721051,0 76.85925314728429,28.37136634944269,0 76.86005693089709,28.37099716483446,0 76.8610251728668,28.37057349534552,0 76.86216213342692,28.37001783044006,0 76.86299479034589,28.36952532929841,0 76.86320149960275,28.36970906294005,0 76.86427264469755,28.36952506314132,0 76.86532578364994,28.36885929197407,0 76.86553949526356,28.36917086147101,0 76.86688624689883,28.36885898094254,0 76.87261322250936,28.36616992630695,0 76.87468372982724,28.36520144015481,0 76.87612750894419,28.36443288738388,0 76.87936573524588,28.36210651309909,0 76.87925975935681,28.36192282570041,0 76.88008432116619,28.36143844029217,0 76.88001865084972,28.36139706034158,0 76.88000849635131,28.36135601728722,0 76.8808538268509,28.36118631302546,0 76.88135774181139,28.36105248425921,0 76.88169125663445,28.3608835432989,0 76.88131123609745,28.36020201036282,0 76.88154083105017,28.35980969074412,0 76.88191029933286,28.3595452509219,0 76.88235852256307,28.3586747947034,0 76.88288899277318,28.35740174170472,0 76.88274974648139,28.35691595227723,0 76.88275272071471,28.35677673456371,0 76.88294913807728,28.35637159729383,0 76.88318474594024,28.35589743760566,0 76.88383644839972,28.35504055903485,0 76.88405104199687,28.35485178790297,0 76.88431082357633,28.35457984271411,0 76.88476829046238,28.35401972818567,0 76.88106210262653,28.35129973124954,0 76.88065939181301,28.35139423033578,0 76.88005873372326,28.3502563922215,0 76.87975282775041,28.34990364056992,0 76.87965378778313,28.34974724817395,0 76.87954741885051,28.34966677527769,0 76.87925872109214,28.34965422721632,0 76.87843073903501,28.3490725445069,0 76.87811580771924,28.34872232003104,0 76.87659162625437,28.34792354796752,0 76.87589627828578,28.34741589127995,0 76.87556567333908,28.34714984214404,0 76.87521826595209,28.34671400091234,0 76.87591934840557,28.34603134243532,0 76.87644416816504,28.34552283412969,0 76.87669688352196,28.34530055838194,0 76.87708126577715,28.34500705828495,0 76.87723117474175,28.34450487662821,0 76.87773237095848,28.34430796260451,0 76.87834427605888,28.343583666041,0 76.87803924519424,28.34325145359511,0 76.877979780199,28.34311061951451,0 76.87826686487981,28.34244077083507,0 76.87902057411387,28.34153586610812,0 76.87960688515346,28.34113301749374,0 76.87980590893886,28.34087781634571,0 76.88062667839201,28.34024122591476,0 76.88131307336093,28.33962782723472,0 76.88212543655138,28.33905117533332,0 76.88266040311071,28.33863174647833,0 76.88367914699492,28.33778557843744,0 76.88461627166653,28.33714414629158,0 76.88584751695865,28.33623977304005,0 76.88665192243384,28.33579581481373,0 76.88666539501642,28.33574788605853,0 76.88746829339405,28.33534353641781,0 76.88864725939237,28.33442006829371,0 76.8885870183009,28.33430808542496,0 76.88925572093453,28.33367587317058,0 76.88897071327678,28.33337495432276,0 76.88897075177401,28.33322399160298,0 76.88906477388383,28.33301987017427,0 76.88959074077334,28.3322600484621,0 76.88829769120744,28.33072925601287,0 76.88753046016798,28.32967209661863,0 76.89208496715078,28.32680652491511,0 76.8918798969425,28.32606263613313,0 76.89154613739913,28.32557206015882,0 76.89232443722184,28.32493350545705,0 76.89131689848803,28.32328176139561,0 76.89125554532072,28.3230859137952,0 76.89131322828469,28.32284848324887,0 76.89104607340906,28.32196446871025,0 76.89112923828179,28.32175878618585,0 76.89059297289639,28.32100448617736,0 76.89034137219255,28.32054916525857,0 76.89014631240104,28.32013323345302,0 76.88992483501556,28.31944204885788,0 76.88944119674116,28.31878706940801,0 76.88876115698874,28.31814500382572,0 76.88809605655372,28.31766447436932,0 76.8867644253969,28.31637193440656,0 76.88655141705796,28.31619187013156,0 76.88632950469508,28.3160229854091,0 76.88598190164652,28.31556531983455,0 76.88590441433163,28.31505427699578,0 76.88581117468523,28.31482499223497,0 76.88571868941582,28.31461657909552,0 76.88489277921208,28.3135004207359,0 76.88430268198714,28.31255165873741,0 76.88750774605383,28.31047440148389,0 76.88684991916506,28.30955345704651,0 76.88641862077529,28.30863545142958,0 76.88945938206818,28.30648425729868,0 76.88987334396926,28.30633285123953,0 76.89018586568035,28.30608348193341,0 76.8904803622966,28.30582150736706,0 76.89113944672366,28.30556358877276,0 76.89153364073374,28.30626599617005,0 76.89211895898832,28.30624932372496,0 76.89273175139039,28.30663703258904,0 76.89340169931643,28.306825624359,0 76.89438274816285,28.30733295367521,0 76.89474877977278,28.3078372215582,0 76.89549818381685,28.30808027852367,0 76.89591538863023,28.30745103950294,0 76.89816272802481,28.30834878767341,0 76.89897027037746,28.30758230857156,0 76.89974472810908,28.30736128579951,0 76.90069234159834,28.30768433263978,0 76.90112663151749,28.30843615751643,0 76.90130978302621,28.3091703998112,0 76.90241671881203,28.31105862949665,0 76.90307895141373,28.31244173883848,0 76.90321521458668,28.31319304991268,0 76.90333107030816,28.31350458573623,0 76.90401289817503,28.3144126531501,0 76.90421545606409,28.31482044169168,0 76.90245307558943,28.31551803739106,0 76.90208975458133,28.31591702442897,0 76.90218175345035,28.31617633554018,0 76.90197402283317,28.3162252802918,0 76.90188955455595,28.31655455180061,0 76.90166054424398,28.31652137619837,0 76.90152246575586,28.31648825997047,0 76.90155252441926,28.31660433937699,0 76.9012548980587,28.31672100164078,0 76.9015478353929,28.31688881748032,0 76.90162368839431,28.31714291565776,0 76.9015473774687,28.31724536414578,0 76.90177439806237,28.31739996145791,0 76.90151045155838,28.31769485322206,0 76.90115675092142,28.3177822989704,0 76.90168131614116,28.31862163975986,0 76.90234195295643,28.31949284905012,0 76.90361883928692,28.32014407090141,0 76.90448078746108,28.32137932171085,0 76.90532871252441,28.32154349591644,0 76.90604613805868,28.32250893250112,0 76.90653063734709,28.32287548637823,0 76.90759635162355,28.3241220237273,0 76.9088014688661,28.32432830442085,0 76.90911920220793,28.324673269802,0 76.90987286603834,28.32512463530695,0 76.9108569959045,28.3256416271141,0 76.91147208875677,28.32610792354783,0 76.91245889148165,28.32667156427428,0 76.91281339288342,28.32692516300171,0 76.91345118841015,28.32716827639369,0 76.91395807539664,28.32733548901094,0 76.91478607533274,28.32782774045175,0 76.9159620599345,28.32851371661109,0 76.9168344810539,28.32898083497497,0 76.91733872998383,28.32934646093075,0 76.91779143186911,28.32953256785034,0 76.9180764336631,28.32973272530759,0 76.91843915560872,28.32994746363156,0 76.91865387931043,28.33027504881417,0 76.91894998765373,28.33055948373471,0 76.91904907906755,28.33070988257631,0 76.92022878508915,28.33001992600268,0 76.92138326384288,28.32913579329773,0 76.92154175675469,28.32844265689384,0 76.92240881809477,28.32784565861572,0 76.92260606497149,28.32765123905705,0 76.92276565390941,28.32747547559804,0 76.92292729796675,28.32739997659919,0 76.92305918089841,28.32717666768037,0 76.92314397210434,28.32708867962369,0 76.9232533471821,28.32696530421931,0 76.92348334720123,28.32681493781998,0 76.92365381871832,28.32662481592439,0 76.92492547487204,28.32730791633639,0 76.92532288820293,28.32760135094979,0 76.92655203996593,28.32838803379394,0 76.92789240347057,28.32801876948308,0 76.92805075913255,28.3281132117845,0 76.92874679831615,28.32799541215046,0 76.92887062050252,28.32806606399012,0 76.92995596296599,28.32777536294453,0 76.93059898399443,28.32691727636474,0 76.93172316991466,28.32614454421062,0 76.93166138221331,28.32416654348733,0 76.93191756028695,28.32392575041104,0 76.93304072786407,28.32354569008919,0 76.93356928139791,28.32309633876975,0 76.93447904834758,28.32261998658617,0 76.93474461623575,28.32169541039032,0 76.93483586098323,28.32078915191341,0 76.93469706993429,28.31939669248663,0 76.9346318129883,28.31905129695188,0 76.9356806740587,28.31866469913585,0 76.93657007792773,28.31887703170638,0 76.93714634661794,28.31825642401956,0 76.93801133099498,28.31775005717535,0 76.93871145766738,28.316953363373,0 76.93950921077925,28.31682149287765,0 76.94006376205621,28.31803969912986,0 76.94041156223842,28.31803330586835,0 76.94160803183792,28.31816586230957,0 76.94286358648635,28.3190327068297,0 76.94337119318249,28.31905868643494,0 76.94369525089451,28.31858653630838,0 76.94464527450219,28.31877688863492,0 76.94502565077057,28.31792938280039,0 76.94679618010909,28.31703403479789,0 76.94756255713446,28.31738612179385,0 76.94870096178033,28.31776155476198,0 76.94898363393371,28.31704959596847,0 76.94936178240576,28.3165291009788,0 76.94974382161391,28.31588921410924,0 76.95072125381185,28.3162090341339,0 76.95257152896852,28.31705708779677,0 76.95162661490933,28.31734405831108,0 76.95124716106717,28.31852297328223,0 76.95298343892046,28.31950722381294,0 76.95729158068464,28.31973268634198,0 76.95775917135495,28.32008094315743,0 76.95891867461403,28.32031838824542,0 76.95955511374953,28.32099796323439,0 76.95936163768351,28.32197513799534,0 76.95940262145453,28.32303582712241,0 76.96025311083456,28.32343754237884,0 76.96141932056233,28.3241451296367,0 76.96244494431697,28.32392595806835,0 76.96315917378264,28.32546403115353,0 76.96347897604166,28.32642311683811,0 76.9631757213109,28.32645365149573,0 76.96274230609806,28.32641932764902,0 76.96227809172021,28.32636481190706,0 76.96199453798573,28.32636468022431,0 76.96174904762896,28.32646666571092,0 76.96224595319481,28.32656334401421,0 76.9627181887503,28.32698265503934,0 76.96342616797314,28.32727744455239,0 76.96364503461285,28.3275044859148,0 76.96423946985328,28.32780257723735,0 76.96441837827392,28.32794815382242,0 76.96474105707051,28.3282315519111,0 76.96468644257217,28.32921901935975,0 76.96456442405704,28.32980290228953,0 76.96441146962448,28.33032020852212,0 76.96387691976261,28.33071274331011,0 76.96322547565653,28.33105614453022,0 76.96254286771598,28.33115739099018,0 76.96198379593079,28.33101431872735,0 76.96196598566864,28.33108125305001,0 76.95971652049909,28.33089019327022,0 76.95956532494993,28.33108466283969,0 76.95955831533142,28.3311316790768,0 76.95919043568766,28.33120682403303,0 76.9584843489546,28.33186832816278,0 76.95757727947489,28.33220650197612,0 76.9566036506417,28.33235928252613,0 76.95589558091775,28.33297465871414,0 76.9550941908947,28.33334380325214,0 76.95439028291963,28.33302360618972,0 76.95412879897705,28.33300353674705,0 76.95366566488329,28.33325865374024,0 76.95334887419463,28.33347630706765,0 76.95307355048175,28.33368225710282,0 76.95278557766757,28.33389321440071,0 76.95255552619186,28.33404878397361,0 76.95226604405671,28.33430604101274,0 76.95181777262506,28.33461108051548,0 76.95175924780855,28.33465178755911,0 76.95162816287612,28.3349162650203,0 76.95158572155962,28.33502471801733,0 76.95156832534111,28.33507953225293,0 76.95154613568478,28.33509919777355,0 76.95145609581581,28.33529319720131,0 76.95143116963875,28.33533103574146,0 76.95121925078635,28.33551469976855,0 76.9502957497542,28.33601322206373,0 76.94981007418532,28.33632194452631,0 76.94899946991549,28.33648022796875,0 76.94658307908045,28.33654258419027,0 76.9400546966673,28.33684701638927,0 76.93855639478996,28.33692210130913,0 76.93611122529261,28.3372664974508,0 76.93505905074088,28.33703032066196,0 76.93244659949329,28.33715331869721,0 76.93160153624522,28.33747199632586,0 76.93024032993526,28.33750946160955,0 76.92943443200393,28.33772913563779,0 76.92895767717303,28.3375470376012,0 76.92886430603481,28.33787200865656,0 76.92808508943581,28.33795985856495,0 76.92708827981163,28.33802278102329,0 76.92625492571446,28.33824406335296,0 76.92381271999912,28.33835261708218,0 76.92351999932134,28.33811421004996,0 76.92348264553527,28.33794641818188,0 76.92310681757426,28.33809284665124,0 76.92267339265251,28.33798910587835,0 76.92270589264899,28.33781504924735,0 76.92227965210093,28.33786354096887,0 76.92135695332672,28.33762139200047,0 76.92000194502674,28.3367977092956,0 76.92168318431891,28.33838101670637,0 76.92227704875083,28.33948838457819,0 76.92227772718215,28.33975601610154,0 76.92244788511547,28.3400574021927,0 76.92265082169094,28.34031023932421,0 76.9228273054341,28.34081117276925,0 76.92310231037015,28.34147817261243,0 76.92345084213179,28.34215559881462,0 76.92355971636263,28.34245528085045,0 76.92367007273084,28.34297804784055,0 76.92370201435011,28.3432412950966,0 76.92378468867064,28.34354100638262,0 76.92399370372257,28.34417243239191,0 76.92412874173812,28.34464586200065,0 76.92435595543719,28.34509649432504,0 76.92452783991567,28.34544279077601,0 76.92577381700319,28.34711754361711,0 76.92638141697388,28.34775452181066,0 76.92694396281978,28.34845162900052,0 76.92728409510347,28.34898624883589,0 76.92753423254464,28.34930671980985,0 76.92764856262272,28.34950083558138,0 76.92781046930649,28.34967368607482,0 76.92792013168713,28.34988867843851,0 76.92799247232871,28.35000405538268,0 76.92804981926001,28.35010435758846,0 76.9280801958698,28.35020029623422,0 76.92812280517803,28.35027448291835,0 76.92817131946433,28.35035517871579,0 76.92821985631301,28.35046016570113,0 76.92825849141235,28.35051911001752,0 76.92832952005813,28.35074107210784,0 76.92735035453489,28.35071025175322,0 76.92698855339933,28.35069797190311,0 76.9261777491065,28.350606929268,0 76.9255170635668,28.35056683754674,0 76.92486174983692,28.35051108049905,0 76.92359686198638,28.35038891825531,0 76.92294296691982,28.35026478264164,0 76.92133241891175,28.34983301884549,0 76.91917020679654,28.34922225989221,0 76.9184656799634,28.34902735991901,0 76.91721171865983,28.34867924453506,0 76.91737499909325,28.34887823765771,0 76.91730661829575,28.34885704930863,0 76.91742610159557,28.34910512747045,0 76.9184429767445,28.35117393026778,0 76.91830604147937,28.35122806787776,0 76.91747375130379,28.35171152122362,0 76.91699030299894,28.35247096645426,0 76.91681753889776,28.35304483717656,0 76.91715300811059,28.35369845946397,0 76.91727287285519,28.35386282961884,0 76.91781576703502,28.35415631620752,0 76.91829611831082,28.35439217434179,0 76.91929093459095,28.35481531508843,0 76.91957505566852,28.35531636598588,0 76.91993670472128,28.35580779644364,0 76.92019777709966,28.35616342488562,0 76.92042911409246,28.35645415859502,0 76.92064278974296,28.35684163310001,0 76.92105716928828,28.35775166492763,0 76.92125524055156,28.35817267230727,0 76.92145945494056,28.35859706195988,0 76.92160045880028,28.35901442693192,0 76.92173408826542,28.35934082489573,0 76.92190118806958,28.35967477665129,0 76.92204172801517,28.36002732600872,0 76.92216935781285,28.36036666739165,0 76.91129271700378,28.36047742073343,0 76.90459263066012,28.36056890258454,0 76.90273839320335,28.36108777446126,0 76.9016508936206,28.36266980100818,0 76.89824143298738,28.36261998168854,0 76.8961453980704,28.36156008543078,0 76.89605642235369,28.36088889182481,0 76.895675068047,28.3603933924929,0 76.89372304373241,28.36006628046067,0 76.89353952704143,28.36058066897881,0 76.89329129510368,28.36058059351037,0 76.89295404597152,28.36139015719002,0 76.89121173284087,28.36288848535384,0 76.890521147619,28.36313984777619,0 76.88965013901475,28.36417909087488,0 76.88850342906713,28.3648392301265,0 76.88777594770431,28.36539117822383,0 76.88737781312759,28.36585390861242,0 76.88694504049846,28.3659028600178,0 76.886361054994,28.36652204320659,0 76.88587298277027,28.36712687902271,0 76.8857751889866,28.36766477733633,0 76.88569219625357,28.36826331386557,0 76.88522847070517,28.36839461796717,0 76.88444245884503,28.36789680321363,0 76.88246025081153,28.3693119778996,0 76.8819485996531,28.36967973526328,0 76.88104160965371,28.37016265981055,0 76.88003866519406,28.37101707635168,0 76.87936976103389,28.37106709219984,0 76.87907450900028,28.37124999135909,0 76.87777343795516,28.37192692056114,0 76.87703248944206,28.37236930289002,0 76.87618719098354,28.37298441343816,0 76.87535382208557,28.37363689078484,0 76.87486566158226,28.3741796004256,0 76.87445889765921,28.37419785838532,0 76.87356799963939,28.3750004235727,0 76.87320568452067,28.37469421841558,0 76.8722581016489,28.37530817515237,0 76.87149541706223,28.3758761110879,0 76.87162675271975,28.37621954361786,0 76.87079064786309,28.37679985719928,0 76.86941989802558,28.37753156094294,0 76.86868607483562,28.37795874586396,0 76.86688765424566,28.37936266499802,0 76.86470965789498,28.38096727970062,0 76.8829215137534,28.36892329229667,0 76.86456561367277,28.38095803802123,0 
						</coordinates>
					</LinearRing>
				</outerBoundaryIs>
			</Polygon>
		</Placemark>
	</Document>
	<Document>
		<name>MCM ZOne-VI.kml</name>
		<StyleMap id="m_ylw-pushpin0">
			<Pair>
				<key>normal</key>
				<styleUrl>#s_ylw-pushpin0</styleUrl>
			</Pair>
			<Pair>
				<key>highlight</key>
				<styleUrl>#s_ylw-pushpin_hl0</styleUrl>
			</Pair>
		</StyleMap>
		<Style id="s_ylw-pushpin0">
			<IconStyle>
				<scale>1.1</scale>
				<Icon>
					<href>http://maps.google.com/mapfiles/kml/pushpin/ylw-pushpin.png</href>
				</Icon>
				<hotSpot x="20" y="2" xunits="pixels" yunits="pixels"/>
			</IconStyle>
			<LineStyle>
				<color>ffffff55</color>
				<width>5</width>
			</LineStyle>
			<PolyStyle>
				<color>ffffff55</color>
				<fill>0</fill>
			</PolyStyle>
		</Style>
		<Style id="s_ylw-pushpin_hl0">
			<IconStyle>
				<scale>1.3</scale>
				<Icon>
					<href>http://maps.google.com/mapfiles/kml/pushpin/ylw-pushpin.png</href>
				</Icon>
				<hotSpot x="20" y="2" xunits="pixels" yunits="pixels"/>
			</IconStyle>
			<LineStyle>
				<color>ffffff55</color>
				<width>5</width>
			</LineStyle>
			<PolyStyle>
				<color>ffffff55</color>
				<fill>0</fill>
			</PolyStyle>
		</Style>
		<Placemark>
			<name>MCM ZOne-VI</name>
			<styleUrl>#m_ylw-pushpin0</styleUrl>
			<Polygon>
				<tessellate>1</tessellate>
				<outerBoundaryIs>
					<LinearRing>
						<coordinates>
							76.91999949773609,28.33678079763765,0 76.92123401829849,28.33754714573733,0 76.92222284421652,28.33790340697294,0 76.92274537815543,28.33771273367207,0 76.92261456446913,28.33802328874139,0 76.92306523956175,28.33807139061976,0 76.92347777527704,28.33797523000575,0 76.92375190119476,28.33836201175196,0 76.92574003099345,28.33826468298509,0 76.92617044513278,28.3383132462133,0 76.92691220948949,28.33795111175943,0 76.92882860280315,28.33787922277574,0 76.92897340140074,28.33754137645598,0 76.92942989133549,28.33772334930111,0 76.9302480164929,28.33750234197785,0 76.93158954333484,28.33746596466979,0 76.93245766182402,28.33714628366427,0 76.93508633164181,28.33700807380006,0 76.93609480639023,28.33725831080424,0 76.93861272169701,28.33691186661011,0 76.94036379837702,28.3368338739393,0 76.9487469803026,28.3364520567892,0 76.94979314512543,28.33637433922514,0 76.95129911014259,28.33553788501414,0 76.95172986020552,28.33466402723155,0 76.95408812969812,28.33299668585164,0 76.95433138091715,28.33302265008615,0 76.95506598986047,28.33333967918752,0 76.95588556881795,28.33299691285795,0 76.95662314778615,28.33234709244159,0 76.95750554988865,28.33219525189711,0 76.95845585029376,28.33187300748789,0 76.95918507978513,28.33118664159727,0 76.95952920194475,28.33111352512959,0 76.95972620699365,28.33087922942483,0 76.96196189692908,28.3310825008017,0 76.9620011315391,28.331013329123,0 76.96215361305727,28.33143797428377,0 76.96224139174873,28.33172630010182,0 76.96252655081881,28.33224242291234,0 76.96291628262429,28.33271004218177,0 76.96327113000883,28.33342578004626,0 76.96352222089108,28.33381251509961,0 76.96351174954954,28.3339221749328,0 76.96378792843888,28.33472546151026,0 76.96389797530387,28.33501052129073,0 76.96447691638568,28.33570733051781,0 76.96481752826811,28.33608199233879,0 76.96534561326436,28.33664580697893,0 76.96582295228801,28.3370837007651,0 76.96592825827378,28.33719344369313,0 76.96740399749451,28.33830617939596,0 76.96768068077647,28.33858449130121,0 76.96787150327248,28.33882996613185,0 76.96796808270084,28.33895360347418,0 76.96802379171436,28.33905236563177,0 76.96810779645162,28.3391388024949,0 76.96818798150844,28.33925302543725,0 76.96836303933743,28.33948862894073,0 76.96842095604016,28.33956721650445,0 76.96851992978246,28.33968160445711,0 76.96860169989233,28.33981287384105,0 76.96873595857262,28.3399699733028,0 76.96881694542586,28.34007191468618,0 76.96892087045458,28.34017761298265,0 76.96900858338384,28.34027396208031,0 76.96906833135853,28.34034490503827,0 76.96914975898784,28.34043237876611,0 76.96937299123344,28.3407411293717,0 76.96943692572778,28.34080649507886,0 76.96952375680972,28.34091785059668,0 76.96958763683722,28.34099244543201,0 76.96966580527742,28.34109745988989,0 76.96976429874816,28.34120933198801,0 76.9698118712852,28.34127997999794,0 76.96994414307487,28.34138357124468,0 76.97042760837468,28.34200710310534,0 76.97079456620044,28.34239621036721,0 76.97182589200848,28.34458772947463,0 76.97194558262076,28.34526092539167,0 76.97195793404757,28.34556835711756,0 76.97150404295351,28.34594532488153,0 76.97011038292629,28.3472799498579,0 76.96919043167966,28.34787540662788,0 76.96789726746974,28.34935149001817,0 76.96774842848986,28.34941312380803,0 76.9676714750299,28.34958401445739,0 76.96604850566706,28.35106312914561,0 76.96530243738145,28.35184179994068,0 76.96406726313495,28.35303428810814,0 76.96374477795263,28.3533023598706,0 76.96318086073293,28.35354523139257,0 76.96225572731635,28.35395567121106,0 76.96142319313155,28.35424305669708,0 76.96062162555434,28.35453818897419,0 76.9590143507392,28.3552704772644,0 76.95842171197756,28.3557128233353,0 76.95811644797442,28.35594092919521,0 76.95778675056098,28.35615480284385,0 76.95747196298858,28.35647376571578,0 76.95703968731146,28.35714853710705,0 76.95666581429835,28.35753726006503,0 76.95627894936671,28.35779109592747,0 76.95573067726758,28.35820119763776,0 76.95545599758974,28.35843094178297,0 76.95536807049947,28.35843740368339,0 76.95535426064112,28.35850904882184,0 76.95520616653104,28.3586542967119,0 76.95515482013478,28.35866095229344,0 76.95466862264124,28.35905036072949,0 76.95454822710244,28.35915126275305,0 76.95393006427967,28.35985829644414,0 76.95395618529554,28.35995771164416,0 76.95366757445535,28.36023865582042,0 76.95352134764013,28.3603662809307,0 76.95327910540355,28.36055125785743,0 76.95312662556701,28.36064630303352,0 76.95306323810989,28.36088279497408,0 76.95291135772098,28.36119603422152,0 76.95278354836994,28.36142159239084,0 76.95262743763682,28.36155106800775,0 76.95242430336803,28.36248057384494,0 76.95243413375076,28.3628683059731,0 76.95244681802092,28.36310062420876,0 76.95240017239664,28.3634079653238,0 76.95239785556225,28.36363072563195,0 76.95234982306845,28.36380244330021,0 76.95231021916882,28.36401027937652,0 76.95228055789343,28.36418836431612,0 76.95225561419758,28.36436095075382,0 76.95217203599626,28.36446021957961,0 76.95219495160228,28.36462363627956,0 76.95218984273001,28.36482085839884,0 76.95220100161329,28.36497922490246,0 76.95228706101965,28.36513124503955,0 76.95231186345403,28.36517777659427,0 76.95229781741067,28.36538735613964,0 76.9522947717731,28.36547574013228,0 76.95228771921232,28.36561691376634,0 76.95212284404884,28.36591098100519,0 76.95195115442884,28.36621030787602,0 76.95180078890542,28.36641058908776,0 76.95159101099436,28.366691360229,0 76.95161500398366,28.36736805019665,0 76.95199955220832,28.36808718914158,0 76.95232049550407,28.36893550776537,0 76.95287207678582,28.36958888524807,0 76.9534269790978,28.37021323402801,0 76.95458912756516,28.3716433827805,0 76.95432792905871,28.37196588224004,0 76.95437054969605,28.37188459853866,0 76.95437759143458,28.37193874523627,0 76.95438112187436,28.37196589211536,0 76.95495375218947,28.37269034111354,0 76.95514221450111,28.37292219127147,0 76.95548250685798,28.37348781449844,0 76.95608998590581,28.37452281716658,0 76.95625547527906,28.37482504867029,0 76.95660316953625,28.3752759552818,0 76.9577539226233,28.37671883777555,0 76.95824168402702,28.37739251669761,0 76.95866943486941,28.37785495205526,0 76.95899785021527,28.37832514790854,0 76.95927357772848,28.37856652771823,0 76.95948884090799,28.37881443159758,0 76.96008478508354,28.37938699864141,0 76.96062536752699,28.37952152939683,0 76.96097391925963,28.37961466984576,0 76.96139201913854,28.37978895994641,0 76.96071778410879,28.37965131743369,0 76.9601868360655,28.37997710491494,0 76.958192027542,28.37900423536086,0 76.9532448473871,28.37622451449469,0 76.9463895208871,28.3727527469815,0 76.94386364462125,28.37143755761774,0 76.94273309777661,28.37028754874375,0 76.94221832469432,28.36896065962135,0 76.93797165317575,28.36876765283287,0 76.93610085613516,28.36707964599434,0 76.93475465891682,28.36528499656846,0 76.93447756949578,28.36474610650405,0 76.93414481462938,28.36411043909205,0 76.93376883205212,28.36356967169229,0 76.93354382751613,28.36288749297431,0 76.93320216604006,28.36249509716534,0 76.93283007614217,28.36195280094234,0 76.93228262516607,28.36132722970878,0 76.93177839552563,28.36035149716859,0 76.92200684910144,28.36019236700939,0 76.92091089107221,28.3572583981595,0 76.92039129052594,28.35624206647066,0 76.91979209049367,28.35533644071627,0 76.91952371823544,28.35493445762021,0 76.91862453313158,28.3543598388231,0 76.91779859407535,28.35409702500363,0 76.91730028938092,28.35387343594527,0 76.91716723003739,28.35361207791408,0 76.91686621299083,28.35300954914377,0 76.91700295064503,28.35245283834216,0 76.91746421503282,28.351719893243,0 76.91844517088434,28.35115251836712,0 76.91734594829416,28.34885098314523,0 76.91724438897656,28.34866470875074,0 76.91854674546254,28.34904210061628,0 76.91904729490763,28.34916332458631,0 76.92089272191819,28.34968255094841,0 76.92215673903621,28.35006156013907,0 76.92387991279189,28.35044782589003,0 76.92522668521498,28.35055091553453,0 76.92762088474622,28.35065470118913,0 76.9283017308677,28.35074431716419,0 76.92792962001715,28.34977665900601,0 76.92751928541699,28.34932392821462,0 76.92714036221602,28.34868368519518,0 76.92672845561755,28.34819537392976,0 76.92633299427226,28.3476283457485,0 76.92597379186353,28.34727643617756,0 76.92578648159261,28.3470064481723,0 76.92542335434126,28.34665364743642,0 76.92499014076341,28.34611119183573,0 76.9245233043864,28.34544562702118,0 76.92413313807158,28.34467267818458,0 76.92409051884241,28.3444592938249,0 76.92415547731628,28.3440773928513,0 76.92389013169917,28.34307017889781,0 76.92373094450846,28.34252234895315,0 76.92351499881804,28.34203230126558,0 76.92305203545681,28.34119441511678,0 76.92293747723176,28.34039991665897,0 76.92251565468494,28.33970331688243,0 76.92213187734976,28.3391494712218,0 76.92185464989863,28.33888719589109,0 76.92116067331447,28.33802515456106,0 76.92050726048514,28.33723818826239,0 76.92015970335892,28.33693824056398,0 76.91999949773609,28.33678079763765,0 
						</coordinates>
					</LinearRing>
				</outerBoundaryIs>
			</Polygon>
		</Placemark>
	</Document>
	<Document>
		<name>MCM ZOne-V.kmz</name>
		<StyleMap id="m_ylw-pushpin1">
			<Pair>
				<key>normal</key>
				<styleUrl>#s_ylw-pushpin1</styleUrl>
			</Pair>
			<Pair>
				<key>highlight</key>
				<styleUrl>#s_ylw-pushpin_hl1</styleUrl>
			</Pair>
		</StyleMap>
		<Style id="s_ylw-pushpin1">
			<IconStyle>
				<scale>1.1</scale>
				<Icon>
					<href>http://maps.google.com/mapfiles/kml/pushpin/ylw-pushpin.png</href>
				</Icon>
				<hotSpot x="20" y="2" xunits="pixels" yunits="pixels"/>
			</IconStyle>
			<LineStyle>
				<color>ffffff55</color>
				<width>5</width>
			</LineStyle>
			<PolyStyle>
				<color>ffffff55</color>
				<fill>0</fill>
			</PolyStyle>
		</Style>
		<Style id="s_ylw-pushpin_hl1">
			<IconStyle>
				<scale>1.3</scale>
				<Icon>
					<href>http://maps.google.com/mapfiles/kml/pushpin/ylw-pushpin.png</href>
				</Icon>
				<hotSpot x="20" y="2" xunits="pixels" yunits="pixels"/>
			</IconStyle>
			<LineStyle>
				<color>ffffff55</color>
				<width>5</width>
			</LineStyle>
			<PolyStyle>
				<color>ffffff55</color>
				<fill>0</fill>
			</PolyStyle>
		</Style>
		<Placemark>
			<name>MCM ZOne-V</name>
			<styleUrl>#m_ylw-pushpin1</styleUrl>
			<Polygon>
				<tessellate>1</tessellate>
				<outerBoundaryIs>
					<LinearRing>
						<coordinates>
							76.87022794755752,28.38765367840377,0 76.8673432426482,28.38400694849335,0 76.86628823751531,28.38242605795046,0 76.86469622059893,28.38096571873609,0 76.86875366108652,28.37792314531301,0 76.86913209622101,28.37768457729304,0 76.86996655110318,28.3772056350183,0 76.87060894476369,28.37688791023264,0 76.8716824197419,28.37628353200777,0 76.87147125975933,28.37589139402435,0 76.87219116809702,28.37527570822448,0 76.87318611711987,28.37472072509498,0 76.87351254144424,28.37503700525237,0 76.87427544341614,28.37443173991378,0 76.87446334956597,28.37419050764113,0 76.87487510968032,28.37415369752495,0 76.87521536575093,28.37373290614232,0 76.87548125504132,28.3734833837606,0 76.8762965725044,28.37288290556502,0 76.87663743564678,28.37262684365568,0 76.87684927493792,28.37248869503718,0 76.87779739768656,28.3718812297632,0 76.87938431464103,28.37109048793587,0 76.88005807819394,28.37098059299832,0 76.88098288535123,28.37019331905045,0 76.88192077788908,28.36970109487386,0 76.8821658198672,28.36949629542856,0 76.88260660930362,28.36918214805823,0 76.88312410441856,28.36877123975589,0 76.88444010419219,28.36788038128018,0 76.88516800413392,28.36855048733915,0 76.88559673577566,28.36838330203072,0 76.8858904308068,28.36731467011999,0 76.88630906973808,28.36659474475465,0 76.88694941238894,28.36596522160809,0 76.88734472090897,28.36582612526566,0 76.88804736543626,28.36515141320885,0 76.88952223304989,28.36420034006238,0 76.89043442719996,28.3632010770209,0 76.89120893336148,28.3629738874621,0 76.89214884326735,28.36204395589856,0 76.89282443243516,28.36140392118422,0 76.89330455701433,28.36067589136461,0 76.89350331029026,28.36062084832929,0 76.89356231225828,28.36027993020086,0 76.89374496785088,28.3599678787434,0 76.89567951383428,28.36046365365987,0 76.89592059952871,28.36076778790256,0 76.89606686677014,28.36163587941111,0 76.89839541966147,28.36251509108439,0 76.89992444881904,28.36258092523387,0 76.90151807055402,28.36260313957275,0 76.90272118761793,28.36107699143065,0 76.90467032439552,28.36045142984553,0 76.92213592423629,28.36036758449619,0 76.92221911867074,28.36020627571533,0 76.92757296782835,28.36029192071386,0 76.93053936373138,28.36035505792226,0 76.93173455750447,28.36034651267977,0 76.93184522244381,28.36053691798675,0 76.93228069973053,28.36133681138589,0 76.93278968842999,28.36198230700478,0 76.93306006952396,28.3622968212181,0 76.93338061038354,28.36277003994478,0 76.93353250062306,28.36293366663,0 76.93364896419655,28.36316504606532,0 76.93381309068967,28.36360257684169,0 76.93389492575159,28.36372116509603,0 76.9341895060371,28.36418285000527,0 76.93472877113213,28.36521366145238,0 76.93539818466488,28.36615349445213,0 76.936774462426,28.36774437403453,0 76.93799453283768,28.36881558887651,0 76.94226638772109,28.36896601111302,0 76.94270482380904,28.3702893433414,0 76.94382070934513,28.37147020795337,0 76.94555968529693,28.37230764068995,0 76.96031849554488,28.38009719962297,0 76.95970236187488,28.38103669617297,0 76.95683483793874,28.37956920327141,0 76.95222841130646,28.37949697452685,0 76.9488098534802,28.3817072993572,0 76.94598627923409,28.38110744001232,0 76.94580805767553,28.38119708373716,0 76.94549471328818,28.38097816549059,0 76.94233343667254,28.38237425145412,0 76.94145906744731,28.38311804896856,0 76.94102037018101,28.38332420901294,0 76.9404523334141,28.38377378941882,0 76.93955944208167,28.38459019991886,0 76.93885988214979,28.38533465277725,0 76.93853326248977,28.38628193006369,0 76.93834913111554,28.38665942476377,0 76.93818979760647,28.38682562731728,0 76.93818202489049,28.38685958191984,0 76.93799587112112,28.3871127530855,0 76.93773485094185,28.38736423705436,0 76.93746889360993,28.38765972103682,0 76.93712443644155,28.38802615906548,0 76.93686673113719,28.38851129300895,0 76.93311399770862,28.3860674010138,0 76.932360845052,28.38558005896097,0 76.93167382109701,28.38514174814578,0 76.93147334620606,28.38495976760476,0 76.92984625231225,28.38358960208565,0 76.92870205038007,28.38256530085144,0 76.92845521541855,28.38277170378388,0 76.92811548075967,28.38236719048489,0 76.92796547170624,28.38224053956857,0 76.92787426727396,28.38212135216576,0 76.92767335931444,28.38195798308226,0 76.92735620739782,28.38167825527085,0 76.92714407304058,28.38147831218198,0 76.92695081075613,28.38125222438751,0 76.92656704990236,28.38081038465738,0 76.92646466049206,28.38069522397268,0 76.92633288793161,28.38054220344745,0 76.92630934648979,28.38048232332994,0 76.92599619841911,28.3801700350167,0 76.92580343866739,28.3799786152688,0 76.9258372877115,28.37997666331021,0 76.9252348035767,28.3792351188578,0 76.92480980897639,28.37936204168717,0 76.92451900140492,28.37911122506831,0 76.92063528203045,28.37924614772615,0 76.91740671824745,28.37933823276387,0 76.91391175616432,28.37936820388344,0 76.91215329768951,28.37920989827262,0 76.91183615031906,28.37923761441228,0 76.90160409593233,28.37949225562913,0 76.90106180764671,28.37930354778164,0 76.88124213399703,28.37961520839077,0 76.88118800967845,28.3891685741627,0 76.88119179623639,28.39038668329704,0 76.88103479891683,28.39049149396502,0 76.88063091305048,28.39009519183527,0 76.88020330122437,28.38960851252757,0 76.88006740626697,28.38948548944261,0 76.87977385505725,28.38923264391546,0 76.87930921572477,28.3887809217109,0 76.87900826369525,28.38845065569038,0 76.87860588327014,28.38805447456829,0 76.87795323217603,28.38737227859924,0 76.87744526541032,28.3868898897716,0 76.87704864468019,28.38649354929473,0 76.87669116349714,28.38617552162367,0 76.87588675883212,28.38524380150029,0 76.87406023112251,28.38637842633543,0 76.87326285207544,28.38686173783808,0 76.8724142350281,28.38714801668399,0 76.87194667002849,28.38722018725275,0 76.87191820513846,28.3872329154097,0 76.87154440328206,28.38744368981604,0 76.87108354576442,28.38765425375778,0 76.87091199672849,28.38769755091419,0 76.87028891147216,28.38784020521757,0 76.87022794755752,28.38765367840377,0 
						</coordinates>
					</LinearRing>
				</outerBoundaryIs>
			</Polygon>
		</Placemark>
	</Document>
	<Document>
		<name>MCM ZOne-IV.kml</name>
		<StyleMap id="m_ylw-pushpin2">
			<Pair>
				<key>normal</key>
				<styleUrl>#s_ylw-pushpin2</styleUrl>
			</Pair>
			<Pair>
				<key>highlight</key>
				<styleUrl>#s_ylw-pushpin_hl2</styleUrl>
			</Pair>
		</StyleMap>
		<Style id="s_ylw-pushpin2">
			<IconStyle>
				<scale>1.1</scale>
				<Icon>
					<href>http://maps.google.com/mapfiles/kml/pushpin/ylw-pushpin.png</href>
				</Icon>
				<hotSpot x="20" y="2" xunits="pixels" yunits="pixels"/>
			</IconStyle>
			<LineStyle>
				<color>ffffff55</color>
				<width>5</width>
			</LineStyle>
			<PolyStyle>
				<color>ffffff55</color>
				<fill>0</fill>
			</PolyStyle>
		</Style>
		<Style id="s_ylw-pushpin_hl2">
			<IconStyle>
				<scale>1.3</scale>
				<Icon>
					<href>http://maps.google.com/mapfiles/kml/pushpin/ylw-pushpin.png</href>
				</Icon>
				<hotSpot x="20" y="2" xunits="pixels" yunits="pixels"/>
			</IconStyle>
			<LineStyle>
				<color>ffffff55</color>
				<width>5</width>
			</LineStyle>
			<PolyStyle>
				<color>ffffff55</color>
				<fill>0</fill>
			</PolyStyle>
		</Style>
		<Placemark>
			<name>MCM ZOne-IV</name>
			<styleUrl>#m_ylw-pushpin2</styleUrl>
			<Polygon>
				<tessellate>1</tessellate>
				<outerBoundaryIs>
					<LinearRing>
						<coordinates>
							76.87081355638468,28.3877075217072,0 76.87234907326544,28.38710347690453,0 76.87392415518499,28.38659293670801,0 76.87594764794912,28.38530373165511,0 76.88114594284548,28.39031152765315,0 76.88123554488728,28.37954657327322,0 76.90109466840426,28.37932093826132,0 76.90162856258416,28.37948368301553,0 76.91217911310632,28.37925870350801,0 76.91563099433021,28.37931316392006,0 76.92411548289562,28.37903265622635,0 76.92424110617779,28.37887988870964,0 76.92466534634697,28.37940062517436,0 76.92535960163696,28.37928025844309,0 76.9284210336308,28.38281307345952,0 76.92884151493548,28.3826451519447,0 76.9315462476748,28.38507476796476,0 76.9369271750589,28.38857291040138,0 76.93094606589452,28.40007623454847,0 76.92059263911834,28.39335710214735,0 76.91189748213108,28.3990562731021,0 76.91158415639738,28.39937507977983,0 76.91096020155412,28.39953838087551,0 76.91078036722921,28.39929956373662,0 76.9100626362537,28.39911665104053,0 76.90992824059494,28.39911174209923,0 76.90960672310744,28.39912142107531,0 76.90899656233752,28.39930728095641,0 76.90908957600814,28.39941507682087,0 76.90798211488651,28.39989329315921,0 76.90796412995141,28.39984821391718,0 76.90791176496047,28.39985032979728,0 76.90771646272746,28.39951230744594,0 76.90775814613492,28.39948653280653,0 76.90752117021458,28.39917253618156,0 76.90735822982234,28.39899130127771,0 76.90719009409746,28.39876329795786,0 76.90680428197417,28.39831531078162,0 76.90597890933755,28.39852662207845,0 76.90531318966836,28.39859306836847,0 76.90472180805634,28.39858713535099,0 76.90414217637468,28.39864505409645,0 76.90355077102438,28.398662532805,0 76.90343863143084,28.39866250954246,0 76.90324948227367,28.39870566325433,0 76.9018784930725,28.39897779966268,0 76.90071506646399,28.39911758604141,0 76.90022777127707,28.39928740888605,0 76.90013182440187,28.39928739066499,0 76.89978712592992,28.39939136742406,0 76.89920767541312,28.39956826771176,0 76.89840022883705,28.39988358756425,0 76.89667307278317,28.4006258248696,0 76.89527377688258,28.40143431208471,0 76.89515707316205,28.40155086930463,0 76.89449753154058,28.40284790897714,0 76.89438229064663,28.40317281369168,0 76.8943071277521,28.40384688315598,0 76.89431479319956,28.40415309111465,0 76.8943017019668,28.40452674454289,0 76.89429631977153,28.40504251416716,0 76.89412181118315,28.40551244566321,0 76.89349079215926,28.406973752969,0 76.8936732185804,28.40766753098247,0 76.89270984283006,28.40887532863096,0 76.8922936799534,28.40908009137884,0 76.89070695605102,28.40773089992162,0 76.89032215693835,28.40827418831774,0 76.89048028734952,28.40853882495311,0 76.88951282690658,28.40923147989708,0 76.88921836909726,28.40960902790113,0 76.88830147443305,28.41060986590062,0 76.88846866598075,28.41170419741641,0 76.88806215299033,28.41199402960506,0 76.88736109002811,28.41247868802186,0 76.88681936454726,28.41277251457792,0 76.88599395723701,28.41323581184592,0 76.88415323535484,28.41157251680635,0 76.88405338772105,28.41122552221583,0 76.88355180936775,28.41052596617194,0 76.8839192197007,28.41015968815242,0 76.88358048127121,28.40927338579568,0 76.88352076911247,28.40919750389513,0 76.88333704084464,28.40893359455777,0 76.88309694377197,28.40861323414208,0 76.88271156408381,28.40832075455202,0 76.88214595177746,28.40798769446504,0 76.8813760501302,28.40816456034244,0 76.88134613731464,28.40809718565897,0 76.88116628662513,28.40793900340484,0 76.88050851092953,28.40754152891187,0 76.87992878058282,28.40685659461911,0 76.88041745500882,28.40625339025529,0 76.88042574393428,28.40609791652374,0 76.8799348211338,28.4056696489532,0 76.8793400098621,28.40504623478179,0 76.87816798240557,28.40342063770357,0 76.8775578358533,28.4029379006552,0 76.87666350583477,28.40204669528982,0 76.87636364389124,28.40192058512534,0 76.87597605248666,28.40158235414719,0 76.8753469757181,28.40091488802035,0 76.87452565616049,28.40038986706821,0 76.87292649153309,28.39912829669699,0 76.87251782425982,28.3986424932447,0 76.87192448031794,28.39806600343624,0 76.87252952741267,28.39697233525124,0 76.8725895278465,28.39694365782364,0 76.8728576412567,28.39643606615139,0 76.87335256438841,28.39590586230578,0 76.87349859343499,28.39567151087253,0 76.87334676118589,28.39533737214931,0 76.87275356681543,28.39479378847074,0 76.8723473857855,28.39414207829341,0 76.87128221978017,28.39263935075225,0 76.87104123191078,28.39213542430954,0 76.87032261376592,28.39088479087998,0 76.87015579415313,28.39074785680774,0 76.86892134986508,28.38904144462039,0 76.86954221653524,28.38845257520865,0 76.86990837849261,28.38815504611848,0 76.87030363315463,28.38792780676507,0 76.87081355638468,28.3877075217072,0 
						</coordinates>
					</LinearRing>
				</outerBoundaryIs>
			</Polygon>
		</Placemark>
	</Document>
	<Document>
		<name>MCM Zone-III.kml</name>
		<StyleMap id="msn_ylw-pushpin">
			<Pair>
				<key>normal</key>
				<styleUrl>#sn_ylw-pushpin</styleUrl>
			</Pair>
			<Pair>
				<key>highlight</key>
				<styleUrl>#sh_ylw-pushpin</styleUrl>
			</Pair>
		</StyleMap>
		<Style id="sh_ylw-pushpin">
			<IconStyle>
				<scale>1.3</scale>
				<Icon>
					<href>http://maps.google.com/mapfiles/kml/pushpin/ylw-pushpin.png</href>
				</Icon>
				<hotSpot x="20" y="2" xunits="pixels" yunits="pixels"/>
			</IconStyle>
			<LineStyle>
				<color>ffffff55</color>
				<width>2.2</width>
			</LineStyle>
			<PolyStyle>
				<fill>0</fill>
			</PolyStyle>
		</Style>
		<Style id="sn_ylw-pushpin">
			<IconStyle>
				<scale>1.1</scale>
				<Icon>
					<href>http://maps.google.com/mapfiles/kml/pushpin/ylw-pushpin.png</href>
				</Icon>
				<hotSpot x="20" y="2" xunits="pixels" yunits="pixels"/>
			</IconStyle>
			<LineStyle>
				<color>ffffff55</color>
				<width>2.2</width>
			</LineStyle>
			<PolyStyle>
				<fill>0</fill>
			</PolyStyle>
		</Style>
		<Placemark>
			<name>MCM Zone-III</name>
			<styleUrl>#msn_ylw-pushpin</styleUrl>
			<Polygon>
				<tessellate>1</tessellate>
				<outerBoundaryIs>
					<LinearRing>
						<coordinates>
							76.96242360322744,28.33115041778851,0 76.96323103941373,28.33106954791263,0 76.96391222175863,28.33070918817979,0 76.96440812521104,28.33028125569324,0 76.96458573101036,28.32974771628168,0 76.96465485086166,28.32933095280535,0 76.96474636387134,28.32865181252484,0 76.96475338668893,28.32826398317441,0 76.96447698731902,28.32797646792708,0 76.96412119398975,28.32773266433846,0 76.96370104366017,28.32750544410416,0 76.96339910439256,28.32726945310546,0 76.96274416941706,28.32702523451258,0 76.96249606109227,28.32679707757546,0 76.96227988399554,28.32656088116194,0 76.96185100132978,28.32650247503977,0 76.96169182228179,28.32646754487955,0 76.96223193670286,28.32628266780945,0 76.96280728719847,28.32631710754915,0 76.96308625196549,28.32639786197705,0 76.96543369619307,28.32670198557184,0 76.96624843696436,28.32714418004246,0 76.9674713577415,28.3275201335327,0 76.96785249249518,28.32772769319546,0 76.96885849782399,28.32750426695326,0 76.96897637797589,28.32671694687243,0 76.96996299395222,28.32637489763858,0 76.97105196553191,28.32769555307582,0 76.97123624201994,28.32811833371233,0 76.97129836617898,28.32863777290437,0 76.97132075979191,28.32936961129214,0 76.97157397882243,28.33059008839518,0 76.97243226228461,28.33103719718981,0 76.9744793865723,28.33107674494082,0 76.97530820597945,28.33158029047816,0 76.97561076716131,28.33217136758368,0 76.97582556862665,28.33307376111555,0 76.97596531001932,28.3333943365912,0 76.97704333491397,28.3339966603906,0 76.97746029748011,28.33393033280038,0 76.97750366117158,28.33293010251162,0 76.97744143495009,28.33254993512793,0 76.97742909842701,28.33230013582057,0 76.97740094705026,28.33187476642103,0 76.9774219944016,28.33151666780159,0 76.97753296632571,28.33112186782601,0 76.97761862513474,28.3309178666353,0 76.97766549832674,28.33079601583734,0 76.97791008052282,28.3301535888605,0 76.97854563438393,28.33075294513265,0 76.97887347655409,28.33098704269512,0 76.9791799066569,28.33112470115062,0 76.97958271593807,28.33130771846416,0 76.97991722586202,28.3314695962503,0 76.98017580782724,28.33158348961289,0 76.98060481922691,28.33172477196679,0 76.98131050282396,28.33195615689174,0 76.98200870175914,28.33208429005888,0 76.98258623291416,28.33227326675661,0 76.98251447238329,28.33231944700585,0 76.98255537027505,28.3323525795573,0 76.98264512150828,28.33237695840053,0 76.98323956041672,28.33247485380387,0 76.98359468653943,28.33221483780781,0 76.98380231498676,28.33206770303622,0 76.98397764765561,28.33195054498148,0 76.98416666427606,28.33184875136289,0 76.98430172587116,28.33175525903805,0 76.98441609404841,28.33171837656406,0 76.98447879082954,28.33167570912923,0 76.98448168176951,28.33163944429418,0 76.98586915458149,28.33333181405528,0 76.98957696733987,28.33785673873468,0 76.98953752479242,28.3379458842487,0 76.98955205452485,28.33807027563329,0 76.99091619987219,28.34063456631076,0 76.99036142002294,28.34220829773871,0 76.99068943960233,28.34286673223626,0 76.99082694915948,28.34471707111068,0 76.99122066819544,28.34650915725714,0 76.99155642978232,28.3478388039645,0 76.99198064995906,28.34857347019213,0 76.99230900422999,28.34892781838704,0 76.99254334114111,28.34901443621598,0 76.993008636155,28.34974062397524,0 76.99346233343964,28.35063434921494,0 76.99381380856239,28.35158308560007,0 76.9937561299993,28.35210908148292,0 76.99329355123456,28.35290956613959,0 76.99172864778185,28.35392086932753,0 76.99229934109741,28.35564545312249,0 76.99282550053751,28.35790602003686,0 76.9915361913388,28.36015421829665,0 76.99185309141164,28.36096218825136,0 76.99231406878279,28.36174847362976,0 76.9927682186878,28.36204263280156,0 76.99331480470764,28.36227668103654,0 76.99357070568335,28.3624904680564,0 76.99283255339319,28.36377968400547,0 76.99276108350429,28.3638066361581,0 76.99278282153709,28.36593280557084,0 76.99266954176713,28.36711113825845,0 76.99298578863221,28.3689949949974,0 76.99420843050426,28.37021678537388,0 76.99426773598101,28.37198427388666,0 76.99475488781825,28.37311513502817,0 76.99470669107252,28.37344873064043,0 76.99539349593479,28.37483977685129,0 76.99585886594188,28.37557081934002,0 76.99641483332454,28.37654186078999,0 76.99651299264656,28.3765800556485,0 76.99675847365558,28.37676267236739,0 76.99710370825191,28.37709450029703,0 76.9979728709327,28.37952292666321,0 76.99778593781872,28.37962999049732,0 76.99784271749111,28.37970412774396,0 76.99711335581412,28.38003269328252,0 76.99633991405422,28.38043681768693,0 76.99583784078318,28.38078383002473,0 76.99535971925563,28.38105352321143,0 76.99498472716371,28.38143263343902,0 76.99447727164012,28.38185949568557,0 76.99431022891743,28.38210676892266,0 76.99346378141222,28.38261194709217,0 76.9948759835074,28.3845493427642,0 76.99811583396301,28.39182499285066,0 76.98908036971312,28.39982706467126,0 76.98772743342901,28.40143749633537,0 76.98332370916231,28.39725634101554,0 76.97972174107917,28.39304065096558,0 76.9777533279162,28.39104480552999,0 76.97705740880212,28.39104266880742,0 76.97589248235424,28.39034853706425,0 76.97472973634241,28.38919948007861,0 76.97057379569189,28.38500185598573,0 76.96985104326689,28.38415975176935,0 76.96878280823887,28.38360845016685,0 76.96722620175484,28.38285577106016,0 76.96570197452415,28.38194285051749,0 76.96258441713645,28.38048809893851,0 76.96145472062169,28.37983307266929,0 76.96100680243458,28.37964135701305,0 76.96012639194038,28.3793963656356,0 76.95899654911072,28.37832967730089,0 76.95821266277358,28.37729189860411,0 76.95658763637252,28.37520469174438,0 76.95578920200164,28.37397660351643,0 76.95504491168806,28.3728181010447,0 76.95436041339784,28.37200900510615,0 76.95464338525416,28.37172446934483,0 76.95337852055381,28.37014568316723,0 76.95166312439484,28.36722488217069,0 76.95185322349619,28.36640706357655,0 76.95213663460099,28.36593208026435,0 76.95230724436584,28.36410100851838,0 76.95251764797742,28.36215391817682,0 76.9528395970291,28.36084823104451,0 76.95589478554345,28.35783904586714,0 76.95780603355317,28.35618744258397,0 76.95846352214986,28.3553962526707,0 76.95916496294534,28.35479863971432,0 76.95977651181168,28.35481941401289,0 76.960787635879,28.35423775292694,0 76.96112010134928,28.354072302872,0 76.96156691438159,28.35392415407278,0 76.96225974271798,28.35363112724353,0 76.963564177309,28.35303064528978,0 76.96436148673929,28.35236797705567,0 76.9646899153817,28.35204848560244,0 76.96513705459645,28.35172897686475,0 76.96540643980994,28.35129950470198,0 76.96581904154202,28.3509960453309,0 76.96607592281276,28.35068864686635,0 76.96645649543726,28.35038448263184,0 76.96718458134164,28.34980794200531,0 76.96729388209641,28.34943033401131,0 76.96874993854276,28.34798452209203,0 76.9693352241692,28.34748788159583,0 76.9699355251914,28.34704331782076,0 76.97041967622134,28.34665683369332,0 76.9707557721931,28.34614065622261,0 76.97108755975904,28.34578426141304,0 76.9713981357728,28.34574621554409,0 76.9715229304969,28.34546894903092,0 76.97189359165849,28.3452856507853,0 76.97184223191078,28.34459131226276,0 76.97078360189055,28.3424277641244,0 76.96856374315048,28.33964638302768,0 76.96775323075263,28.33830783563667,0 76.96612515911532,28.33713878036144,0 76.96451375638449,28.33554911951445,0 76.96361475394474,28.334298242923,0 76.96299703323872,28.33252908444664,0 76.9619631652331,28.33100112569026,0 76.96242360322744,28.33115041778851,0 
						</coordinates>
					</LinearRing>
				</outerBoundaryIs>
			</Polygon>
		</Placemark>
	</Document>
	<Document>
		<name>MCM Zone-I Boundary.kml</name>
		<StyleMap id="m_ylw-pushpin3">
			<Pair>
				<key>normal</key>
				<styleUrl>#s_ylw-pushpin3</styleUrl>
			</Pair>
			<Pair>
				<key>highlight</key>
				<styleUrl>#s_ylw-pushpin_hl3</styleUrl>
			</Pair>
		</StyleMap>
		<Style id="s_ylw-pushpin3">
			<IconStyle>
				<scale>1.1</scale>
				<Icon>
					<href>http://maps.google.com/mapfiles/kml/pushpin/ylw-pushpin.png</href>
				</Icon>
				<hotSpot x="20" y="2" xunits="pixels" yunits="pixels"/>
			</IconStyle>
			<LineStyle>
				<color>ffffff55</color>
				<width>2.2</width>
			</LineStyle>
			<PolyStyle>
				<fill>0</fill>
			</PolyStyle>
		</Style>
		<Style id="s_ylw-pushpin_hl3">
			<IconStyle>
				<scale>1.3</scale>
				<Icon>
					<href>http://maps.google.com/mapfiles/kml/pushpin/ylw-pushpin.png</href>
				</Icon>
				<hotSpot x="20" y="2" xunits="pixels" yunits="pixels"/>
			</IconStyle>
			<LineStyle>
				<color>ffffff55</color>
				<width>2.2</width>
			</LineStyle>
			<PolyStyle>
				<fill>0</fill>
			</PolyStyle>
		</Style>
		<Placemark>
			<name>MCM Zone-I Boundary</name>
			<styleUrl>#m_ylw-pushpin3</styleUrl>
			<Polygon>
				<tessellate>1</tessellate>
				<outerBoundaryIs>
					<LinearRing>
						<coordinates>
							76.89364378252922,28.40754348381206,0 76.89362078047937,28.40628810778452,0 76.8942712862716,28.40549385579632,0 76.89426410206576,28.40436868099434,0 76.89458326246742,28.40269433025185,0 76.89512621121574,28.40133942367681,0 76.89840742097149,28.39963362708861,0 76.90398944001294,28.39871176618362,0 76.90449804534622,28.39850384877844,0 76.90571136275062,28.39849758961964,0 76.90630998433654,28.39843673671921,0 76.90671040246245,28.39821120377731,0 76.90687517923634,28.39847782930759,0 76.90749383747385,28.39921448052204,0 76.90792141893806,28.39989720358431,0 76.90826775677189,28.39957433053542,0 76.9087511046459,28.39938046451115,0 76.90929716489616,28.39899694276664,0 76.90993491859773,28.39896830601312,0 76.91073523180553,28.39907173523288,0 76.91084887069617,28.39940852982777,0 76.91121539437786,28.39945061725484,0 76.91152864555914,28.39930049926263,0 76.92059210980487,28.39329432486492,0 76.93094262012029,28.4001061411407,0 76.94588525754693,28.40776528128034,0 76.93598752546716,28.42374010876146,0 76.93762488754176,28.42436026394187,0 76.94193567603457,28.4256596290349,0 76.94488472048712,28.42632284707667,0 76.94426439808356,28.42701658368078,0 76.94321199608967,28.42789249636411,0 76.94212365466164,28.42741231367465,0 76.94144459530663,28.42712660686839,0 76.94079653115264,28.42701358612732,0 76.94002952734266,28.42703723330164,0 76.93904411856842,28.4271296338924,0 76.93721931810835,28.4272987106127,0 76.93642450375773,28.42740496311853,0 76.93555364199251,28.42759543606211,0 76.93462210223092,28.42782567966112,0 76.93396132952951,28.42806703221382,0 76.93350974765839,28.42834040749535,0 76.93268211157556,28.42882728045151,0 76.9303405369885,28.43052523795429,0 76.92823533974489,28.43254770001967,0 76.92921715462271,28.4334984114305,0 76.93032054932868,28.43409629676432,0 76.93162820272777,28.43495426428803,0 76.93418964512171,28.43671536556922,0 76.93558626438582,28.43789393539465,0 76.93779101363457,28.43963439771644,0 76.93818940659244,28.44009596346158,0 76.93969674842279,28.44100104203905,0 76.9415881495063,28.44189420933272,0 76.94219788436212,28.44298349327111,0 76.94295140280538,28.44377600002975,0 76.94326061124168,28.44369058853204,0 76.94458174299383,28.44490805855986,0 76.94558722611306,28.44544071014913,0 76.94768366949745,28.44655127643851,0 76.94937316629488,28.44770740739503,0 76.95074185517355,28.44812269961727,0 76.95096875112837,28.44827845405415,0 76.95163657421725,28.44858386918979,0 76.95227956036152,28.44892790060878,0 76.95302577556248,28.44927866237151,0 76.95313669170994,28.44936619150981,0 76.95379295524323,28.44961722227719,0 76.95436475234085,28.44986616722028,0 76.95445088057976,28.44984822621306,0 76.95538762491282,28.4502749878134,0 76.95653139183021,28.45113061087271,0 76.95778606641552,28.45194359545134,0 76.95814551999264,28.45157100014254,0 76.95860643137937,28.45172093539072,0 76.95911713057055,28.45181150911421,0 76.96010300972651,28.45190389888034,0 76.96088666532845,28.45201065040569,0 76.9619124065495,28.45282079309829,0 76.96175261895313,28.45292751150097,0 76.96082047039609,28.45352543713052,0 76.95993549688598,28.45414222570995,0 76.95398305233022,28.46422929830484,0 76.9497690216958,28.47225898907403,0 76.93926071081162,28.47240483278479,0 76.93511020370566,28.47240742180357,0 76.93491825474841,28.47224750876508,0 76.9345912640012,28.47189615496675,0 76.93436902215252,28.47170972025217,0 76.93415439265807,28.47152905129259,0 76.93402618417586,28.47139583324105,0 76.93385764586006,28.47115032079487,0 76.93372741767027,28.47109540284832,0 76.93302458485088,28.47060436693081,0 76.93249078539118,28.4698261767924,0 76.93214336354077,28.47003792500858,0 76.9319569179067,28.46974568721208,0 76.93151041261926,28.46928846262781,0 76.93143796318557,28.46917554115192,0 76.93091048639923,28.46866017684311,0 76.93078906648213,28.46845646908978,0 76.93038046332126,28.46797638524659,0 76.93013202533911,28.46760639543181,0 76.92972051042047,28.46718307790694,0 76.92965992891203,28.46704606003221,0 76.9292079458679,28.46645713760001,0 76.92881730730251,28.46596257365518,0 76.92857219048642,28.46569688564286,0 76.92855217607516,28.46571335102734,0 76.9279730287719,28.46508464242379,0 76.92702216625081,28.46536255256389,0 76.92651049157294,28.46537896432316,0 76.92588741049929,28.46539998366041,0 76.92561532950285,28.46538890206446,0 76.92507879649344,28.46536752461322,0 76.92507981382467,28.46531923932419,0 76.92506495909288,28.46531932192258,0 76.92511716858561,28.46440599703437,0 76.92544331712362,28.46333915722511,0 76.92596736304741,28.46267497862439,0 76.92668675994571,28.46197976533397,0 76.92699701117901,28.46098055022075,0 76.92675098195413,28.46068756176133,0 76.92721479032973,28.45984094580044,0 76.92780710668957,28.45927920678995,0 76.92872021195265,28.45835389664939,0 76.92997161086517,28.45693136356588,0 76.93003344984953,28.45673242069703,0 76.93112665672062,28.45531375647708,0 76.93146615440165,28.4543903313687,0 76.93164153578171,28.45421383871427,0 76.931876391858,28.45401041755514,0 76.93219678961167,28.45379916371967,0 76.93275159171864,28.45350878208598,0 76.93303507182753,28.452836431379,0 76.93337852380957,28.45179009914645,0 76.93367615114306,28.45046619575552,0 76.93148143178438,28.44846330282477,0 76.93069634288327,28.44728703249956,0 76.93042302162931,28.44661745356703,0 76.93023497256539,28.44491063353887,0 76.92973689156163,28.44367481081434,0 76.92939349077622,28.44311395903534,0 76.92861832361248,28.44208239910688,0 76.92894781558819,28.44196654666883,0 76.92865519725551,28.44152481965755,0 76.92732390358512,28.43983173583313,0 76.92703061285523,28.43902399679386,0 76.92699685297178,28.43854900405412,0 76.92620932871664,28.43736947634856,0 76.92608060501593,28.43721778739924,0 76.92579373959791,28.43665683663155,0 76.92566828473888,28.43649379133239,0 76.9252686662723,28.43600470094416,0 76.9248437675284,28.43560688864857,0 76.92331138991551,28.43673217329584,0 76.92189962134609,28.43767919701159,0 76.91951848064579,28.43919043422395,0 76.91837687827643,28.43976071515072,0 76.91747531585352,28.44036071048,0 76.91667387058395,28.44075971645555,0 76.91632287004877,28.44110440108483,0 76.91411141118645,28.4430223053918,0 76.91324578218426,28.44381686944297,0 76.91251616212351,28.44379505943943,0 76.91221920912493,28.44376218550949,0 76.91170072622702,28.44389908259009,0 76.91134351542971,28.44387573389762,0 76.91104407846096,28.4437721711217,0 76.91061621036484,28.44360168564705,0 76.90973162238066,28.44336600949474,0 76.90928552153494,28.4433131062213,0 76.90848027643273,28.4432343116662,0 76.90777189995435,28.44308967402646,0 76.9071296738188,28.44318469584947,0 76.90672218873844,28.4432088284177,0 76.90697574688714,28.44178241764115,0 76.90711667822937,28.44127981661576,0 76.90720699704308,28.44098392464521,0 76.90731022623255,28.44076172975723,0 76.90739681814097,28.44037396705524,0 76.9078296774514,28.43954524935277,0 76.90889785333033,28.43731008046029,0 76.90931185841892,28.43667938194953,0 76.9091090619488,28.43644905110328,0 76.90904543295875,28.43618433875248,0 76.90897623902021,28.43590270993163,0 76.90894019247402,28.43570556013355,0 76.90891565789308,28.43547558963158,0 76.90901458037436,28.43540505596398,0 76.90844647909245,28.43433034295446,0 76.90804904228568,28.43360285182557,0 76.90785511356343,28.43335913589194,0 76.90228400312895,28.4282606996039,0 76.90289275032337,28.42783457445555,0 76.90280914883436,28.42767661490521,0 76.90355211797291,28.42707784716231,0 76.90284658657113,28.42565085185118,0 76.90275471824113,28.42507955728385,0 76.90400562363756,28.42430538403372,0 76.90350014856718,28.42365734580919,0 76.90334099880965,28.42353533469283,0 76.90288458182104,28.42287977876259,0 76.90277999442272,28.42293540077048,0 76.90254072154114,28.4226025732894,0 76.90223307330095,28.42215847924095,0 76.9031400573037,28.42139513085404,0 76.90267626742497,28.42113540144469,0 76.90218353445339,28.42069821428867,0 76.89983119736091,28.41796215397371,0 76.89848683012684,28.41704911227323,0 76.89444411280536,28.41478048401223,0 76.89058828165658,28.4120131623454,0 76.89126002475687,28.41145531616158,0 76.89171703967239,28.41042480969668,0 76.89161981223167,28.41024492638624,0 76.89262656425618,28.40870794525636,0 76.89364378252922,28.40754348381206,0 
						</coordinates>
					</LinearRing>
				</outerBoundaryIs>
			</Polygon>
		</Placemark>
	</Document>
	<Document>
		<name>MCM Zone-II.kml</name>
		<StyleMap id="msn_ylw-pushpin0">
			<Pair>
				<key>normal</key>
				<styleUrl>#sn_ylw-pushpin0</styleUrl>
			</Pair>
			<Pair>
				<key>highlight</key>
				<styleUrl>#sh_ylw-pushpin0</styleUrl>
			</Pair>
		</StyleMap>
		<Style id="sh_ylw-pushpin0">
			<IconStyle>
				<scale>1.3</scale>
				<Icon>
					<href>http://maps.google.com/mapfiles/kml/pushpin/ylw-pushpin.png</href>
				</Icon>
				<hotSpot x="20" y="2" xunits="pixels" yunits="pixels"/>
			</IconStyle>
			<LineStyle>
				<color>ffffff55</color>
				<width>2.2</width>
			</LineStyle>
			<PolyStyle>
				<fill>0</fill>
			</PolyStyle>
		</Style>
		<Style id="sn_ylw-pushpin0">
			<IconStyle>
				<scale>1.1</scale>
				<Icon>
					<href>http://maps.google.com/mapfiles/kml/pushpin/ylw-pushpin.png</href>
				</Icon>
				<hotSpot x="20" y="2" xunits="pixels" yunits="pixels"/>
			</IconStyle>
			<LineStyle>
				<color>ffffff55</color>
				<width>2.2</width>
			</LineStyle>
			<PolyStyle>
				<fill>0</fill>
			</PolyStyle>
		</Style>
		<Placemark>
			<name>MCM Zone-II</name>
			<styleUrl>#msn_ylw-pushpin0</styleUrl>
			<Polygon>
				<tessellate>1</tessellate>
				<outerBoundaryIs>
					<LinearRing>
						<coordinates>
							76.96109593875835,28.45216996001011,0 76.96087347428572,28.45201562861319,0 76.95814735670577,28.45155769046618,0 76.95774774699133,28.45189532387234,0 76.95557434146473,28.4504515801878,0 76.95363448669272,28.44939796441095,0 76.94916742820945,28.44746496664279,0 76.94737995332764,28.4462821120559,0 76.94648451892273,28.44591012393499,0 76.94455432882498,28.44492208861698,0 76.94327169086266,28.44367052512408,0 76.94295620983958,28.4437319669813,0 76.94217026769752,28.44295999181078,0 76.94158478938841,28.44183036192767,0 76.93801498543822,28.43995951081831,0 76.93721375942819,28.43903785892577,0 76.9347572635981,28.4371458503685,0 76.93185142818855,28.43515973860001,0 76.92925068689205,28.43350694273895,0 76.92823005504358,28.43248740934034,0 76.92874765625612,28.43193954436342,0 76.93007528753657,28.43068745475003,0 76.93142954748117,28.42970126234227,0 76.93279191454513,28.42880850491409,0 76.93384288756459,28.42806556221995,0 76.93509347659003,28.42764313779577,0 76.9373203280032,28.42715880297051,0 76.93940433466054,28.42708325667926,0 76.94141308001865,28.42708364413371,0 76.94328231882977,28.42782500856593,0 76.94487600398023,28.42635838020622,0 76.94084842238507,28.42535616959807,0 76.93595858964274,28.42366904113922,0 76.94608398426926,28.40777375210782,0 76.93097854433425,28.40005838495766,0 76.93711360195024,28.38865550378534,0 76.9390084350037,28.38522368753985,0 76.94264164071367,28.38218916021885,0 76.94547461067673,28.3809950614068,0 76.94575470839389,28.3811802629421,0 76.94880739866812,28.38174681753964,0 76.95224687613899,28.3795062272916,0 76.95683440434316,28.37961848605494,0 76.95975319381056,28.38105987770273,0 76.96034540177183,28.37989640403829,0 76.96078762094561,28.3796248570469,0 76.96248392440481,28.38039902969285,0 76.9635045410833,28.38094390870445,0 76.96560596777489,28.38193821420573,0 76.96726262639567,28.3828941812232,0 76.96986575095141,28.3841991920682,0 76.97202444682506,28.38641080380312,0 76.9741048725008,28.38857458154841,0 76.97586752045629,28.39029772832937,0 76.97703759044234,28.39106510785169,0 76.97786355661411,28.39110038111171,0 76.98050666751654,28.39395709703066,0 76.98332132857391,28.39725533741451,0 76.98137139045249,28.39860949978948,0 76.97940051563019,28.4001630979571,0 76.97727242663355,28.40165782291231,0 76.97562658000213,28.40294985523666,0 76.97411647202576,28.40438116866463,0 76.97270372480749,28.40563519743344,0 76.97189173092347,28.40650322505549,0 76.97069889657092,28.40782738757393,0 76.96826908980266,28.41076228847337,0 76.96439682367001,28.41746920307812,0 76.96271595674922,28.42162161680116,0 76.96128832558443,28.42987965770196,0 76.96027095247165,28.43754797896028,0 76.96049371137539,28.44432291103233,0 76.96081638263422,28.44718648754207,0 76.96151119952566,28.44993302122523,0 76.96113783571002,28.4521785579683,0 76.96109593875835,28.45216996001011,0 
						</coordinates>
					</LinearRing>
				</outerBoundaryIs>
			</Polygon>
		</Placemark>
	</Document>
</Folder>
</kml>
