{"type":"FeatureCollection","features":[{"type":"Feature","properties":{"v":"Chandu","m":"29","k":"29","t":"Harsaru","vc":"04074","area":109.3,"lat":28.4653445,"lng":76.9251922},"geometry":{"type":"Polygon","coordinates":[[[76.9252773,28.4653727],[76.9252564,28.465373],[76.9251062,28.465375],[76.9251061,28.4653669],[76.9251052,28.4653182],[76.9252763,28.465312],[76.9252773,28.4653727]]]}},{"type":"Feature","properties":{"v":"Chandu","m":"29","k":"24","t":"Harsaru","vc":"04074","area":1018.7,"lat":28.4653867,"lng":76.9256313},"geometry":{"type":"Polygon","coordinates":[[[76.9259299,28.4653174],[76.925961,28.4653177],[76.9259624,28.465399],[76.9259633,28.4654542],[76.9253131,28.4654632],[76.9253116,28.4653752],[76.9253105,28.4653115],[76.9259299,28.4653174]]]}}]}