{"type":"FeatureCollection","features":[{"type":"Feature","properties":{"v":"Chandla Dungarwas","m":"0","k":"","t":"Manesar","vc":"01195","area":26.8,"lat":28.307918,"lng":76.894841},"geometry":{"type":"Polygon","coordinates":[[[76.8948689,28.3079105],[76.8949087,28.3079114],[76.8949084,28.3079218],[76.8949079,28.3079356],[76.8948967,28.3079341],[76.8947842,28.3079181],[76.8947066,28.307907],[76.8948689,28.3079105]]]}},{"type":"Feature","properties":{"v":"Chandla Dungarwas","m":"04","k":"9","t":"Manesar","vc":"01195","area":548.6,"lat":28.3080491,"lng":76.8968311},"geometry":{"type":"Polygon","coordinates":[[[76.8969347,28.3079552],[76.8969508,28.3079556],[76.8969414,28.3082436],[76.8969335,28.3082368],[76.8966012,28.307948],[76.8969347,28.3079552]]]}},{"type":"Feature","properties":{"v":"Chandla Dungarwas","m":"04","k":"8","t":"Manesar","vc":"01195","area":2247.6,"lat":28.3081148,"lng":76.8972918},"geometry":{"type":"Polygon","coordinates":[[[76.897086,28.3079585],[76.8976315,28.3079703],[76.897625,28.3081667],[76.8976211,28.3082886],[76.8976127,28.308288],[76.8969414,28.3082436],[76.8969508,28.3079556],[76.897086,28.3079585]]]}}]}