{"type":"FeatureCollection","features":[{"type":"Feature","properties":{"v":"Dhanawas","m":"0","k":"73","t":"Farrukhnagar","vc":"04161","area":1105.9,"lat":28.4085503,"lng":76.8904338},"geometry":{"type":"Polygon","coordinates":[[[76.8907226,28.4077145],[76.8906887,28.4077664],[76.8903807,28.4082371],[76.890418,28.4084114],[76.8904321,28.4084636],[76.8904595,28.4085653],[76.8904673,28.408594],[76.890257,28.4087436],[76.8895791,28.4092323],[76.8895337,28.409214],[76.8897888,28.4090179],[76.889851,28.4089701],[76.8902814,28.4086584],[76.8904153,28.4085615],[76.8903412,28.408297],[76.8903318,28.4082636],[76.8903274,28.4082478],[76.8904211,28.4080991],[76.8906412,28.40775],[76.8906804,28.4076878],[76.8907226,28.4077145]]]}}]}