{"type":"FeatureCollection","features":[{"type":"Feature","properties":{"v":"Gwaliar","m":"25","k":"13","t":"Manesar","vc":"04140","area":1459.5,"lat":28.3224897,"lng":76.9055875},"geometry":{"type":"Polygon","coordinates":[[[76.905754,28.3223085],[76.9057543,28.322371],[76.9057562,28.3227896],[76.9056927,28.322755],[76.9055705,28.3226883],[76.9053065,28.322349],[76.9052796,28.3223145],[76.905754,28.3223085]]]}},{"type":"Feature","properties":{"v":"Gwaliar","m":"25","k":"22","t":"Manesar","vc":"04140","area":4222.0,"lat":28.3215156,"lng":76.9047703},"geometry":{"type":"Polygon","coordinates":[[[76.9043997,28.321224],[76.9044036,28.3212239],[76.9050714,28.3212155],[76.9050726,28.321475],[76.9050728,28.3215159],[76.9050739,28.3217663],[76.905074,28.3217931],[76.9050751,28.3220416],[76.9050458,28.3219963],[76.9049901,28.32191],[76.9047121,28.3217753],[76.9043955,28.3216218],[76.9043941,28.3213239],[76.9043937,28.321224],[76.9043997,28.321224]]]}},{"type":"Feature","properties":{"v":"Gwaliar","m":"25","k":"21","t":"Manesar","vc":"04140","area":1168.9,"lat":28.321382,"lng":76.9042384},"geometry":{"type":"Polygon","coordinates":[[[76.9043937,28.321224],[76.9043941,28.3213239],[76.9043955,28.3216218],[76.9043779,28.3216141],[76.904146,28.3215118],[76.9039871,28.3212292],[76.9043937,28.321224]]]}},{"type":"Feature","properties":{"v":"Gwaliar","m":"25","k":"18","t":"Manesar","vc":"04140","area":3758.2,"lat":28.3220222,"lng":76.9054359},"geometry":{"type":"Polygon","coordinates":[[[76.9055175,28.3217607],[76.9057516,28.3217577],[76.9057531,28.3220966],[76.905754,28.3223085],[76.9052796,28.3223145],[76.9050751,28.3220416],[76.905074,28.3217931],[76.9050739,28.3217663],[76.9055175,28.3217607]]]}},{"type":"Feature","properties":{"v":"Gwaliar","m":"25","k":"14","t":"Manesar","vc":"04140","area":4991.5,"lat":28.3226515,"lng":76.9061271},"geometry":{"type":"Polygon","coordinates":[[[76.9059106,28.3223065],[76.9064318,28.3222999],[76.9064339,28.3227738],[76.9064342,28.3228507],[76.9064347,28.3229489],[76.9064356,28.3231719],[76.9063611,28.32313],[76.9060013,28.3229276],[76.9057562,28.3227896],[76.9057543,28.322371],[76.905754,28.3223085],[76.9059106,28.3223065]]]}},{"type":"Feature","properties":{"v":"Gwaliar","m":"25","k":"6","t":"Manesar","vc":"04140","area":4015.3,"lat":28.3231339,"lng":76.9068217},"geometry":{"type":"Polygon","coordinates":[[[76.9065213,28.3228496],[76.907112,28.3228421],[76.9071144,28.3233929],[76.9071149,28.3235027],[76.9071154,28.3236178],[76.9070265,28.3235577],[76.9069703,28.3235197],[76.9066994,28.3233366],[76.9064356,28.3231719],[76.9064347,28.3229489],[76.9064342,28.3228507],[76.9065213,28.3228496]]]}},{"type":"Feature","properties":{"v":"Gwaliar","m":"26","k":"22","t":"Manesar","vc":"04140","area":1689.3,"lat":28.3187323,"lng":76.9015168},"geometry":{"type":"Polygon","coordinates":[[[76.9016342,28.3185048],[76.9016707,28.3185044],[76.9016709,28.3185561],[76.9016724,28.3189036],[76.9016731,28.3190552],[76.9015729,28.3190564],[76.9014391,28.318892],[76.9014031,28.3188478],[76.9012558,28.3185096],[76.9016342,28.3185048]]]}},{"type":"Feature","properties":{"v":"Gwaliar","m":"26","k":"18","t":"Manesar","vc":"04140","area":4029.7,"lat":28.3193467,"lng":76.9020722},"geometry":{"type":"Polygon","coordinates":[[[76.9016731,28.3190552],[76.9017639,28.319054],[76.9020186,28.3190508],[76.9023508,28.3190466],[76.9023529,28.3195108],[76.9023532,28.3195974],[76.9023542,28.3198269],[76.9020102,28.3196584],[76.9018642,28.3194574],[76.9017501,28.3193003],[76.9015729,28.3190564],[76.9016731,28.3190552]]]}},{"type":"Feature","properties":{"v":"Gwaliar","m":"26","k":"14","t":"Manesar","vc":"04140","area":2878.3,"lat":28.3197986,"lng":76.9027395},"geometry":{"type":"Polygon","coordinates":[[[76.9024228,28.3195965],[76.9025056,28.3195955],[76.903031,28.3195888],[76.903032,28.3198225],[76.903033,28.3200594],[76.9030334,28.3201396],[76.9028383,28.3200498],[76.9024085,28.3198519],[76.9023542,28.3198269],[76.9023532,28.3195974],[76.9024228,28.3195965]]]}},{"type":"Feature","properties":{"v":"Gwaliar","m":"26","k":"6","t":"Manesar","vc":"04140","area":2240.1,"lat":28.3203632,"lng":76.9035115},"geometry":{"type":"Polygon","coordinates":[[[76.9030818,28.320139],[76.9036597,28.3201317],[76.9037111,28.3201311],[76.9037115,28.3202252],[76.9037133,28.3206373],[76.9037135,28.3206818],[76.9037143,28.3208586],[76.9035463,28.3206291],[76.9033284,28.3203315],[76.9030801,28.32017],[76.9030334,28.3201396],[76.9030818,28.320139]]]}},{"type":"Feature","properties":{"v":"Gwaliar","m":"27","k":"1","t":"Manesar","vc":"04140","area":3511.0,"lat":28.3209288,"lng":76.9040926},"geometry":{"type":"Polygon","coordinates":[[[76.9037408,28.3206815],[76.9040189,28.320678],[76.9043913,28.3206733],[76.9043936,28.3212063],[76.9043937,28.3212152],[76.9043937,28.321224],[76.9039871,28.3212292],[76.9039611,28.3211939],[76.9037297,28.3208794],[76.9037143,28.3208586],[76.9037135,28.3206818],[76.9037408,28.3206815]]]}}]}