{"type":"FeatureCollection","features":[{"type":"Feature","geometry":{"type":"MultiLineString","coordinates":[[[76.9074765,28.4198434],[76.9074955,28.4198471],[76.90798,28.4198706],[76.9084473,28.419881],[76.9090207,28.4198904],[76.9095351,28.4198848],[76.9102928,28.4198857],[76.9107698,28.4198848],[76.9113828,28.4198866],[76.9118597,28.419897],[76.9123002,28.4199498],[76.9127729,28.4200384],[76.913358,28.4202052],[76.914045,28.4204324],[76.9147224,28.4206963],[76.9155369,28.4210253],[76.9162829,28.4213288],[76.9170577,28.4216446],[76.917465,28.4218142],[76.9178455,28.4219405],[76.9181402,28.4220225],[76.9185175,28.4220744],[76.9193813,28.4221611],[76.9201262,28.4222327],[76.9209364,28.4223166],[76.9216009,28.4223647],[76.9224079,28.4224165],[76.923111,28.422441],[76.9239748,28.4224806],[76.9243585,28.4224957],[76.9247486,28.4225343],[76.9252331,28.4226248],[76.925829,28.4227445],[76.9266703,28.4229566],[76.9270647,28.4230537],[76.9280646,28.4233016],[76.9288181,28.4234816],[76.9291235,28.4235646],[76.9294386,28.4236239],[76.9299563,28.4236918],[76.9305329,28.4237606],[76.9308951,28.423804],[76.93161,28.4239039],[76.9324535,28.4240076],[76.933193,28.4241056],[76.9335574,28.424164],[76.9341243,28.4242715],[76.9348188,28.4244015],[76.9352454,28.4244967],[76.9358016,28.4246136],[76.9363793,28.4247776],[76.9367351,28.4248775],[76.9372035,28.4250189],[76.9375261,28.4251151],[76.9380502,28.4252677],[76.9384874,28.4254054],[76.9388304,28.4255194],[76.9390801,28.4256212],[76.9393652,28.4257607],[76.9397382,28.4259313],[76.9400093,28.4260614],[76.9401851,28.4261368],[76.9404337,28.4262197],[76.9407628,28.4262932],[76.9410747,28.4263573],[76.9414412,28.4264205],[76.9420918,28.4265402],[76.9426984,28.4266589],[76.9432278,28.4267494],[76.9437369,28.426854],[76.9445493,28.4270275],[76.945218,28.4271566],[76.9462201,28.4273328],[76.9467271,28.4274016],[76.9474966,28.4275279],[76.9483904,28.427659],[76.9491042,28.4277617],[76.9493904,28.4278041],[76.9503325,28.4279408],[76.9508683,28.428018],[76.951894,28.4281688],[76.9523881,28.4282301],[76.9529729,28.428308],[76.9535102,28.4283753],[76.9539507,28.4283875],[76.9542047,28.4283696],[76.954642,28.4282829],[76.9550835,28.4281905],[76.9557373,28.4280633],[76.9562882,28.4279643],[76.9564157,28.4279379],[76.9565701,28.4279153],[76.9568128,28.4278857],[76.9570365,28.4278748],[76.9572847,28.4278899],[76.9575385,28.4279225],[76.9577827,28.4279737],[76.9579906,28.4280467],[76.9581874,28.4281758],[76.9583418,28.4283073],[76.9585407,28.4284901],[76.9587334,28.4286656],[76.9588665,28.4287706],[76.9590517,28.4288991],[76.9592973,28.4290426],[76.9595147,28.4291645],[76.959822,28.4293141],[76.960178,28.4294739],[76.9605251,28.4296296],[76.9608406,28.429749],[76.9609709,28.4298009]],[[76.9074765,28.4198434],[76.9073786,28.4198278],[76.9072305,28.4198044],[76.9070534,28.4197633],[76.9069262,28.4197212],[76.9068279,28.419683],[76.9066815,28.4196165],[76.9065097,28.4195282],[76.9064093,28.4194708],[76.9060849,28.4192951],[76.905778,28.4191289],[76.9055056,28.4189878],[76.9053581,28.4189104],[76.9051399,28.4187913],[76.9049548,28.4186988],[76.9047232,28.41857],[76.9045225,28.4184492],[76.9043222,28.4183301],[76.9041091,28.4181992],[76.903964,28.418107],[76.9038214,28.4180139],[76.9035915,28.4178554],[76.9034307,28.4177437],[76.903269,28.4176306],[76.9030622,28.4174883],[76.9028797,28.4173598],[76.9026244,28.4171833],[76.9023188,28.4169714],[76.9019837,28.4167355],[76.9016622,28.4165104],[76.9013634,28.4163027],[76.9010091,28.4160548],[76.9006483,28.4158092],[76.900294,28.4155607],[76.8998741,28.4152725],[76.8995711,28.4150671],[76.8992123,28.4148284],[76.8989716,28.4146713],[76.8987463,28.4145333],[76.8985157,28.4143894],[76.8982377,28.41422],[76.898048,28.4141017],[76.8979243,28.4140015],[76.8977178,28.4138889],[76.8975755,28.4138032],[76.8973138,28.4136364],[76.897077,28.4134868],[76.8968381,28.4133293],[76.8965646,28.4131606],[76.8962942,28.4129897],[76.895974,28.4127875],[76.8957188,28.4126313],[76.8954813,28.4124858],[76.8952245,28.412327],[76.8948927,28.4121194],[76.8946801,28.4119931],[76.8944431,28.4118418],[76.8942041,28.4116954],[76.8939702,28.4115535],[76.8937804,28.4114375],[76.8936049,28.4113295],[76.8934075,28.4112134],[76.8930269,28.4109912],[76.8926139,28.4107685],[76.8923272,28.4106212],[76.8920694,28.4104877],[76.8918071,28.4103512],[76.8914316,28.4101575],[76.8910698,28.4099736],[76.8906877,28.4097772],[76.8903361,28.4095996],[76.8898926,28.409368],[76.8896505,28.4092416],[76.8895595,28.4091942],[76.8893154,28.4090685],[76.8891131,28.4089633],[76.8888927,28.4088528],[76.8886876,28.4087512],[76.8884765,28.4086473],[76.8882397,28.4085312],[76.8879832,28.4084073],[76.8876681,28.4082565],[76.8873875,28.4081192],[76.8871764,28.4080182],[76.8869047,28.4078802],[76.8866707,28.4077577],[76.8863925,28.4076023],[76.8862344,28.4075137],[76.8860469,28.4074025],[76.8858198,28.407262],[76.8856235,28.4071356],[76.8853726,28.4069715],[76.8852346,28.4068828],[76.8850246,28.4067413],[76.8848693,28.4066371],[76.8846481,28.4064811],[76.8844459,28.406343],[76.8842472,28.4062046],[76.8841556,28.4061417],[76.8840387,28.4060574],[76.8839493,28.4059962],[76.8838319,28.4059115],[76.8837179,28.4058261],[76.8835936,28.4057332],[76.8834846,28.4056519],[76.8833695,28.4055658],[76.8832519,28.4054786],[76.8831625,28.4054096],[76.8829909,28.4052833],[76.8829118,28.4052241],[76.8828589,28.4051839],[76.8827708,28.4051222],[76.8826701,28.405049],[76.8825483,28.4049699],[76.8824479,28.4049042],[76.8823376,28.4048321],[76.8822863,28.4048016],[76.8821866,28.4047451],[76.8820312,28.404657],[76.8819249,28.404598],[76.8817694,28.4045164],[76.8817281,28.4044945],[76.8816716,28.4044667],[76.8816055,28.4044337],[76.8814072,28.4043404],[76.8812151,28.4042525],[76.8809839,28.4041524],[76.880728,28.4040553],[76.8804755,28.4039676],[76.8802412,28.4038788],[76.8799792,28.4037697],[76.8796702,28.4036228],[76.8795094,28.4035401],[76.8793648,28.4034599],[76.8791117,28.403315],[76.878823,28.403146],[76.8786386,28.4030382],[76.8784382,28.4029169],[76.8782615,28.4028102],[76.8781253,28.4027201],[76.877945,28.4026066],[76.8777107,28.4024611],[76.8775209,28.4023384],[76.8774014,28.4022632],[76.8772733,28.4021828],[76.8771546,28.4021077],[76.8769925,28.4020058],[76.8767826,28.4018788],[76.8766572,28.4018029],[76.8764733,28.4016908],[76.8763446,28.4016145],[76.8761609,28.4015044],[76.8760333,28.4014285],[76.875968,28.4013896],[76.875903,28.4013499],[76.8757977,28.4012836],[76.8756955,28.4012195],[76.8756027,28.4011596],[76.8755524,28.4011257]]]},"properties":{"_s":"Type 2","_l":"Gurugram Pataudi Road Sec. Gurugram to Pataudi","Road name":"Gurugram Pataudi Road Sec. Gurugram to Pataudi","Type":"Type 2","Ownership":"MC Manesar","Department":"MC Manesar","Width (m)":6,"Width (GIS)":"Varying from 10m to 17m","Length as per record (m)":8800.0,"GIS length (m)":9209.7,"Status":"1","FID":"14","_lng":76.8882397,"_lat":28.4085312}}]}