{"type":"FeatureCollection","features":[{"type":"Feature","geometry":{"type":"LineString","coordinates":[[76.9346262,28.4416368],[76.934803,28.441826],[76.9350206,28.4420785],[76.9351207,28.4421894],[76.9352115,28.4422889],[76.9353224,28.4424189],[76.9354167,28.4425219],[76.9355509,28.4426732],[76.9356792,28.442812],[76.9357747,28.4429206],[76.9358472,28.4430046],[76.9359699,28.4431515],[76.9360435,28.4432405],[76.9361373,28.4433477],[76.9362622,28.443484],[76.9363879,28.4436299],[76.9365057,28.4437628],[76.9366135,28.4438848],[76.9367019,28.4439925],[76.9367272,28.4440209]]},"properties":{"_s":"Type 4","_l":"Link Road to Garhi","Road name":"Link Road to Garhi","Type":"Type 4","Ownership":"MC Manesar","Department":"MC Manesar","Width (GIS)":"Varying from 7m to 20m","Length as per record (m)":500.0,"GIS length (m)":335.0,"Status":"19","FID":"166","_lng":76.9358472,"_lat":28.4430046}},{"type":"Feature","geometry":{"type":"LineString","coordinates":[[76.9345477,28.4415644],[76.9345953,28.4415669],[76.9346907,28.4415095],[76.9348468,28.4413648],[76.9350633,28.4411891],[76.935275,28.4410134],[76.935452,28.4408793],[76.9355612,28.4407741],[76.9356839,28.4406731],[76.9358208,28.4405492],[76.9358701,28.4405065]]},"properties":{"_s":"Type 4","_l":"Garhi Harsaru to Chillana Mandir","Road name":"Garhi Harsaru to Chillana Mandir","Type":"Type 4","Ownership":"MC Manesar","Department":"MC Manesar","Length as per record (m)":600.0,"GIS length (m)":176.4,"Status":"20","FID":"167","_lng":76.935275,"_lat":28.4410134}},{"type":"Feature","geometry":{"type":"LineString","coordinates":[[76.971848,28.3435191],[76.9719841,28.343387],[76.9720804,28.3433],[76.9721514,28.3432377],[76.9724242,28.3430183],[76.9726804,28.3428235],[76.9727388,28.3427687],[76.9728556,28.3426485],[76.9729436,28.3425444],[76.9730587,28.3424207],[76.9731378,28.3423319],[76.9731994,28.3422586],[76.9732319,28.3422211],[76.973406,28.3420218],[76.9734608,28.341964],[76.9735796,28.3418276],[76.9737231,28.3416583],[76.9738452,28.3415137],[76.9739579,28.3413844],[76.9740843,28.341256],[76.9742386,28.3410845],[76.9744121,28.3409017],[76.9746724,28.3406082],[76.9748939,28.3403568],[76.9751472,28.3400932],[76.9752997,28.3399163],[76.9754485,28.3397581],[76.9756745,28.3395556],[76.9758332,28.3394282],[76.97597,28.3393273],[76.976152,28.3392036],[76.9761716,28.3391873],[76.9762844,28.3391],[76.9763301,28.3390539],[76.976377,28.3389784],[76.9764234,28.3389151],[76.9764685,28.3388702],[76.9766133,28.338756]]},"properties":{"_s":"Type 4","_l":"Kota Khandevla Naurangpur to Bar Gujjar","Road name":"Kota Khandevla Naurangpur to Bar Gujjar","Type":"Type 4","Ownership":"MC Manesar","Department":"MC Manesar","Width (GIS)":"Varying from 6m to 10m","Length as per record (m)":660.0,"GIS length (m)":707.6,"Status":"21","FID":"168","_lng":76.9740843,"_lat":28.341256}},{"type":"Feature","geometry":{"type":"LineString","coordinates":[[76.9608984,28.4048912],[76.960925,28.4049145],[76.9609682,28.4049437],[76.961033,28.4049854],[76.9610828,28.4050197],[76.9612977,28.4051563],[76.9613084,28.4051634],[76.9614904,28.4053077],[76.9616999,28.4054525],[76.9619072,28.4056076],[76.9621267,28.4057655],[76.9622823,28.4058792],[76.9624572,28.406013],[76.962636,28.4061411],[76.962886,28.4063117],[76.9631162,28.4064902],[76.9634134,28.4067022],[76.9637447,28.4069608],[76.9640234,28.4071655],[76.9643108,28.4073705],[76.9646149,28.4076143],[76.9649172,28.4078521],[76.9652327,28.4080927],[76.9654906,28.408283],[76.9657479,28.4084773],[76.9659965,28.4086626],[76.9663429,28.4089266],[76.9664312,28.4089978],[76.9665597,28.4090982],[76.9667437,28.4092267],[76.9669773,28.4094072],[76.967191,28.4095611],[76.9673665,28.4096954],[76.9675506,28.4098315],[76.9677142,28.4099431],[76.9677992,28.4100041],[76.9679775,28.4101467],[76.9679845,28.4101529],[76.9681171,28.4102604],[76.9682159,28.4103411],[76.9682909,28.4103957],[76.9683491,28.4104455]]},"properties":{"_s":"Type 4","_l":"Kherki Dola to Sihi Sikanderpur Badha","Road name":"Kherki Dola to Sihi Sikanderpur Badha","Type":"Type 4","Ownership":"MC Manesar","Department":"MC Manesar","Width (GIS)":"Varying from 6m to 10m","Length as per record (m)":1000.0,"GIS length (m)":955.4,"Status":"22","FID":"169","_lng":76.9649172,"_lat":28.4078521}},{"type":"Feature","geometry":{"type":"LineString","coordinates":[[76.9074822,28.3276866],[76.9074645,28.3277936],[76.9074427,28.3281254],[76.9074306,28.3283985],[76.9074194,28.3285758],[76.9074037,28.3287454],[76.9073887,28.3288544],[76.9073623,28.3292406],[76.9073608,28.329314],[76.907341,28.3295485],[76.9073333,28.3298063],[76.9073189,28.3299685],[76.9073171,28.3299993],[76.9073082,28.3301572],[76.9073016,28.3302372],[76.9072977,28.3303187],[76.9072898,28.3304272],[76.9072834,28.3305737],[76.9072715,28.3307363],[76.9072396,28.3310662],[76.9072304,28.3312348],[76.9072285,28.331287],[76.9072092,28.3316009],[76.9072045,28.3316892],[76.9072015,28.3317343],[76.9071912,28.331853],[76.907184,28.3319836],[76.9071706,28.3321893],[76.9071655,28.3323189],[76.9071509,28.3326664],[76.9071376,28.3329213],[76.9071356,28.3331073],[76.9071236,28.3331843],[76.9071199,28.3332907],[76.9071189,28.3333871],[76.9071153,28.3334972],[76.9071062,28.3336156],[76.9070988,28.3337509],[76.9070976,28.3338831],[76.9070809,28.3339995],[76.9071121,28.3341783],[76.9071248,28.3343438],[76.9071461,28.334519],[76.9071496,28.3346364],[76.9071658,28.3348426],[76.9071724,28.334976],[76.9071912,28.3351648],[76.9072074,28.3352944],[76.9072201,28.3355316]]},"properties":{"_s":"Type 4","_l":"DJ road to Sehrawan","Road name":"DJ road to Sehrawan","Type":"Type 4","Ownership":"MC Manesar","Department":"MC Manesar","Width (GIS)":"3.5","Length as per record (m)":1250.0,"GIS length (m)":871.5,"Status":"23","FID":"170","_lng":76.9072015,"_lat":28.3317343}},{"type":"Feature","geometry":{"type":"LineString","coordinates":[[76.9613491,28.3787255],[76.9613985,28.3786163],[76.9614327,28.3785186],[76.9614704,28.3783781],[76.9614799,28.3783397],[76.9614827,28.378322],[76.9615576,28.3779724],[76.9616015,28.3778028],[76.9616479,28.3776022],[76.9616994,28.3773944],[76.9617814,28.3770996],[76.9618648,28.3767299],[76.961956,28.3763536],[76.9620187,28.3761027],[76.9620775,28.3758514],[76.9621149,28.375683],[76.9621742,28.3754621],[76.9622282,28.3752341],[76.962268,28.3750389],[76.9623246,28.3747992],[76.9623927,28.3745265],[76.9624577,28.3742745],[76.9625034,28.3741162],[76.9625604,28.3738365],[76.9626355,28.3736026],[76.9627184,28.3733256],[76.9628141,28.3730347],[76.9629006,28.3727931],[76.9629931,28.3725138],[76.9630719,28.3722627],[76.9631562,28.3720297],[76.9632413,28.3717795],[76.9633356,28.3714967],[76.9633985,28.3712928],[76.9634387,28.3711803],[76.9634916,28.3709972],[76.963556,28.3707852],[76.9636279,28.3705601],[76.9636966,28.37035],[76.9637706,28.3701241],[76.9638287,28.369966],[76.9638847,28.3698042],[76.9639948,28.3694415],[76.9641671,28.3689215],[76.9642884,28.3685493],[76.9644173,28.3681445],[76.9645321,28.3678057],[76.9646468,28.3674628],[76.9647459,28.3671472],[76.9650035,28.3663677],[76.9652193,28.3657622],[76.9654652,28.3650194],[76.9656703,28.3643763],[76.9658439,28.3638629],[76.965953,28.3634983],[76.9660927,28.3631198],[76.9662312,28.3627248],[76.9664079,28.3621974],[76.966458,28.3620489]]},"properties":{"_s":"Type 4","_l":"DJ road Rampura to Kota Khandevla Road via Naurangpur","Road name":"DJ road Rampura to Kota Khandevla Road via Naurangpur","Type":"Type 4","Ownership":"MC Manesar","Department":"MC Manesar","Width (GIS)":"10","Length as per record (m)":3500.0,"GIS length (m)":1916.4,"Status":"24","FID":"171","_lng":76.9630719,"_lat":28.3722627}},{"type":"Feature","geometry":{"type":"MultiLineString","coordinates":[[[76.9002929,28.3204957],[76.9002941,28.3205011],[76.9002913,28.320744],[76.9002956,28.3208512],[76.9003063,28.3210038],[76.9003378,28.3211483],[76.9003715,28.3212694],[76.9004245,28.3213621],[76.9004955,28.321453],[76.9005779,28.3215665],[76.9006703,28.3216794],[76.9008308,28.3218693],[76.9009684,28.3220314],[76.901073,28.3221544],[76.9011798,28.322278],[76.9012529,28.3223733],[76.9013518,28.3225013],[76.9014858,28.3226691],[76.9016771,28.3229013],[76.901814,28.323052],[76.901958,28.3232002],[76.9021465,28.3233743],[76.9022518,28.3234608],[76.9024453,28.323592],[76.902537,28.3236431],[76.9026903,28.3237345],[76.9028336,28.3238159],[76.902987,28.3238998],[76.9032507,28.3240304],[76.9034836,28.3241521],[76.9037107,28.3242675],[76.9038411,28.3243306],[76.9040031,28.3243968],[76.9042446,28.3244933],[76.9044086,28.3245716],[76.90462,28.3247009],[76.9046888,28.3247595],[76.9048479,28.3249052],[76.9050521,28.3250957],[76.9051711,28.325208],[76.90527,28.3252919],[76.9054677,28.3254546],[76.9056856,28.3256313],[76.9058232,28.3257511],[76.9059177,28.3258318],[76.9059994,28.3259063],[76.9060732,28.3259807],[76.9061642,28.3260904],[76.906261,28.3262021],[76.9064294,28.3264386],[76.9065239,28.3265755],[76.9066135,28.3266985],[76.9066816,28.3267919],[76.9067719,28.3268921],[76.9068531,28.3269927]],[[76.9002929,28.3204957],[76.9002906,28.3204344],[76.9002713,28.3203453],[76.9002457,28.320276]]]},"properties":{"_s":"Type 4","_l":"Construction of New Road from NH-8 to Kukrola","Road name":"Construction of New Road from NH-8 to Kukrola","Type":"Type 4","Ownership":"MC Manesar","Department":"MC Manesar","Width (GIS)":"Varying from 8m to 10m","Length as per record (m)":1100.0,"GIS length (m)":1024.6,"Status":"25","FID":"172","_lng":76.902987,"_lat":28.3238998}},{"type":"Feature","geometry":{"type":"LineString","coordinates":[[76.970737,28.3368127],[76.970746,28.3365557],[76.9707512,28.336258],[76.9707717,28.3359976],[76.9707769,28.3358277],[76.9707851,28.3357773],[76.9709786,28.3356513],[76.9711646,28.3355274],[76.9713589,28.3353933],[76.9715614,28.3352506],[76.9718092,28.3350825],[76.9720702,28.3349028],[76.9722949,28.3347839],[76.9725254,28.3346564],[76.9726034,28.3346174],[76.9727098,28.3347158],[76.9727864,28.3347977],[76.9728621,28.3348672],[76.972914,28.3348999],[76.9729955,28.3348955],[76.9731099,28.3348796],[76.9733141,28.3348528],[76.9735841,28.3348238],[76.9738978,28.3347934],[76.9740163,28.3349977],[76.9741563,28.3352375],[76.9742254,28.3353614],[76.9743099,28.3355036]]},"properties":{"_s":"Type 4","_l":"Construction of New Road from from Rampura Kota Khandevla to Baba Mohan Ram Mandir","Road name":"Construction of New Road from from Rampura Kota Khandevla to Baba Mohan Ram Mandir","Type":"Type 4","Ownership":"MC Manesar","Department":"MC Manesar","Width (GIS)":"8","Length as per record (m)":850.0,"GIS length (m)":564.5,"Status":"26","FID":"173","_lng":76.9726034,"_lat":28.3346174}},{"type":"Feature","geometry":{"type":"LineString","coordinates":[[76.9255503,28.4346601],[76.9251814,28.4344147],[76.9246521,28.434017],[76.9242752,28.4337138],[76.9238984,28.4334318],[76.9235503,28.4331567],[76.9232135,28.4328831],[76.9229361,28.4326265],[76.9226297,28.4323444],[76.922224,28.4319664],[76.9219225,28.4317083],[76.9215392,28.4313952],[76.9211671,28.4310638],[76.9205192,28.4304827],[76.9200763,28.430092],[76.9193746,28.4294706],[76.9187607,28.4289527],[76.9182386,28.4285194],[76.9177815,28.4281245],[76.9173885,28.4277733],[76.9170165,28.4274306],[76.9167631,28.4271979],[76.9162874,28.4267996],[76.9158012,28.4264338],[76.915523,28.4262046],[76.915092,28.425863],[76.9147763,28.4256316],[76.914255,28.4252812],[76.9137714,28.4249352],[76.9134306,28.4246818]]},"properties":{"_s":"Type 4","_l":"Construction of New Road from Garhi Railway Station to Inland Container Depot Garhi Harsaru","Road name":"Construction of New Road from Garhi Railway Station to Inland Container Depot Garhi Harsaru","Type":"Type 4","Ownership":"MC Manesar","Department":"MC Manesar","Width (GIS)":"15","Length as per record (m)":950.0,"GIS length (m)":1624.4,"Status":"27","FID":"174","_lng":76.9193746,"_lat":28.4294706}},{"type":"Feature","geometry":{"type":"MultiLineString","coordinates":[[[76.9489234,28.3337266],[76.9493638,28.3333792],[76.9497705,28.3330445],[76.9501555,28.3327394],[76.950543,28.3324238],[76.9511109,28.3319472],[76.9515128,28.3316019],[76.9519677,28.3312376],[76.952514,28.3307821]],[[76.9441311,28.3340208],[76.9439229,28.3337736],[76.9438063,28.333633],[76.9437005,28.3335064],[76.943563,28.3333332],[76.943434,28.333175],[76.9433494,28.3330484],[76.9432944,28.3328883],[76.9432373,28.332622],[76.9431992,28.3322217],[76.9431294,28.331868],[76.9430406,28.3314696],[76.9430281,28.3313996]]]},"properties":{"_s":"Type 4","_l":"Construction of New Road from Nainwal to Dhani Munshiwali","Road name":"Construction of New Road from Nainwal to Dhani Munshiwali","Type":"Type 4","Ownership":"MC Manesar","Department":"MC Manesar","Width (GIS)":"7","Length as per record (m)":1900.0,"GIS length (m)":798.2,"Status":"28","FID":"175","_lng":76.9433494,"_lat":28.3330484}},{"type":"Feature","geometry":{"type":"LineString","coordinates":[[76.928028,28.4407493],[76.9279379,28.4406193],[76.9278234,28.4404661],[76.9277196,28.4403327],[76.9276325,28.4402062],[76.9275229,28.4400814],[76.9273946,28.4398963],[76.927284,28.4396837],[76.9272459,28.4395916],[76.9272116,28.4394694],[76.9271705,28.4393532],[76.9271255,28.4392344],[76.9270667,28.4391165],[76.927054,28.4390674],[76.9270471,28.4389521],[76.927006,28.4387179],[76.9269512,28.438538],[76.9269042,28.4384279],[76.9268445,28.4383065],[76.9267486,28.4382058],[76.9266468,28.4380801],[76.9265097,28.4378968],[76.9264109,28.4377582],[76.9263218,28.4376515],[76.9262885,28.4375723],[76.926221,28.4374569],[76.9261152,28.4372994],[76.9260174,28.4371531],[76.9259107,28.4369964],[76.9258461,28.4368879],[76.9257829,28.4367784],[76.9257059,28.4366732],[76.925632,28.436584],[76.9255605,28.4365327],[76.9254659,28.4364958],[76.9254065,28.4364842],[76.9252881,28.4364705],[76.9251755,28.436467]]},"properties":{"_s":"Type 4","_l":"Construction of New Road from Garhi Sadrana road to Hamirpur upto Railway Crossing","Road name":"Construction of New Road from Garhi Sadrana road to Hamirpur upto Railway Crossing","Type":"Type 4","Ownership":"MC Manesar","Department":"MC Manesar","Width (GIS)":"5","Length as per record (m)":950.0,"GIS length (m)":571.9,"Status":"29","FID":"176","_lng":76.9267486,"_lat":28.4382058}},{"type":"Feature","geometry":{"type":"MultiLineString","coordinates":[[[76.9691302,28.336745],[76.9695493,28.336754],[76.9699925,28.3367676],[76.9702673,28.3367782],[76.9706795,28.3367888],[76.9709716,28.3367964],[76.9713306,28.3368054],[76.9716758,28.3368266],[76.9722942,28.3368478],[76.9728456,28.3368629],[76.9734845,28.3368765],[76.974096,28.3369007],[76.9745719,28.3369219],[76.9750013,28.336943],[76.9755183,28.3369582],[76.9758206,28.3369657],[76.9760594,28.3369627],[76.9763428,28.3369249],[76.9764699,28.3368916]],[[76.9752671,28.3369508],[76.9752675,28.3362476]]]},"properties":{"_s":"Type 4","_l":"Village Bargujjar to Baba Mohan Ram Mandir","Road name":"Village Bargujjar to Baba Mohan Ram Mandir","Type":"Type 4","Ownership":"MC Manesar","Department":"MC Manesar","Width (GIS)":"5","Length as per record (m)":650.0,"GIS length (m)":799.0,"Status":"30","FID":"177","_lng":76.9728456,"_lat":28.3368629}},{"type":"Feature","geometry":{"type":"LineString","coordinates":[[76.9453845,28.3357259],[76.9458293,28.3359591],[76.9461511,28.3361049],[76.9463427,28.3362944],[76.9465533,28.3365214],[76.9467212,28.3367254],[76.9469129,28.3369212],[76.9470759,28.3368916],[76.9472289,28.336877],[76.9476619,28.336893],[76.9479935,28.3369316],[76.9482918,28.3369489],[76.9485704,28.3369529],[76.9487476,28.3369636],[76.9489777,28.3369716],[76.9492851,28.3369809],[76.9495501,28.3369889],[76.9495576,28.3367703],[76.9495667,28.3365038],[76.9495769,28.3361799],[76.9495863,28.3359112],[76.9496029,28.3356509],[76.9496194,28.3353906],[76.9496431,28.3351012],[76.9496515,28.3347353],[76.9496636,28.33457],[76.9496576,28.3344567],[76.9495561,28.3343008],[76.949385,28.3341622],[76.9491428,28.3339636],[76.9490035,28.3338317],[76.9489096,28.333749]]},"properties":{"_s":"Type 4","_l":"Nainwal to Shamshan Ghat","Road name":"Nainwal to Shamshan Ghat","Type":"Type 4","Ownership":"MC Manesar","Department":"MC Manesar","Width (GIS)":"7","Length as per record (m)":900.0,"GIS length (m)":852.1,"Status":"31","FID":"178","_lng":76.9495501,"_lat":28.3369889}},{"type":"Feature","geometry":{"type":"LineString","coordinates":[[76.9872935,28.3746339],[76.9872145,28.3744157],[76.9871411,28.3742267],[76.9871043,28.3741378],[76.9869739,28.3739988],[76.9867204,28.3738032],[76.9864173,28.3735883],[76.9861988,28.3734315],[76.9860353,28.3733071],[76.9859434,28.3732198],[76.985881,28.373105],[76.9857671,28.3730048],[76.985622,28.3729224],[76.9854475,28.3728141],[76.985341,28.3727155],[76.9852583,28.3725943],[76.9851885,28.3724473],[76.9850985,28.3722954],[76.984981,28.372179],[76.9848542,28.3720448],[76.9848017,28.3719599],[76.9847094,28.3717869],[76.9846091,28.3716233],[76.9845182,28.3714562],[76.9844205,28.371322],[76.9843242,28.3712032],[76.9842226,28.3710749],[76.9841276,28.3709878],[76.984046,28.3709396],[76.9839511,28.3709137],[76.9838762,28.3709113],[76.9836769,28.3709431],[76.9834829,28.3709513]]},"properties":{"_s":"Type 4","_l":"Constructiom of New Road from Shikohpur to Gyan Guru Mandir Shikohpur","Road name":"Constructiom of New Road from Shikohpur to Gyan Guru Mandir Shikohpur","Type":"Type 4","Ownership":"MC Manesar","Department":"MC Manesar","Width (GIS)":"6","Length as per record (m)":600.0,"GIS length (m)":586.2,"Status":"32","FID":"179","_lng":76.9851885,"_lat":28.3724473}},{"type":"Feature","geometry":{"type":"LineString","coordinates":[[76.8926574,28.3971424],[76.8926442,28.3976758],[76.892632,28.3984605],[76.8926118,28.399386],[76.8925957,28.40066],[76.8925817,28.4014528],[76.8925756,28.4019111],[76.8925535,28.4020544],[76.8924268,28.4021942],[76.8922578,28.4023004],[76.8912942,28.4029657],[76.8903629,28.403608],[76.8892625,28.4043565],[76.8880937,28.4051545],[76.8869894,28.4059189],[76.8859775,28.4066072],[76.8856879,28.4068089]]},"properties":{"_s":"Type 4","_l":"Gurugram Pataudi Road to Jhund Sarai","Road name":"Gurugram Pataudi Road to Jhund Sarai","Type":"Type 4","Ownership":"MC Manesar","Department":"MC Manesar","Width (GIS)":"35","Length as per record (m)":270.0,"GIS length (m)":1399.7,"Status":"2","FID":"180","_lng":76.8924268,"_lat":28.4021942}},{"type":"Feature","geometry":{"type":"LineString","coordinates":[[76.9361248,28.4402854],[76.9346753,28.4415033],[76.9341602,28.4419061],[76.9338792,28.442087],[76.933578,28.4422918],[76.9332698,28.4425063],[76.9330138,28.4426994],[76.9324677,28.4431614],[76.9318776,28.4436693],[76.931307,28.4441716],[76.9306736,28.4447135],[76.9300282,28.4452369],[76.9293767,28.4457604],[76.9289224,28.446146],[76.928619,28.4464165],[76.9283747,28.4466314],[76.9279727,28.4469978],[76.9276627,28.4472913],[76.9273026,28.4476183],[76.9268974,28.4479814],[76.9265497,28.4482934],[76.9261615,28.4486284],[76.9258596,28.4488813],[76.9253624,28.4492854],[76.9248023,28.449743],[76.9243184,28.4501392],[76.9239556,28.4504451],[76.9234662,28.450866],[76.9230724,28.4512071],[76.9227397,28.4515386],[76.9224491,28.4519175],[76.9218567,28.452678]]},"properties":{"_s":"Type 4","_l":"Gurugram Pataudi road to farukhnagar Road","Road name":"Gurugram Pataudi road to farukhnagar Road","Type":"Type 4","Ownership":"MC Manesar","Department":"MC Manesar","Width (GIS)":"Varying from 7m to 15m","Length as per record (m)":2000.0,"GIS length (m)":1963.9,"Status":"3","GIS update":"Done","FID":"181","_lng":76.9279727,"_lat":28.4469978}},{"type":"Feature","geometry":{"type":"LineString","coordinates":[[76.9052278,28.357412],[76.9053384,28.3574124],[76.9056179,28.3574158],[76.9062921,28.3574348],[76.9067775,28.3574417],[76.9075065,28.3574565],[76.9082736,28.3574769],[76.9091952,28.3575051],[76.9097201,28.357517],[76.9104285,28.3575386],[76.9108432,28.3575545],[76.9114305,28.357563],[76.9118267,28.3575822],[76.9124393,28.3575913],[76.9135411,28.3576174],[76.914389,28.3576603],[76.9150824,28.3576773],[76.9158214,28.3576943],[76.9166189,28.357724],[76.9172066,28.3577356],[76.9178877,28.357748],[76.9185522,28.3577545],[76.9190213,28.3577673],[76.9194725,28.3577797],[76.9199619,28.3577943],[76.9204341,28.3577225],[76.9208804,28.3576263],[76.9212517,28.3575684],[76.9217889,28.3575617],[76.9222509,28.3575583],[76.9228348,28.3575572],[76.923307,28.3575514],[76.923745,28.3575403],[76.9240307,28.357541],[76.9244051,28.3575352],[76.9247566,28.3575282],[76.9249976,28.3575035],[76.9252886,28.3574537],[76.9256471,28.3573421],[76.9260738,28.357133],[76.9264338,28.3569387],[76.926792,28.3567357],[76.9271017,28.3565756],[76.9275292,28.3563531],[76.927885,28.3561516],[76.9281856,28.3559928],[76.9286271,28.3557471],[76.9288865,28.3556109],[76.9292275,28.3554181],[76.9296105,28.3552253],[76.9299202,28.3551136],[76.9302175,28.3550462],[76.9305511,28.3550064],[76.9310823,28.3550013],[76.9316391,28.3550158],[76.9319315,28.3550317],[76.9326786,28.3550535],[76.9331316,28.3550614],[76.9339338,28.3551049],[76.9348244,28.355138],[76.9359869,28.3551739],[76.9368743,28.3552266],[76.937474,28.3552436],[76.9376735,28.3552379]]},"properties":{"_s":"Type 4","_l":"Manesar Road to Kasan Puran Bhagat Mandir","Road name":"Manesar Road to Kasan Puran Bhagat Mandir","Type":"Type 4","Ownership":"MC Manesar","Department":"MC Manesar","Width (GIS)":"Varying from 8m to 12m","Length as per record (m)":4450.0,"GIS length (m)":3256.8,"Status":"6","FID":"182","_lng":76.923745,"_lat":28.3575403}},{"type":"Feature","geometry":{"type":"LineString","coordinates":[[76.917029,28.3954312],[76.9156703,28.3940038],[76.9142019,28.3924821],[76.9134559,28.3918781],[76.9121835,28.390841],[76.9114498,28.3902398],[76.9106016,28.3895612],[76.9097143,28.3888347],[76.9089277,28.3882053],[76.9083589,28.3877379],[76.907567,28.3870929],[76.9067827,28.3864574],[76.9060528,28.3858573],[76.9047781,28.3848161],[76.9040171,28.3841705],[76.9031831,28.3834613],[76.9013553,28.3819258],[76.9004208,28.3811681],[76.8998561,28.3807155],[76.8994904,28.3803922],[76.8993921,28.3800222]]},"properties":{"_s":"Type 4","_l":"Hayatput Dhana via Bhangrola","Road name":"Hayatput Dhana via Bhangrola","Type":"Type 4","Ownership":"MC Manesar","Department":"MC Manesar","Width (GIS)":"Varying from 7m to 12m","Length as per record (m)":5950.0,"GIS length (m)":2439.1,"Status":"7","FID":"183","_lng":76.907567,"_lat":28.3870929}},{"type":"Feature","geometry":{"type":"LineString","coordinates":[[76.9151775,28.420971],[76.9145341,28.4210123],[76.9142137,28.421125],[76.9138041,28.4213429],[76.9135279,28.421449],[76.9131014,28.4215543],[76.9126925,28.4216741],[76.9124631,28.4218234],[76.9120705,28.4221017],[76.9117539,28.4223381],[76.9114524,28.4226406],[76.911197,28.4227915],[76.9110185,28.4229112]]},"properties":{"_s":"Type 4","_l":"Internal Road to Wazirpur Road","Road name":"Internal Road to Wazirpur Road","Type":"Type 4","Ownership":"MC Manesar","Department":"MC Manesar","Width (GIS)":"Varying from 6m to 10m","Length as per record (m)":950.0,"GIS length (m)":473.5,"Status":"8","FID":"184","_lng":76.9126925,"_lat":28.4216741}},{"type":"Feature","geometry":{"type":"LineString","coordinates":[[76.909194,28.3798306],[76.9090717,28.3801399],[76.9091462,28.3804703],[76.9092673,28.3810185],[76.9093414,28.3815373],[76.9094233,28.3822376],[76.9094881,28.3827066],[76.9096648,28.383213],[76.9097155,28.3835076],[76.9096981,28.3848234],[76.9096918,28.3853589],[76.9096963,28.3857816],[76.9096698,28.3865434],[76.9096533,28.3869247],[76.9096469,28.3873118],[76.9096385,28.3875327],[76.9096321,28.3877624],[76.9096266,28.3880103],[76.9096207,28.3882818],[76.9096162,28.3885393],[76.9096021,28.3887449]]},"properties":{"_s":"Type 4","_l":"Hayatpur Dhana to Bas Kushla","Road name":"Hayatpur Dhana to Bas Kushla","Type":"Type 4","Ownership":"MC Manesar","Department":"MC Manesar","Width (GIS)":"Varying from 7m to 12m","Length as per record (m)":1400.0,"GIS length (m)":996.3,"Status":"9","FID":"185","_lng":76.9096918,"_lat":28.3853589}},{"type":"Feature","geometry":{"type":"MultiLineString","coordinates":[[[76.9399889,28.4551317],[76.9397619,28.4548705],[76.9396517,28.4547339],[76.9395321,28.4546043],[76.9393788,28.4544728],[76.9392978,28.4544009],[76.9392022,28.4542809],[76.9390264,28.4540532],[76.9388381,28.4537946],[76.9387264,28.4536233],[76.9386483,28.4535123],[76.9385673,28.4533634],[76.9385228,28.4532608],[76.9384995,28.4531504],[76.9384832,28.452982],[76.9384692,28.4527558],[76.9384617,28.4525073],[76.9384547,28.4522002],[76.9384519,28.451914],[76.9384542,28.4515485],[76.9384542,28.4512286],[76.9384458,28.4509888],[76.9384349,28.4508536],[76.9384104,28.4506862],[76.9383773,28.450573],[76.9383034,28.4504253],[76.9382371,28.4502983],[76.9381611,28.4501604],[76.9381029,28.4500544],[76.9380395,28.4499294],[76.9379767,28.449809],[76.9378829,28.4496263],[76.9377956,28.4494432],[76.937717,28.4492681],[76.9376685,28.449158],[76.9376135,28.4490242],[76.9375586,28.4488891],[76.937494,28.4487546],[76.937433,28.44864],[76.937358,28.4485123],[76.9372982,28.4484019],[76.9372366,28.4482671],[76.937175,28.4481546],[76.9370806,28.4479685],[76.9370142,28.4478802],[76.9369431,28.4477888]],[[76.9355256,28.4543643],[76.9384104,28.4506862]]]},"properties":{"_s":"Type 4","_l":"Garhi-Harsaru to Tuglakpur","Road name":"Garhi-Harsaru to Tuglakpur","Type":"Type 4","Ownership":"MC Manesar","Department":"MC Manesar","Width (GIS)":"7","Length as per record (m)":1400.0,"GIS length (m)":1388.1,"Status":"4","GIS update":"Done","FID":"186","_lng":76.9384104,"_lat":28.4506862}},{"type":"Feature","geometry":{"type":"LineString","coordinates":[[76.94608,28.3717566],[76.9462402,28.371912],[76.9463713,28.3720452],[76.9465034,28.3721813],[76.9466036,28.3722903],[76.9467622,28.3724575],[76.9469251,28.3726351],[76.9470689,28.3727882],[76.9471662,28.3729027],[76.9473061,28.3730436],[76.9474287,28.3731791],[76.9475552,28.3733193],[76.9476901,28.3734666],[76.9478304,28.3736208],[76.9479661,28.3737676],[76.9480906,28.3739051],[76.9482505,28.3740778],[76.9483953,28.3742378],[76.948584,28.3744436],[76.9487767,28.3746541],[76.9489238,28.3748144],[76.9490254,28.3749222],[76.949164,28.3750695],[76.949263,28.3751725],[76.9493911,28.3753097],[76.9495713,28.375502],[76.9496558,28.3755986],[76.9497954,28.375745],[76.9499229,28.3758923],[76.9500988,28.3760777],[76.9502532,28.3762516],[76.9504091,28.3764179],[76.9505756,28.3765938],[76.950689,28.376727],[76.9508174,28.3768599],[76.9509118,28.3769559],[76.9511559,28.3770539],[76.951305,28.3771159],[76.9515107,28.3771868],[76.9517447,28.3772586],[76.9519914,28.3773376],[76.952228,28.3774249],[76.9523696,28.3774843],[76.9525327,28.377533],[76.9527461,28.377591],[76.9529256,28.3776331],[76.9531799,28.3776829],[76.9535416,28.3777458],[76.9538598,28.3778],[76.9540194,28.3778334],[76.9541432,28.3778804],[76.9543428,28.37799],[76.9544637,28.3780586],[76.9545931,28.378135],[76.9547031,28.3781976],[76.9548464,28.3782697],[76.9549911,28.378339],[76.9551222,28.378402],[76.9552452,28.3784511],[76.9554406,28.3785215],[76.9557235,28.3786192],[76.9559093,28.3786778],[76.9560993,28.3787392],[76.9562051,28.3787628],[76.9563934,28.3788141],[76.9565449,28.378864],[76.9567102,28.3788967],[76.9568748,28.3789069],[76.9571074,28.3789121],[76.9574561,28.3789097],[76.9577015,28.3789151],[76.9578983,28.3789157],[76.9580893,28.3789157],[76.9583402,28.3789178],[76.9585755,28.3789208],[76.9587473,28.3789238],[76.9589311,28.3789251],[76.9591624,28.3789172],[76.9594067,28.3789136],[76.959652,28.3789078],[76.9598825,28.3789051],[76.9601028,28.3788994],[76.9603027,28.3788864],[76.960434,28.3788673],[76.9605209,28.3788477]]},"properties":{"_s":"Type 4","_l":"DJ Road to Nakhdola","Road name":"DJ Road to Nakhdola","Type":"Type 4","Ownership":"MC Manesar","Department":"MC Manesar","Width (GIS)":"Varying from 6m to 12m","Length as per record (m)":2200.0,"GIS length (m)":1731.8,"Status":"5","FID":"187","_lng":76.9523696,"_lat":28.3774843}},{"type":"Feature","geometry":{"type":"LineString","coordinates":[[76.906864,28.4196174],[76.9068635,28.419356],[76.9068586,28.4190376],[76.9068577,28.4187658],[76.9068543,28.4183764],[76.9068494,28.4178303],[76.9068485,28.4175554],[76.9068446,28.4171896],[76.9068415,28.4167923],[76.9068399,28.4165035],[76.9068346,28.416229],[76.9068314,28.4158277],[76.9068321,28.4155701],[76.9068277,28.4152722],[76.9068266,28.4150382],[76.906829,28.4147214],[76.9068288,28.4140893],[76.9068286,28.4136351],[76.9068235,28.413076],[76.9068262,28.4122942],[76.906831,28.4118231],[76.9068316,28.4114655],[76.9068343,28.411193],[76.9068218,28.4110742],[76.906826,28.4109206],[76.906837,28.4104439],[76.9068367,28.4102929],[76.9068376,28.4101449],[76.9068407,28.409918],[76.9068325,28.4097262],[76.9068345,28.4095506],[76.9068353,28.4093414],[76.9068316,28.4091377],[76.9068324,28.4089336],[76.9068353,28.4086979],[76.9068376,28.4083922],[76.9068419,28.4081548],[76.9068503,28.4079962],[76.9068554,28.4078021],[76.9068636,28.4076209],[76.906865,28.4074274],[76.906861,28.4072457],[76.9068611,28.407155]]},"properties":{"_s":"Type 4","_l":"Gurugram Pataudi Road to Dhorka","Road name":"Gurugram Pataudi Road to Dhorka","Type":"Type 4","Ownership":"MC Manesar","Department":"MC Manesar","Width (GIS)":"Varying from 5m to 12m","Length as per record (m)":1500.0,"GIS length (m)":1381.4,"Status":"10","FID":"188","_lng":76.9068316,"_lat":28.4114655}},{"type":"Feature","geometry":{"type":"LineString","coordinates":[[76.9434566,28.4267385],[76.9434627,28.4264748],[76.9434752,28.4262035],[76.9434801,28.4259832],[76.9434849,28.4257321],[76.9434974,28.4255598],[76.9434993,28.4253707],[76.9435019,28.4251497],[76.9435113,28.4249317],[76.9435244,28.424746],[76.9435462,28.4245468],[76.9435598,28.4243326],[76.9435808,28.4241176],[76.9435942,28.4239776],[76.9436251,28.4237801],[76.9436451,28.4236359],[76.9436651,28.423436],[76.9436814,28.423281],[76.9437045,28.4231538],[76.9437566,28.4229826]]},"properties":{"_s":"Type 4","_l":"Gurugram Pataudi Road to Dhani Saligram","Road name":"Gurugram Pataudi Road to Dhani Saligram","Type":"Type 4","Ownership":"MC Manesar","Department":"MC Manesar","Width (GIS)":"Varying from 5m to 7m","Length as per record (m)":450.0,"GIS length (m)":418.0,"Status":"11","FID":"189","_lng":76.9435462,"_lat":28.4245468}},{"type":"Feature","geometry":{"type":"LineString","coordinates":[[76.938032,28.3379249],[76.9381286,28.3378638],[76.9382756,28.337732],[76.9384232,28.3376202],[76.9386712,28.337444],[76.9387869,28.3373636],[76.9388689,28.3373207],[76.9390727,28.3372609],[76.939521,28.3371782],[76.939925,28.3371069],[76.9404392,28.3370166],[76.9406426,28.3369802],[76.941052,28.3368699],[76.9413878,28.3367755],[76.9417306,28.3366755],[76.942108,28.3365715],[76.9424092,28.3364825],[76.9427855,28.3363925],[76.9431385,28.3363095],[76.9434242,28.3362336],[76.9437083,28.3361485],[76.9439967,28.336072],[76.9442666,28.3360011],[76.9445607,28.335936],[76.9448003,28.3358908],[76.944997,28.3358482],[76.9451805,28.3357851],[76.9454202,28.3357416],[76.9456678,28.3356928],[76.9459507,28.3356264],[76.9465267,28.3354877]]},"properties":{"_s":"Type 4","_l":"DJ Road to Nainwal Road","Road name":"DJ Road to Nainwal Road","Type":"Type 4","Ownership":"MC Manesar","Department":"MC Manesar","Width (GIS)":"Varying from 5m to 12m","Length as per record (m)":1000.0,"GIS length (m)":885.0,"Status":"12","FID":"190","_lng":76.942108,"_lat":28.3365715}},{"type":"Feature","geometry":{"type":"LineString","coordinates":[[76.9699957,28.3832008],[76.9701034,28.3830394],[76.9701929,28.3829054],[76.9703311,28.3827029],[76.9704158,28.3825785],[76.9705647,28.3823513],[76.9707628,28.3820338],[76.970921,28.3817785],[76.9710918,28.3815013],[76.9712016,28.3813307],[76.9713061,28.3811883],[76.9714319,28.3810183],[76.9716062,28.3807856],[76.9717239,28.3806347],[76.9718459,28.3804758],[76.9719831,28.3802887],[76.9720566,28.3801862],[76.9721044,28.3801168],[76.9721479,28.3800522],[76.9722063,28.379976],[76.9722762,28.3798948],[76.9723556,28.3798194],[76.9724027,28.379782],[76.9724506,28.3797466],[76.9724942,28.3797136],[76.9725343,28.3796854],[76.9725912,28.3796487],[76.9726402,28.379616],[76.9727254,28.3795654],[76.972826,28.3795059],[76.9728733,28.3794799],[76.9729692,28.3794245],[76.9730336,28.3793868],[76.9730746,28.379359],[76.9731571,28.3793053],[76.9732615,28.3792315],[76.9733792,28.3791481],[76.9734804,28.3790736],[76.9735443,28.3790261],[76.9736728,28.3789295],[76.973749,28.3788704],[76.9738458,28.3787983],[76.9739734,28.3786962],[76.97406,28.3786262],[76.9741496,28.3785488],[76.9742317,28.378471],[76.9742978,28.3784009],[76.974381,28.3783137],[76.9744516,28.3782455],[76.9745349,28.3781685],[76.9746699,28.3780564],[76.9748058,28.3779467],[76.9749699,28.3778164],[76.97506,28.3777445],[76.9752255,28.3776068],[76.9753155,28.3775297],[76.9754805,28.3773839],[76.9756271,28.3772514],[76.9757896,28.3771062],[76.9759815,28.3769288],[76.9760865,28.3768378],[76.9761872,28.3767438],[76.9762614,28.3766835],[76.9764265,28.3765584],[76.9765511,28.3764715],[76.9767201,28.3763672],[76.976923,28.3762557],[76.9771379,28.3761434],[76.9773237,28.3760513],[76.9774919,28.375971],[76.9776797,28.3758712],[76.9778931,28.3757504],[76.9781031,28.3756171],[76.9782843,28.3754953],[76.9784852,28.3753565],[76.978737,28.3751891],[76.9789752,28.3750391],[76.9791764,28.3749123],[76.97931,28.3748259],[76.979418,28.3747532],[76.9795074,28.3746884],[76.9796429,28.3745818],[76.9797471,28.3744938],[76.9798265,28.3744213],[76.979905,28.3743474],[76.9799826,28.3742725],[76.980022,28.3742301],[76.9800663,28.374184],[76.980142,28.3741036],[76.9802523,28.3739875],[76.9803601,28.3738782],[76.980478,28.3737631],[76.9805653,28.3736561],[76.9806497,28.3735617],[76.9807871,28.3734176],[76.9808928,28.373313],[76.9809786,28.3732253],[76.9810946,28.3730997],[76.9812341,28.3729448],[76.9813441,28.3728161],[76.9814595,28.3726802],[76.9815345,28.3725864],[76.9816598,28.3724361],[76.9817847,28.3722883],[76.9819122,28.3721391],[76.982004,28.3720356],[76.9821365,28.3718884],[76.9822442,28.3717735],[76.982351,28.3716594],[76.982482,28.3715288],[76.9825752,28.3714541],[76.982677,28.3713831],[76.9828762,28.3712677],[76.9830615,28.3711773],[76.9831752,28.3711248],[76.9833648,28.3710241],[76.9834333,28.3709888],[76.9835385,28.3709308],[76.9837423,28.3708248],[76.98379,28.3708012],[76.9838714,28.3707605],[76.9839903,28.3706988],[76.9841278,28.3706281],[76.9842416,28.3705538],[76.9843918,28.3704687],[76.9845411,28.3703856],[76.9847621,28.3702462],[76.9849262,28.370142],[76.985059,28.3700615],[76.9852262,28.3699809],[76.9853959,28.3698864],[76.9856455,28.3697754],[76.9859159,28.3696523],[76.986086,28.3695743],[76.9862594,28.3695142],[76.9863979,28.3694669],[76.9865441,28.3694142],[76.9866796,28.3693723],[76.9867592,28.3693548],[76.9868127,28.3693459]]},"properties":{"_s":"Type 4","_l":"DJ Road to Shikohpur upto Bank Building","Road name":"DJ Road to Shikohpur upto Bank Building","Type":"Type 4","Ownership":"MC Manesar","Department":"MC Manesar","Width (GIS)":"Varying from 5.5m to 7m","Length as per record (m)":2640.0,"GIS length (m)":2294.8,"Status":"13","FID":"191","_lng":76.9776797,"_lat":28.3758712}},{"type":"Feature","geometry":{"type":"LineString","coordinates":[[76.939518,28.3986158],[76.9393676,28.3985161],[76.9392419,28.398403],[76.9391648,28.398313],[76.939084,28.3981653],[76.9390109,28.3979959],[76.9389688,28.397843],[76.938959,28.3977472],[76.9389598,28.3975941],[76.9389618,28.3973841],[76.9389661,28.3972021],[76.9389742,28.396962],[76.9389887,28.3965115],[76.9389959,28.3963642],[76.9389984,28.3960871],[76.9390018,28.3958562],[76.9390021,28.3956786],[76.9389993,28.3955239],[76.9389754,28.3953849],[76.9389323,28.3952758],[76.9388482,28.3951176],[76.9387381,28.3949289],[76.9386586,28.3948018],[76.9386029,28.3947094],[76.938551,28.394602],[76.9385093,28.3944977],[76.9384826,28.3944033],[76.9384579,28.3942722],[76.9384467,28.3941445],[76.9384439,28.3939681],[76.9384433,28.3937629],[76.9384488,28.3935746],[76.9384622,28.393355],[76.9384818,28.393108],[76.9384894,28.3928861],[76.9384781,28.3928089],[76.9384509,28.3927608],[76.9384415,28.3926859],[76.9384379,28.3925088],[76.9384396,28.3923102],[76.9384441,28.3920927],[76.9384544,28.3919217],[76.9384601,28.3917902],[76.9384669,28.3916488],[76.938469,28.3915209],[76.9384745,28.3912828],[76.9384878,28.3909618],[76.9385037,28.3906786],[76.9385049,28.3904761],[76.9385007,28.3902488],[76.9385084,28.390034],[76.9385111,28.3897881],[76.9385176,28.3895347],[76.9385221,28.3893116],[76.9385259,28.3890803],[76.9385337,28.3887516],[76.9385436,28.3884215],[76.9385637,28.388096],[76.9385746,28.3878177],[76.93858,28.3876059],[76.9385926,28.3873829],[76.9385943,28.3872217],[76.9386019,28.3870199],[76.9386116,28.3868951],[76.9386208,28.3867414],[76.9386116,28.386671],[76.9385873,28.3865825],[76.9384698,28.386456],[76.9384132,28.3864078],[76.9383389,28.3863475],[76.9382327,28.3862663],[76.9381515,28.3861541],[76.9381196,28.3860409],[76.9381043,28.3859237],[76.9381089,28.3857317],[76.9381116,28.385598],[76.9381163,28.3854113],[76.9381257,28.3852034],[76.9381361,28.385146],[76.9381524,28.3850095],[76.938153,28.384836],[76.9381622,28.3846605],[76.9381797,28.3844058],[76.9381933,28.3841719],[76.938202,28.3839482],[76.9382091,28.3837513],[76.9382167,28.3835867],[76.938236,28.383382],[76.9382455,28.3832046],[76.938262,28.3829195],[76.9382674,28.3826533],[76.938284,28.3823975],[76.9382983,28.3821782],[76.9383159,28.3818814],[76.9383304,28.3816493],[76.9383547,28.3812753],[76.9383752,28.3808843],[76.9383914,28.3805769],[76.9384132,28.3802563],[76.9384214,28.3800751],[76.9384319,28.3798823],[76.9384435,28.3796074],[76.9384591,28.379247],[76.9384751,28.3787936],[76.9384886,28.378291],[76.9385137,28.3776315],[76.9385492,28.3769773],[76.9385702,28.3764557],[76.9386072,28.3758536],[76.938618,28.3755961],[76.9386425,28.3751872],[76.9386592,28.3748769],[76.9386749,28.3743859],[76.9386927,28.3740058],[76.9387045,28.3737252],[76.9387243,28.3734243],[76.9387323,28.3731197],[76.9387386,28.3727731],[76.9387478,28.3724557],[76.9387576,28.3721446],[76.9387741,28.3717975],[76.9387883,28.3715138],[76.9388046,28.3712109],[76.9388229,28.3708594],[76.9388396,28.3705008],[76.9388571,28.3701061],[76.9388575,28.3698911],[76.9388856,28.369516],[76.9389109,28.3690969],[76.9389248,28.3686911],[76.9389499,28.3682321],[76.9389702,28.3678601],[76.9389886,28.3675117],[76.9390009,28.3673634],[76.9390156,28.3672615],[76.9390413,28.3671286],[76.9391035,28.3670148],[76.9391809,28.3669296],[76.9393031,28.3668509],[76.9394648,28.3667859],[76.9396787,28.366745],[76.9397923,28.3667366],[76.9401217,28.366745],[76.9403884,28.3667585],[76.940736,28.366765],[76.9411224,28.3667879],[76.9415894,28.3668006],[76.9419863,28.3668151],[76.9422676,28.3668265],[76.9423948,28.3668286]]},"properties":{"_s":"Type 4","_l":"DJ Road (Manesar) via Nawada and Naharpur Kasan","Road name":"DJ Road (Manesar) via Nawada and Naharpur Kasan","Type":"Type 4","Ownership":"MC Manesar","Department":"MC Manesar","Width (GIS)":"Varying from 7m to 12m","Length as per record (m)":2000.0,"GIS length (m)":3887.1,"Status":"15","FID":"192","_lng":76.9381116,"_lat":28.385598}},{"type":"Feature","geometry":{"type":"LineString","coordinates":[[76.9500323,28.4278223],[76.9501207,28.4276755],[76.9502726,28.4274887],[76.950411,28.427324],[76.9506075,28.4271025],[76.9507615,28.4269198],[76.9508948,28.4267524],[76.9510488,28.4265683],[76.95118,28.426405],[76.9512873,28.4262784],[76.9513993,28.4261359],[76.9515025,28.4260139],[76.9515766,28.4259287],[76.9516366,28.425866],[76.9516848,28.4258285],[76.9518772,28.4256639],[76.9521032,28.4254774],[76.9523105,28.4253084],[76.9525079,28.4251476],[76.952736,28.4249656],[76.952943,28.4248015],[76.9531234,28.4246566],[76.9532756,28.4245377],[76.9534682,28.4243827],[76.95367,28.4242218],[76.9538514,28.4240775],[76.9540103,28.4239489],[76.9541774,28.423815],[76.9543046,28.4237145],[76.9544576,28.4235884],[76.9545831,28.4234882],[76.9547452,28.423352],[76.9549417,28.4231883],[76.9551209,28.4230376],[76.9552841,28.4229049],[76.9554814,28.4227347],[76.9557075,28.4225352],[76.9559069,28.4223582],[76.9561018,28.4221877],[76.9562559,28.4220549],[76.9564354,28.421878],[76.9565165,28.4217989],[76.9566877,28.4216759],[76.956884,28.4215375],[76.9570441,28.4214209],[76.9571139,28.4213747]]},"properties":{"_s":"Type 4","_l":"Gurgaon Pataudi Road to Bamdoli","Road name":"Gurgaon Pataudi Road to Bamdoli","Type":"Type 4","Ownership":"MC Manesar","Department":"MC Manesar","Width (GIS)":"Varying from 10m to 18m","Length as per record (m)":1100.0,"GIS length (m)":1000.5,"Status":"16","FID":"193","_lng":76.9534682,"_lat":28.4243827}},{"type":"Feature","geometry":{"type":"MultiLineString","coordinates":[[[76.9168034,28.4215414],[76.9168255,28.4213665],[76.9168325,28.4211872],[76.9168413,28.421025],[76.9168564,28.420794],[76.9168684,28.4205436],[76.9168773,28.4203304],[76.9168811,28.420111],[76.916883,28.4198678],[76.9168842,28.419769],[76.9168975,28.419679],[76.916924,28.4195746],[76.9169777,28.4194375],[76.9170616,28.4192936],[76.917109,28.4192298],[76.9172321,28.4190915],[76.9173805,28.4189594],[76.9175301,28.4188477],[76.9176829,28.418755],[76.9178187,28.4186695],[76.9178824,28.4186267],[76.9179576,28.418574],[76.9180175,28.4185257],[76.918116,28.418439],[76.9182581,28.4183058],[76.9183086,28.4182558],[76.9183427,28.418213],[76.9183818,28.4181653],[76.9184115,28.4181031],[76.9184305,28.4180576],[76.9184355,28.4179765],[76.918426,28.4177544],[76.9184197,28.417449],[76.9184084,28.4172024],[76.9184103,28.4170719],[76.9184166,28.4168898],[76.9184159,28.4167426],[76.9184115,28.416631]],[[76.9184115,28.416631],[76.9184182,28.4164865],[76.9184189,28.4163576],[76.9184273,28.415811],[76.9184324,28.4155803],[76.9184414,28.4151301],[76.9184394,28.4149466],[76.9184343,28.414897],[76.9184041,28.4147879],[76.9183729,28.4147188],[76.9182872,28.4145273],[76.9181703,28.4142853],[76.9180241,28.4139741],[76.9179223,28.4137719],[76.9177832,28.413482],[76.9176477,28.413211],[76.9175574,28.4130302],[76.9174342,28.4128136],[76.9173456,28.4126368]],[[76.9173456,28.4126368],[76.917243,28.4124179],[76.9171665,28.4122403],[76.917137,28.412162],[76.9170894,28.4120289],[76.917027,28.4118284],[76.9169794,28.4116519],[76.9169363,28.4115058],[76.9168802,28.4113103],[76.9168427,28.4111781],[76.9167822,28.4109716],[76.9167423,28.4108251],[76.9166933,28.4107061]]]},"properties":{"_s":"Type 4","_l":"Gurgaon Pataudi Road to Meoka","Road name":"Gurgaon Pataudi Road to Meoka","Type":"Type 4","Ownership":"MC Manesar","Department":"MC Manesar","Width (GIS)":"Varying from 9m to 12m","Length as per record (m)":1500.0,"GIS length (m)":1293.2,"Status":"17","FID":"194","_lng":76.9178187,"_lat":28.4186695}},{"type":"Feature","geometry":{"type":"LineString","coordinates":[[76.9381846,28.3554278],[76.9382783,28.3555609],[76.9383347,28.355609],[76.9384451,28.3557526],[76.9385584,28.3559077],[76.9386415,28.3560231],[76.9387127,28.3561402],[76.9388099,28.3562682],[76.9388836,28.3563855],[76.9389493,28.3564868],[76.9390146,28.3565914],[76.9390997,28.3567318],[76.9391578,28.3568344],[76.9392091,28.356916],[76.9392801,28.3570172],[76.9393458,28.3571322],[76.9393986,28.3572164],[76.9394472,28.357297],[76.9395027,28.3573966],[76.9395646,28.3575179],[76.9396235,28.3576282],[76.9396846,28.3577335],[76.9397686,28.3578849],[76.9398422,28.3580176],[76.9398969,28.3581159],[76.9400067,28.358303],[76.9400758,28.3584264],[76.9401442,28.3585527],[76.9402194,28.3586854],[76.9403465,28.3589216],[76.9404385,28.3590804],[76.9405127,28.3592339],[76.9405792,28.3593984],[76.9406213,28.3595331],[76.9406581,28.3596585],[76.9406972,28.3598371],[76.940699,28.3599123],[76.9406955,28.3600559],[76.9406813,28.360271],[76.9406739,28.3605448],[76.9406694,28.3607261],[76.9406694,28.3607737],[76.9407099,28.3608574],[76.940741,28.3609543],[76.9407457,28.361006],[76.940743,28.3611022],[76.9407275,28.3612567],[76.940689,28.3613607]]},"properties":{"_s":"Type 4","_l":"Internal Road to Manesar","Road name":"Internal Road to Manesar","Type":"Type 4","Ownership":"MC Manesar","Department":"MC Manesar","Width (GIS)":"Varying from 2.5m to 4m","Length as per record (m)":750.0,"GIS length (m)":720.8,"Status":"18","FID":"195","_lng":76.9398969,"_lat":28.3581159}}]}