{"type":"FeatureCollection","features":[{"type":"Feature","geometry":{"type":"LineString","coordinates":[[76.9416424,28.4132532],[76.9402687,28.4127689],[76.9389349,28.4123137],[76.9376782,28.4118864],[76.9361558,28.4113512],[76.934961,28.4109457],[76.9328771,28.410218],[76.9316727,28.409787]]},"properties":{"_s":"Type 1","_l":"Aarvy Hospital to Shri Vardhman Society","Road name":"Aarvy Hospital to Shri Vardhman Society","Type":"Type 1","Ownership":"MC Manesar","Department":"MC Manesar","Width (GIS)":"30","Length as per record (m)":543.0,"GIS length (m)":1049.8,"Status":"6","_lng":76.9361558,"_lat":28.4113512}},{"type":"Feature","geometry":{"type":"MultiLineString","coordinates":[[[76.950881,28.3955634],[76.9505947,28.3961735],[76.9503291,28.3967377],[76.9500457,28.3973478],[76.9497832,28.3979089],[76.9495603,28.398377],[76.9493339,28.3988528],[76.9490934,28.3993658],[76.9487921,28.3999997],[76.9485243,28.4005654],[76.9482177,28.4012171],[76.9480195,28.401641],[76.947816,28.402068],[76.9475896,28.4025446],[76.9472997,28.4031606],[76.9470381,28.4037101],[76.9467852,28.4042618],[76.9464346,28.4050026],[76.9461686,28.4055714],[76.9458461,28.4062494],[76.9454867,28.4070166],[76.9451839,28.4075941],[76.9447236,28.4084246],[76.9443924,28.4090186],[76.9437386,28.4101366],[76.9429492,28.4114816],[76.9423372,28.4125227],[76.9418184,28.413427],[76.9414166,28.4141042],[76.9411057,28.4146489],[76.9406987,28.4153432],[76.9403075,28.4160095],[76.9401058,28.4163721],[76.9399398,28.4166485],[76.9397351,28.4169974],[76.9394204,28.417562],[76.9391411,28.4180495],[76.9388106,28.4186425],[76.938462,28.4192638],[76.938091,28.419917],[76.9377283,28.4205528],[76.9373904,28.4211537],[76.93695,28.4219348],[76.9366476,28.4224783],[76.936313,28.4230807],[76.9358305,28.4239933],[76.9357041,28.4242723],[76.9356174,28.4245586]],[[76.950881,28.3955634],[76.9510681,28.3951804],[76.9514077,28.3944958],[76.9517398,28.3938373],[76.9520711,28.3931795],[76.9521918,28.3929389],[76.9523124,28.392747],[76.9525801,28.3923458],[76.9528486,28.391941],[76.9531006,28.3915623],[76.9537416,28.3906098],[76.9540269,28.3901726],[76.9546013,28.3893208],[76.9550054,28.3887178],[76.9554753,28.3880046],[76.9558548,28.3874469],[76.9563402,28.3867223],[76.9567778,28.3860568],[76.9573446,28.3852084],[76.9579978,28.3842442],[76.9584767,28.3835139],[76.9587683,28.3830778],[76.9592417,28.3823763],[76.9595796,28.3818748],[76.9599646,28.3812933],[76.960253,28.38086],[76.960576,28.3803897],[76.9606479,28.3802822],[76.9606945,28.3801389],[76.9607896,28.379911],[76.9608986,28.3796556],[76.9609546,28.3795034],[76.9610186,28.3793387],[76.9610963,28.3791666]]]},"properties":{"_s":"Type 1","_l":"Rampura Chowk to Hayatpur Chowk","Road name":"Rampura Chowk to Hayatpur Chowk","Type":"Type 1","Ownership":"MC Manesar","Department":"MC Manesar","Width (GIS)":"35","Length as per record (m)":5615.0,"GIS length (m)":5626.1,"Status":"8","FID":"1","_lng":76.9437386,"_lat":28.4101366}},{"type":"Feature","geometry":{"type":"LineString","coordinates":[[76.8986643,28.4074955],[76.9008598,28.4085702],[76.901091,28.4086791],[76.9023408,28.4092082],[76.9032795,28.4096295],[76.9043724,28.4101198],[76.9056703,28.4106948],[76.9072779,28.4114164],[76.9082238,28.411871],[76.9090853,28.4122693],[76.9097196,28.4125699],[76.9103793,28.4128837],[76.911269,28.413302],[76.9120865,28.4136894],[76.9127481,28.4140071],[76.9132942,28.414262],[76.9139337,28.4145634],[76.9146068,28.4148748],[76.9154286,28.4152429],[76.9163774,28.4156411],[76.9173419,28.4160416],[76.9180625,28.4163624],[76.9185629,28.4166041],[76.9189029,28.4167715],[76.9191434,28.4168908],[76.9193997,28.4169636],[76.9198992,28.4170883],[76.9205863,28.4172518],[76.9213218,28.4174261],[76.9221666,28.4176245],[76.9229506,28.4178267],[76.923835,28.4180568],[76.9246067,28.4182567],[76.9251062,28.4183372],[76.9259042,28.4184705],[76.9268397,28.4186254],[76.9276836,28.4187649],[76.9285522,28.4189144],[76.9289777,28.4189973],[76.929678,28.4191623],[76.9305897,28.4193676],[76.9317657,28.4196489],[76.93237,28.4197914],[76.9330482,28.4199545],[76.933724,28.420107],[76.9343531,28.4202523],[76.9350041,28.420406],[76.9358286,28.4205985],[76.9367012,28.4208007],[76.9372366,28.4209278],[76.9374804,28.4209937]]},"properties":{"_s":"Type 1","_l":"Hayatpur Chowki to GD International School","Road name":"Hayatpur Chowki to GD International School","Type":"Type 1","Ownership":"MC Manesar","Department":"MC Manesar","Width (GIS)":"30","Length as per record (m)":4073.0,"GIS length (m)":4115.7,"Status":"10","FID":"2","_lng":76.9193997,"_lat":28.4169636}},{"type":"Feature","geometry":{"type":"LineString","coordinates":[[76.8946403,28.4119322],[76.8949407,28.4115502],[76.8952049,28.4112511],[76.8955027,28.4109009],[76.895819,28.4105577],[76.896203,28.41014],[76.8966083,28.4097007],[76.8969659,28.4093141],[76.8973597,28.4088949],[76.8977455,28.408485],[76.8981974,28.4079961],[76.8986132,28.4075482],[76.89877,28.4073862],[76.8989172,28.4072855],[76.8995197,28.4068826],[76.9000448,28.4065285],[76.9004967,28.4062263],[76.9011186,28.4058079],[76.9014859,28.405563],[76.9018824,28.4052918],[76.902307,28.4050113],[76.9027897,28.4046928],[76.903069,28.4045084],[76.9031764,28.4044232],[76.9035887,28.4040939],[76.9037241,28.4039935],[76.9046247,28.4033846],[76.9054648,28.4029324],[76.9058967,28.402743],[76.9061514,28.4026291],[76.9063193,28.4025468],[76.9066634,28.4023168],[76.9072856,28.4019112],[76.9080151,28.4014172],[76.9082862,28.4012368],[76.908874,28.4008554],[76.9094259,28.4004824],[76.9099091,28.400164],[76.9104349,28.3998105],[76.9110295,28.3994278],[76.9114204,28.3991603],[76.9118985,28.3988416],[76.9122984,28.3985751],[76.9128102,28.3982341],[76.9132067,28.3979683],[76.9136127,28.3976963],[76.9139264,28.3974917],[76.9142162,28.3973003],[76.914713,28.3969772],[76.9151755,28.3966672],[76.9155904,28.3963828],[76.9159974,28.396117],[76.9163921,28.3958496],[76.9167559,28.3956133],[76.9174919,28.3951101],[76.9179668,28.3947965],[76.9184747,28.3944744],[76.9192868,28.3939343]]},"properties":{"_s":"Type 1","_l":"Kankrola & Bhangrola Chowk to Wazirpur Pataudi Road","Road name":"Kankrola & Bhangrola Chowk to Wazirpur Pataudi Road","Type":"Type 1","Ownership":"MC Manesar","Department":"MC Manesar","Width (GIS)":"30","Length as per record (m)":3126.0,"GIS length (m)":3151.7,"Status":"11","FID":"3","_lng":76.9061514,"_lat":28.4026291}},{"type":"Feature","geometry":{"type":"LineString","coordinates":[[76.948891,28.429812],[76.9488443,28.4301079],[76.9487271,28.430603],[76.9485666,28.431267],[76.9483601,28.4319365],[76.9481399,28.4326859],[76.9478191,28.4337028],[76.9476222,28.4343263],[76.9475327,28.4346495],[76.9474887,28.4349425],[76.9474584,28.4353226],[76.9474584,28.436049],[76.9474556,28.4368807],[76.9474584,28.4375065],[76.9474419,28.4380465],[76.947446,28.4382196]]},"properties":{"_s":"Type 1","_l":"Adani Society to Marie Gold","Road name":"Adani Society to Marie Gold","Type":"Type 1","Ownership":"MC Manesar","Department":"MC Manesar","Width (GIS)":"30","Length as per record (m)":1122.0,"GIS length (m)":948.9,"Status":"16","FID":"4","_lng":76.9475327,"_lat":28.4346495}},{"type":"Feature","geometry":{"type":"LineString","coordinates":[[76.9780529,28.390972],[76.978272,28.3907968],[76.9784675,28.3906488],[76.9787293,28.3904587],[76.9790045,28.3902565],[76.9791793,28.3901161],[76.9792935,28.3899951],[76.9794696,28.3896634],[76.9797021,28.3892748],[76.9798521,28.3890133],[76.9799608,28.3888087],[76.9800737,28.3886381],[76.980331,28.3884843],[76.9807287,28.3882688],[76.9810603,28.3880812],[76.9812887,28.3879698],[76.9813974,28.3879287],[76.9817731,28.38785],[76.9824485,28.3877523],[76.9832367,28.3876477],[76.9842512,28.3875152],[76.9847021,28.3874556],[76.9850896,28.3874021],[76.9852613,28.3873704],[76.9854075,28.3873215],[76.9855687,28.3872479],[76.9857501,28.3871403],[76.9858998,28.3870279],[76.9861094,28.3867908],[76.98638,28.386436],[76.9866607,28.3860329],[76.9873831,28.3848465],[76.9878234,28.3840076],[76.9881688,28.3832607],[76.988261,28.3830682],[76.9883656,28.3828902],[76.988444,28.3827885],[76.9888431,28.3825282],[76.9891568,28.3823224],[76.9894953,28.3820973],[76.9902425,28.3814992],[76.9911589,28.3807498],[76.9917355,28.3802898],[76.9921428,28.3799549],[76.9926359,28.3795628],[76.9930296,28.3792862]]},"properties":{"_s":"Type 1","_l":"Kherki Daula Toll to M3M Office","Road name":"Kherki Daula Toll to M3M Office","Type":"Type 1","Ownership":"MC Manesar","Department":"MC Manesar","Width (GIS)":"35","Length as per record (m)":2069.0,"GIS length (m)":2069.4,"Status":"14","FID":"5","_lng":76.9852613,"_lat":28.3873704}},{"type":"Feature","geometry":{"type":"LineString","coordinates":[[76.9362135,28.3876567],[76.9353088,28.3872414],[76.934133,28.386716],[76.9334503,28.3864144],[76.9311992,28.3853879],[76.9304278,28.3850438],[76.9298892,28.3847988],[76.9293732,28.3845473],[76.9288198,28.3842625],[76.9278301,28.3837633],[76.9271368,28.383414],[76.9263815,28.3830349],[76.9257782,28.382729],[76.9253638,28.3825229],[76.9248932,28.3822852],[76.9241331,28.3819103],[76.9236702,28.3816795],[76.9235037,28.38159],[76.9234475,28.3815057],[76.9234339,28.3811547],[76.9234223,28.3806393],[76.9234068,28.3801451],[76.9233855,28.3798052],[76.9233871,28.3795486],[76.9225981,28.3795517],[76.9218394,28.3795635],[76.9211399,28.3795722],[76.9204778,28.3795834],[76.9199406,28.3795858],[76.9192503,28.3795982],[76.9186756,28.3796075],[76.9181827,28.3796106],[76.917675,28.3796187],[76.9171053,28.3796274],[76.9165659,28.379633],[76.9159891,28.379641],[76.9153545,28.3796491],[76.9147671,28.3796597],[76.9142397,28.3796621],[76.9137729,28.3796665],[76.9129642,28.3796752],[76.9124262,28.3796814],[76.9118776,28.3796901],[76.9112698,28.3796932],[76.9107233,28.3797025],[76.9102657,28.3797049],[76.9092778,28.3797211],[76.9089477,28.3797241],[76.9087317,28.3797269],[76.9085347,28.3797296],[76.9083435,28.3797321],[76.9081349,28.3797345],[76.9078892,28.3797372],[76.9076869,28.3797399],[76.9075018,28.3797424],[76.9072746,28.3797446],[76.9070596,28.3797455],[76.9068609,28.3797486],[76.9064598,28.379754],[76.905998,28.3797608],[76.9055868,28.3797649],[76.9053167,28.3797721]]},"properties":{"_s":"Type 1","_l":"TCI Company to Sector 8 Manesar","Road name":"TCI Company to Sector 8 Manesar","Type":"Type 1","Ownership":"MC Manesar","Department":"MC Manesar","Width (GIS)":"30","Length as per record (m)":3311.0,"GIS length (m)":3415.3,"Status":"12","FID":"6","_lng":76.9181827,"_lat":28.3796106}},{"type":"Feature","geometry":{"type":"MultiLineString","coordinates":[[[76.9727577,28.3863594],[76.9716047,28.3872844],[76.9710934,28.3876966],[76.970957,28.3878166],[76.970807,28.3879802],[76.9704716,28.3883452],[76.970205,28.3886447],[76.9699756,28.3889422],[76.9698454,28.3891009],[76.969594,28.3893598],[76.9693353,28.3896374],[76.9690986,28.3898854],[76.9687919,28.3902017],[76.968527,28.3904675],[76.9682689,28.3907452],[76.9679966,28.3910268],[76.9677261,28.3913016],[76.9674961,28.3915356],[76.9669696,28.3920806],[76.9665656,28.3924859],[76.9656537,28.3934435],[76.9651735,28.3940362],[76.9645652,28.3947756],[76.9640753,28.3953661],[76.9634307,28.3961534],[76.9626336,28.3971163],[76.9612911,28.3987197],[76.9611206,28.3989154],[76.9608484,28.3992538],[76.9605606,28.399741],[76.9603937,28.4000592],[76.9603453,28.4001485],[76.9603163,28.4002666],[76.9603078,28.4003698],[76.9603142,28.400485],[76.9603474,28.4006231],[76.9603905,28.4007377],[76.9604495,28.4008327],[76.9605371,28.4009439],[76.9607091,28.4011373],[76.9607948,28.4012459],[76.9608626,28.4013531],[76.9609265,28.4014864],[76.9609721,28.4016333],[76.9610301,28.4018424],[76.9610603,28.4019427],[76.9611178,28.4021627],[76.9611693,28.4023645],[76.9612015,28.4024939],[76.9612164,28.4025737],[76.9612277,28.4026952],[76.9612307,28.4027863],[76.9612168,28.4029166],[76.9611763,28.4032038],[76.9611252,28.4035541],[76.9610706,28.4039245],[76.961031,28.4041988],[76.9609719,28.4045026],[76.9608336,28.4047645],[76.9606997,28.4049296],[76.9605279,28.4051729],[76.9603887,28.4053658],[76.9603183,28.4054557],[76.9602531,28.4055185],[76.9601703,28.4055914],[76.960039,28.4056797],[76.9599024,28.4057711],[76.9597465,28.4058602],[76.9594831,28.4060075],[76.9592858,28.4061105],[76.9592082,28.4061423],[76.9590822,28.4061888],[76.9588118,28.4062779],[76.9583678,28.4064065],[76.9580814,28.4064809],[76.9579141,28.4065212],[76.9577916,28.4065561],[76.9576683,28.4066018],[76.9575661,28.4066468],[76.957493,28.4066762],[76.9571242,28.4067597],[76.9569562,28.4069316],[76.9567993,28.4072634],[76.9565832,28.4077985],[76.9563712,28.4083433],[76.9561399,28.4089742],[76.9558977,28.4096449],[76.9556994,28.4101849],[76.9555604,28.4105421],[76.955493,28.410668],[76.9553099,28.4109745],[76.955117,28.4112798],[76.954924,28.4115898],[76.9547663,28.411847],[76.9546871,28.4119594],[76.9546095,28.4122693],[76.9544545,28.4126598],[76.9542518,28.413148],[76.9540439,28.4136617],[76.9538087,28.4142436],[76.9535982,28.4147628],[76.9533603,28.41534],[76.9531621,28.4158274],[76.9529806,28.4162822],[76.9528132,28.4166975],[76.9526291,28.4171555],[76.952533,28.4174057],[76.9523736,28.4178334],[76.9522784,28.4180891]],[[76.9522784,28.4180891],[76.9520735,28.4186233],[76.9518969,28.4190919],[76.9517524,28.419461],[76.9515801,28.4199258],[76.9513334,28.4205754],[76.9511633,28.4210184],[76.9510232,28.4214273],[76.9508721,28.4219138],[76.9507538,28.4223305],[76.9506166,28.4227721],[76.9504809,28.423224],[76.9503356,28.4237221],[76.95014,28.4243704],[76.9500108,28.4248012],[76.9498809,28.4252344],[76.9497196,28.4257788],[76.9495503,28.42635],[76.9494306,28.4267352],[76.9494103,28.4268048]]]},"properties":{"_s":"Type 1","_l":"Vatika Flyover to Bamdoli","Road name":"Vatika Flyover to Bamdoli","Type":"Type 1","Ownership":"MC Manesar","Department":"MC Manesar","Width (GIS)":"30","Length as per record (m)":5149.0,"GIS length (m)":5290.9,"Status":"3","FID":"7","_lng":76.9611252,"_lat":28.4035541}},{"type":"Feature","geometry":{"type":"MultiLineString","coordinates":[[[76.9645669,28.4168556],[76.9638456,28.4165759],[76.9629592,28.41622],[76.961902,28.4157999],[76.9611931,28.4155202],[76.9608008,28.4153556],[76.9602926,28.4151065],[76.959816,28.4148492],[76.959468,28.4146625],[76.9589694,28.4144014],[76.9584655,28.4141341],[76.9578884,28.4138272],[76.9574101,28.4135723],[76.9567899,28.4132469],[76.9560226,28.4128339],[76.9548039,28.4121889],[76.9546483,28.4121143],[76.9543053,28.4119286],[76.9535179,28.4115094],[76.9527824,28.4111205],[76.9519923,28.4107045],[76.9511238,28.4102412],[76.9505424,28.4099344],[76.9498378,28.409561],[76.9490115,28.4091256],[76.9483492,28.4087754],[76.9474816,28.4083136],[76.946791,28.4079487],[76.9461797,28.4076295],[76.9455326,28.407292],[76.9453805,28.4072191],[76.94461,28.4067949],[76.9437705,28.4063506],[76.9428951,28.4058845],[76.9424754,28.4056715],[76.9409857,28.4049029],[76.9400932,28.4044566],[76.9394646,28.4041422],[76.9387751,28.4037976],[76.938246,28.4035322],[76.9379203,28.4033691],[76.9372518,28.403035],[76.9367016,28.4027574],[76.9360565,28.4024334],[76.9357249,28.4022635],[76.9354433,28.4021191],[76.935104,28.4019504],[76.9346448,28.401718],[76.9342381,28.4015171],[76.9338668,28.4013292],[76.9334492,28.4011193],[76.9330753,28.4009354],[76.9326699,28.4007289],[76.9322408,28.400514],[76.9318598,28.4003159],[76.9316591,28.4002172],[76.9312943,28.4000314],[76.9314723,28.3996494],[76.9316037,28.3993182],[76.9317256,28.3990107],[76.931854,28.3986788],[76.9319335,28.398474],[76.9320583,28.398146],[76.9322028,28.3977711],[76.9323714,28.397339],[76.932548,28.3968839],[76.9326961,28.3964962],[76.932783,28.3962805],[76.9329158,28.3959293],[76.9330756,28.3955172],[76.933199,28.395191],[76.9333318,28.3948457],[76.9334704,28.3944765],[76.933596,28.3941645],[76.9337529,28.393744],[76.9338659,28.3934656],[76.9340474,28.3929876],[76.9342492,28.3924789],[76.9344228,28.3920173],[76.9346381,28.3914605],[76.9349086,28.3907638],[76.935113,28.3902281],[76.9353041,28.3897284],[76.9355432,28.3891142],[76.9357884,28.388475],[76.9359496,28.3880625],[76.9359992,28.3879717],[76.9361007,28.3878106],[76.9362135,28.3876567],[76.936421,28.3873611],[76.9366261,28.3870856],[76.9369405,28.3866852],[76.9371716,28.3863946],[76.9373265,28.386198],[76.9375416,28.3859318],[76.9377419,28.3856874],[76.937885,28.3855049],[76.938025,28.3853391],[76.938348,28.3849685],[76.9386379,28.3846695],[76.9389842,28.3843364],[76.9393721,28.3839505],[76.9397516,28.3835784],[76.9400471,28.3833006],[76.9402039,28.3831143]],[[76.9402039,28.3831143],[76.9409175,28.382609],[76.9417664,28.3821161],[76.9423437,28.3818407],[76.9430335,28.3815566],[76.9440512,28.3812552],[76.9447312,28.381096],[76.9451446,28.3810336],[76.9454015,28.3810702],[76.9457464,28.3811627],[76.9474514,28.3816168]]]},"properties":{"_s":"Type 1","_l":"Ellan Mall to Sector 6 Point","Road name":"Ellan Mall to Sector 6 Point","Type":"Type 1","Ownership":"MC Manesar","Department":"MC Manesar","Width (GIS)":"30","Length as per record (m)":6941.0,"GIS length (m)":6630.7,"Status":"4","FID":"8","_lng":76.9326699,"_lat":28.4007289}},{"type":"Feature","geometry":{"type":"LineString","coordinates":[[76.9931665,28.3792043],[76.9927463,28.3785652],[76.9925479,28.3783332],[76.992099,28.3781201],[76.991643,28.3779351],[76.9912529,28.3776859],[76.9907488,28.3772455],[76.9900612,28.3765512],[76.9895802,28.376045],[76.9890779,28.3755372],[76.9887286,28.3752604],[76.9881669,28.3749819],[76.9876675,28.3748518],[76.9870916,28.374692],[76.9865274,28.3744763],[76.9859709,28.3741739],[76.9852886,28.3737425],[76.9845594,28.3732818],[76.9838538,28.3728424],[76.9834351,28.3725226],[76.9828316,28.3720271],[76.9824002,28.3715933]]},"properties":{"_s":"Type 1","_l":"M3M office to Traffic Lights","Road name":"M3M office to Traffic Lights","Type":"Type 1","Ownership":"MC Manesar","Department":"MC Manesar","Width (GIS)":"30","Length as per record (m)":1500.0,"GIS length (m)":1377.5,"Status":"7","FID":"9","_lng":76.9881669,"_lat":28.3749819}},{"type":"Feature","geometry":{"type":"MultiLineString","coordinates":[[[76.9824002,28.3715933],[76.9819146,28.3709687],[76.9814658,28.3702866],[76.9811393,28.3697419],[76.9808515,28.3692572],[76.9806611,28.3687697],[76.9804011,28.3680834],[76.9802201,28.3674135],[76.9801365,28.3667708],[76.9801025,28.3663282],[76.9800437,28.3659197],[76.9799586,28.3656011],[76.9797821,28.3653042],[76.9794541,28.3649788],[76.9790239,28.3647364],[76.9783553,28.3644845],[76.9766825,28.3640065],[76.975039,28.3635367],[76.9731155,28.3630084],[76.9706441,28.3623765],[76.9674702,28.3615758],[76.9666516,28.3613634]],[[76.9824002,28.3715933],[76.9824924,28.371686],[76.9826294,28.3718238],[76.9827237,28.3719186],[76.9828039,28.3719993],[76.9828485,28.372041],[76.9829157,28.3720961],[76.9830151,28.3721778],[76.9831494,28.372288],[76.9832941,28.3724069],[76.9835126,28.3725818],[76.9838067,28.3728064],[76.9838621,28.3728476],[76.9839286,28.372889],[76.9841143,28.3730046],[76.984389,28.3731757],[76.9847458,28.3733996],[76.9849162,28.3735072],[76.9851688,28.3736668],[76.9854466,28.3738424],[76.9857554,28.3740376],[76.9858399,28.3740911],[76.9859125,28.374137],[76.9859837,28.3741808],[76.9860682,28.3742268],[76.986212,28.3743049],[76.986359,28.3743848],[76.9864512,28.374435],[76.9865274,28.3744763],[76.9866527,28.3745243],[76.9868205,28.3745884],[76.987015,28.3746628],[76.9870916,28.374692],[76.9871981,28.3747216],[76.9875307,28.3748138],[76.9877647,28.3748771],[76.9879011,28.3749127],[76.9880281,28.3749458],[76.9881334,28.3749732],[76.9881669,28.3749819],[76.988196,28.3749963],[76.988348,28.3750717],[76.9885418,28.3751678],[76.9887204,28.3752564],[76.9887286,28.3752604],[76.988758,28.3752837],[76.9888645,28.3753681],[76.9889922,28.3754693],[76.9890605,28.3755234],[76.9890763,28.3755359],[76.9890864,28.3755458],[76.9891143,28.375574],[76.9892166,28.3756774],[76.9894834,28.3759472],[76.9898096,28.3762865],[76.9900539,28.3765436],[76.9902207,28.3767123],[76.9904662,28.3769603],[76.9906112,28.3771066],[76.9907488,28.3772455],[76.9908423,28.3773272],[76.99098,28.3774476],[76.9911583,28.3776033],[76.9912529,28.3776859],[76.9914479,28.3778105],[76.991643,28.3779351],[76.9919161,28.3780459],[76.9920637,28.3781058],[76.9921484,28.3781435],[76.9923683,28.3782479],[76.9925479,28.3783332],[76.9926957,28.378506],[76.9927463,28.3785652],[76.9928216,28.3786798],[76.9929154,28.3788223],[76.9930508,28.3790283],[76.9931665,28.3792043]]]},"properties":{"_s":"Type 1","_l":"M3M office to NSG (Naurangpur)","Road name":"M3M office to NSG (Naurangpur)","Type":"Type 1","Ownership":"MC Manesar","Department":"MC Manesar","Width (GIS)":"30","Length as per record (m)":3500.0,"GIS length (m)":3499.8,"Status":"15","FID":"10","_lng":76.9881334,"_lat":28.3749732}},{"type":"Feature","geometry":{"type":"LineString","coordinates":[[76.9729827,28.405242],[76.9722166,28.4048648],[76.9712213,28.4043693],[76.9695765,28.4035512],[76.9683511,28.4029512],[76.9672791,28.4024178],[76.9658256,28.4016958],[76.965154,28.4013676],[76.9640747,28.4008268],[76.9629985,28.4002952],[76.9623227,28.399967],[76.9613705,28.3994946],[76.9604509,28.3990277],[76.9597352,28.3986616],[76.9593768,28.3985368],[76.9586727,28.3983528],[76.9581987,28.3982169],[76.9577594,28.3980607],[76.9566632,28.3976761],[76.9545181,28.3968687],[76.9539203,28.3966694],[76.9529268,28.3963039],[76.9519005,28.3959269],[76.9512732,28.3957001],[76.9508897,28.3955456],[76.9505087,28.39535],[76.9501283,28.3951476],[76.9494998,28.394812],[76.949113,28.3946335],[76.9484667,28.3942591],[76.9477268,28.3938634],[76.9465749,28.3932504],[76.9455923,28.3927206],[76.9442554,28.3920023],[76.9436795,28.3917009],[76.9430531,28.3913458],[76.9420473,28.3907883],[76.9413075,28.3903935],[76.9406611,28.3900579],[76.940061,28.3897334],[76.9382581,28.3887742],[76.9374452,28.3883262],[76.9365581,28.3878297],[76.9362135,28.3876567]]},"properties":{"_s":"Type 1","_l":"Sihi Village to Naharpur Kasan Road","Road name":"Sihi Village to Naharpur Kasan Road","Type":"Type 1","Ownership":"MC Manesar","Department":"MC Manesar","Width (GIS)":"Varying from 5m to 30m","Length as per record (m)":4383.0,"GIS length (m)":4106.3,"Status":"9","FID":"11","_lng":76.9519005,"_lat":28.3959269}},{"type":"Feature","geometry":{"type":"LineString","coordinates":[[76.9251166,28.418339],[76.9251702,28.4178222],[76.9252089,28.4173751],[76.9252609,28.4168191],[76.925289,28.4164727],[76.925302,28.4162497],[76.92529,28.4160664],[76.9252128,28.4158311],[76.9251196,28.4155879],[76.9250295,28.4153534],[76.924977,28.4150482],[76.9250115,28.4144561],[76.9251164,28.4138047],[76.9252009,28.4133489],[76.9252777,28.4130996],[76.9253873,28.4128614],[76.9255391,28.4126177],[76.9257646,28.4123629],[76.9259744,28.4122527],[76.9261325,28.4121646],[76.92643,28.411841],[76.9265709,28.4116757],[76.9266414,28.4113535],[76.9267948,28.4108068],[76.9269044,28.4103743],[76.9270547,28.4097973],[76.9272677,28.4092299],[76.9274446,28.4088512],[76.9275636,28.4085524],[76.9278329,28.4079451],[76.9281022,28.4073226],[76.9283214,28.4068406],[76.9287003,28.4059578],[76.929062,28.4051136],[76.9294847,28.4041578],[76.9298933,28.4032502],[76.9305089,28.4018515],[76.9307216,28.4014089],[76.9308938,28.4009874],[76.9309909,28.4007891],[76.931113,28.4005136],[76.9312943,28.4000314],[76.9313514,28.3999089],[76.9314723,28.3996494],[76.9316037,28.3993182],[76.9317256,28.3990107],[76.931854,28.3986788],[76.9319335,28.398474],[76.9320583,28.398146],[76.9322028,28.3977711],[76.9323714,28.397339],[76.932548,28.3968839],[76.9326961,28.3964962],[76.932783,28.3962805],[76.9329158,28.3959293],[76.9330756,28.3955172],[76.933199,28.395191],[76.9333318,28.3948457],[76.9334704,28.3944765],[76.933596,28.3941645],[76.9337529,28.393744],[76.9338659,28.3934656],[76.9340474,28.3929876],[76.9342492,28.3924789],[76.9344228,28.3920173],[76.9346381,28.3914605],[76.9349086,28.3907638],[76.935113,28.3902281],[76.9353041,28.3897284],[76.9355432,28.3891142],[76.9357884,28.388475],[76.9359496,28.3880625],[76.9359992,28.3879717],[76.9361007,28.3878106],[76.9362135,28.3876567],[76.936421,28.3873611],[76.9366261,28.3870856],[76.9369405,28.3866852],[76.9371716,28.3863946],[76.9373265,28.386198],[76.9375416,28.3859318],[76.9377419,28.3856874],[76.937885,28.3855049],[76.938025,28.3853391],[76.9388111,28.384503]]},"properties":{"_s":"Type 1","_l":"Dharam kata Nearby Yaduvanshi School to Minda Company","Road name":"Dharam kata Nearby Yaduvanshi School to Minda Company","Type":"Type 1","Ownership":"MC Manesar","Department":"MC Manesar","Width (GIS)":"30","Length as per record (m)":4354.0,"GIS length (m)":4055.8,"Status":"5","FID":"12","_lng":76.9313514,"_lat":28.3999089}},{"type":"Feature","geometry":{"type":"LineString","coordinates":[[76.9103689,28.3998549],[76.9102219,28.3999536],[76.9099253,28.4001531],[76.9096179,28.4003559],[76.9093555,28.40053],[76.9091665,28.4006577],[76.9089599,28.4007973],[76.9087819,28.4009151],[76.9085639,28.4010566],[76.908398,28.4011643],[76.9081789,28.4013082],[76.9080032,28.4014252],[76.9079557,28.4014574],[76.9078641,28.4015194],[76.9077502,28.4015965],[76.9074461,28.4018025],[76.9070284,28.4020788],[76.9067207,28.4022794],[76.9063517,28.4025251],[76.9062736,28.4025692],[76.9060543,28.4026725],[76.9056426,28.4028544],[76.9054648,28.4029324],[76.9051821,28.4030845],[76.9048541,28.4032611],[76.9046247,28.4033846],[76.9044292,28.4035168],[76.9041311,28.4037183],[76.9038893,28.4038818],[76.9036993,28.4040119],[76.9032911,28.4043316],[76.9031038,28.4044808],[76.9030018,28.4045528],[76.9028285,28.4046672],[76.90264,28.4047916],[76.9024243,28.4049339],[76.9022078,28.4050768],[76.9019194,28.4052674],[76.9010694,28.405841],[76.900227,28.4064066],[76.8997044,28.4067581],[76.8993426,28.4070011],[76.8990893,28.4071704],[76.8988668,28.40732],[76.8987744,28.4073832],[76.8987335,28.407424],[76.8986521,28.4075081]]},"properties":{"_s":"Type 1","_l":"Yaduvanshi Farm House to Near Pari International School","Road name":"Yaduvanshi Farm House to Near Pari International School","Type":"Type 1","Ownership":"MC Manesar","Department":"MC Manesar","Width (GIS)":"30","Length as per record (m)":2000.0,"GIS length (m)":1430.0,"Status":"13","FID":"13","_lng":76.9051821,"_lat":28.4030845}}]}