{"type":"FeatureCollection","features":[{"type":"Feature","geometry":{"type":"MultiLineString","coordinates":[[[76.8800751,28.3789427],[76.8808824,28.378937],[76.8823786,28.3789192]],[[76.883535,28.3789108],[76.883448,28.3789123],[76.8823786,28.3789192]]]},"properties":{"_s":"Type 3","_l":"151","Road name":"151","Type":"Type 3","Road category":"etc","Ownership":"HSIIDC","Width (m)":15,"Carriageway (m)":15,"GIS length (m)":339.1,"Start point":"p 477","End point":"p 490","Status":"P","MLA constituency":"gurugram","Vidhan Sabha":"bhadshapur","PWD circle":"Gurugram","PWD division":"gurugram","District":"05","Road temp ID":"151","Temp road no.":"10809","Data source":"NEW Survey","Created on":"2025-04-21","Last edited on":"2025-05-14","FID":"15","_lng":76.8808824,"_lat":28.378937}},{"type":"Feature","geometry":{"type":"LineString","coordinates":[[76.9234589,28.3691619],[76.9256802,28.3691361],[76.9277173,28.3691124]]},"properties":{"_s":"Type 3","_l":"HSIIDC IMT Manesar Sec5151","Road name":"HSIIDC IMT Manesar Sec5151","Type":"Type 3","Ownership":"HSIIDC","Width (m)":15,"Carriageway (m)":9,"GIS length (m)":417.5,"Start point":"1","End point":"2","Status":"P","MLA constituency":"Gurugram","PWD circle":"Gurugram","PWD division":"Manesar","District":"05","Road temp ID":"Sec5151","Temp road no.":"9992","Data source":"NEW Survey","Created on":"2025-04-20","Last edited on":"2025-05-14","FID":"16","_lng":76.9256802,"_lat":28.3691361}},{"type":"Feature","geometry":{"type":"LineString","coordinates":[[76.921305,28.3781499],[76.9271009,28.3780827]]},"properties":{"_s":"Type 3","_l":"HSIIDC IMT Manesar Sec6155","Road name":"HSIIDC IMT Manesar Sec6155","Type":"Type 3","Ownership":"HSIIDC","Width (m)":15,"Carriageway (m)":9,"GIS length (m)":568.2,"Start point":"1","End point":"2","Status":"P","MLA constituency":"gurugram","Vidhan Sabha":"Badshahpur","PWD circle":"Gurugram","PWD division":"Manesar","District":"05","Road temp ID":"Sec6155","Temp road no.":"10022","Data source":"NEW Survey","Created on":"2025-04-20","Last edited on":"2025-05-14","FID":"17","_lng":76.9271009,"_lat":28.3780827}},{"type":"Feature","geometry":{"type":"LineString","coordinates":[[76.9256582,28.3691364],[76.9256567,28.3691038],[76.9256268,28.3671954]]},"properties":{"_s":"Type 3","_l":"HSIIDC IMT Manesar Sec5153","Road name":"HSIIDC IMT Manesar Sec5153","Type":"Type 3","Ownership":"HSIIDC","Width (m)":15,"Carriageway (m)":9,"GIS length (m)":215.1,"Start point":"1","End point":"2","Status":"P","MLA constituency":"Gurugram","PWD circle":"Gurugram","PWD division":"Manesar","District":"05","Road temp ID":"Sec5153","Temp road no.":"9995","Data source":"NEW Survey","Created on":"2025-04-20","Last edited on":"2025-05-14","FID":"18","_lng":76.9256567,"_lat":28.3691038}},{"type":"Feature","geometry":{"type":"LineString","coordinates":[[76.921284,28.3766077],[76.9212146,28.3724753],[76.9212127,28.3724068]]},"properties":{"_s":"Type 3","_l":"HSIIDC IMT Manesar Sec6302","Road name":"HSIIDC IMT Manesar Sec6302","Type":"Type 3","Ownership":"HSIIDC","Width (m)":30,"Carriageway (m)":12,"GIS length (m)":465.6,"Start point":"1","End point":"2","Status":"P","MLA constituency":"Gurugram","Vidhan Sabha":"Badshahpur","PWD circle":"Gurugram","PWD division":"Manesar","District":"05","Road temp ID":"sec6302","Temp road no.":"10019","Data source":"NEW Survey","Created on":"2025-04-20","Last edited on":"2025-05-14","FID":"19","_lng":76.9212146,"_lat":28.3724753}},{"type":"Feature","geometry":{"type":"LineString","coordinates":[[76.8964693,28.375909],[76.8788472,28.3762011]]},"properties":{"_s":"Type 3","_l":"302","Road name":"302","Type":"Type 3","Road category":"etc","Ownership":"HSIIDC","Width (m)":30,"Carriageway (m)":30,"GIS length (m)":1727.6,"Start point":"sec 08","End point":"sec 08","MLA constituency":"gurugram","Vidhan Sabha":"bhadshapur","PWD circle":"Gurugram","PWD division":"gurugram","District":"05","Road temp ID":"302","Temp road no.":"10246","Data source":"NEW Survey","Created on":"2025-04-21","Last edited on":"2025-05-14","FID":"20","_lng":76.8788472,"_lat":28.3762011}},{"type":"Feature","geometry":{"type":"LineString","coordinates":[[76.9256429,28.3682198],[76.9298726,28.3681612]]},"properties":{"_s":"Type 3","_l":"HSIIDC IMT Manesar Sec5155","Road name":"HSIIDC IMT Manesar Sec5155","Type":"Type 3","Ownership":"HSIIDC","Width (m)":15,"Carriageway (m)":9,"GIS length (m)":414.7,"Start point":"1","End point":"2","Status":"P","MLA constituency":"Gurugram","Vidhan Sabha":"Badshahpur","PWD circle":"Gurugram","PWD division":"Manesar","District":"05","Road temp ID":"Sec5155","Temp road no.":"9999","Data source":"NEW Survey","Created on":"2025-04-20","Last edited on":"2025-05-14","FID":"21","_lng":76.9298726,"_lat":28.3681612}},{"type":"Feature","geometry":{"type":"LineString","coordinates":[[76.9245092,28.3771671],[76.9244766,28.3751308]]},"properties":{"_s":"Type 3","_l":"HSIIDC IMT Manesar Sec61510","Road name":"HSIIDC IMT Manesar Sec61510","Type":"Type 3","Ownership":"HSIIDC","Width (m)":15,"Carriageway (m)":9,"GIS length (m)":225.7,"Start point":"1","End point":"2","Status":"P","MLA constituency":"Gurugram","Vidhan Sabha":"Badshahpur","PWD circle":"Gurugram","PWD division":"Manesar","District":"05","Road temp ID":"sec61510","Temp road no.":"10031","Data source":"NEW Survey","Created on":"2025-04-20","Last edited on":"2025-05-14","FID":"22","_lng":76.9244766,"_lat":28.3751308}},{"type":"Feature","geometry":{"type":"LineString","coordinates":[[76.9048731,28.3724733],[76.9195205,28.3722852]]},"properties":{"_s":"Type 3","_l":"sec 07 601","Road name":"sec 07 601","Type":"Type 3","Road category":"ODR","Ownership":"HSIIDC","Width (m)":60,"Carriageway (m)":60,"GIS length (m)":1436.0,"Start point":"sec 7 601","End point":"road sec 7 601","Status":"P","MLA constituency":"gurugram","Vidhan Sabha":"bhadshapur","PWD circle":"Gurugram","PWD division":"Manesar","District":"05","Road temp ID":"sec 07 601","Temp road no.":"10133","DLP from":"01.03.2021","DLP to":"31.08.2026","Date":"28.02.2016","Data source":"NEW Survey","Created on":"2025-04-21","Last edited on":"2025-05-14","FID":"23","_lng":76.9195205,"_lat":28.3722852}},{"type":"Feature","geometry":{"type":"LineString","coordinates":[[76.9049668,28.3797849],[76.9196684,28.3795879]]},"properties":{"_s":"Type 3","_l":"sec 7 602","Road name":"sec 7 602","Type":"Type 3","Road category":"ODR","Ownership":"HSIIDC","Width (m)":60,"Carriageway (m)":60,"GIS length (m)":1441.2,"Start point":"sec 07","End point":"sec 07","Status":"P","MLA constituency":"gurugram","Vidhan Sabha":"bhadshapur","PWD circle":"Gurugram","PWD division":"gurugram","District":"05","Road temp ID":"602","Temp road no.":"10159","DLP from":"01.03.2021","DLP to":"31.08.2026","Date":"28.02.2016","Data source":"NEW Survey","Created on":"2025-04-21","Last edited on":"2025-05-14","FID":"24","_lng":76.9196684,"_lat":28.3795879}},{"type":"Feature","geometry":{"type":"LineString","coordinates":[[76.8818908,28.3760448],[76.8818475,28.373305]]},"properties":{"_s":"Type 3","_l":"157","Road name":"157","Type":"Type 3","Road category":"etc","Ownership":"HSIIDC","Width (m)":15,"Carriageway (m)":15,"GIS length (m)":303.7,"Start point":"p 318","End point":"p 250","Status":"P","MLA constituency":"gurugram","Vidhan Sabha":"bhadshapur","PWD circle":"Gurugram","PWD division":"gurugram","District":"05","Road temp ID":"157","Temp road no.":"10818","Data source":"NEW Survey","Created on":"2025-04-21","Last edited on":"2025-05-14","FID":"25","_lng":76.8818475,"_lat":28.373305}},{"type":"Feature","geometry":{"type":"LineString","coordinates":[[76.9172257,28.372418],[76.9173501,28.3795251]]},"properties":{"_s":"Type 3","_l":"Hsiidc Imt Manesar Sec7301","Road name":"Hsiidc Imt Manesar Sec7301","Type":"Type 3","Ownership":"HSIIDC","Width (m)":30,"Carriageway (m)":12,"GIS length (m)":787.8,"Start point":"1","End point":"2","Status":"P","MLA constituency":"Gurugram","Vidhan Sabha":"Badshahpur","PWD circle":"Gurugram","PWD division":"Manesar","District":"05","Road temp ID":"Sec7301","Temp road no.":"10077","Data source":"NEW Survey","Created on":"2025-04-21","Last edited on":"2025-05-14","FID":"26","_lng":76.9173501,"_lat":28.3795251}},{"type":"Feature","geometry":{"type":"LineString","coordinates":[[76.8788258,28.38012],[76.8788228,28.3798859],[76.8786531,28.3694916]]},"properties":{"_s":"Type 3","_l":"602","Road name":"602","Type":"Type 3","Road category":"etc","Ownership":"HSIIDC","Width (m)":60,"Carriageway (m)":60,"GIS length (m)":1178.1,"Start point":"plot 624","End point":"Maruti gate 04","Status":"P","MLA constituency":"gurugram","Vidhan Sabha":"bhadshapur","PWD circle":"Gurugram","PWD division":"gurugram","District":"05","Road temp ID":"602","Temp road no.":"10236","Data source":"NEW Survey","Created on":"2025-04-21","Last edited on":"2025-05-14","FID":"27","_lng":76.8788228,"_lat":28.3798859}},{"type":"Feature","geometry":{"type":"LineString","coordinates":[[76.8918176,28.3799127],[76.8918003,28.3759399]]},"properties":{"_s":"Type 3","_l":"306","Road name":"306","Type":"Type 3","Road category":"etc","Ownership":"HSIIDC","Width (m)":30,"Carriageway (m)":30,"GIS length (m)":440.3,"Start point":"424","End point":"446a","Status":"P","MLA constituency":"gurugram","Vidhan Sabha":"bhadshapur","PWD circle":"Gurugram","PWD division":"gurugram","District":"05","Road temp ID":"406","Temp road no.":"10506","Data source":"NEW Survey","Created on":"2025-04-21","Last edited on":"2025-05-14","FID":"28","_lng":76.8918003,"_lat":28.3759399}},{"type":"Feature","geometry":{"type":"LineString","coordinates":[[76.9296941,28.3741275],[76.9212441,28.3742325]]},"properties":{"_s":"Type 3","_l":"HSIIDC IMT Manesar Sec6151","Road name":"HSIIDC IMT Manesar Sec6151","Type":"Type 3","Ownership":"HSIIDC","Width (m)":15,"Carriageway (m)":9,"GIS length (m)":828.4,"Start point":"1","End point":"2","Status":"P","MLA constituency":"Gurugram","Vidhan Sabha":"Badshahpur","PWD circle":"Gurugram","PWD division":"Manesar","District":"05","Road temp ID":"Sec6151","Temp road no.":"10024","Data source":"NEW Survey","Created on":"2025-04-20","Last edited on":"2025-05-14","FID":"29","_lng":76.9212441,"_lat":28.3742325}},{"type":"Feature","geometry":{"type":"LineString","coordinates":[[76.9277017,28.3701037],[76.9276753,28.368238]]},"properties":{"_s":"Type 3","_l":"HSIIDC IMT Manesar Sec5154","Road name":"HSIIDC IMT Manesar Sec5154","Type":"Type 3","Ownership":"HSIIDC","Width (m)":15,"Carriageway (m)":9,"GIS length (m)":206.8,"Start point":"1","End point":"2","Status":"P","MLA constituency":"Gurugram","Vidhan Sabha":"Badshahpur","PWD circle":"Gurugram","PWD division":"Manesar","District":"05","Road temp ID":"Sec5154","Temp road no.":"9997","Data source":"NEW Survey","Created on":"2025-04-20","Last edited on":"2025-05-14","FID":"30","_lng":76.9276753,"_lat":28.368238}},{"type":"Feature","geometry":{"type":"LineString","coordinates":[[76.9198316,28.3766129],[76.921284,28.3766077]]},"properties":{"_s":"Type 3","_l":"HSIIDC IMT Manesar Sec6303","Road name":"HSIIDC IMT Manesar Sec6303","Type":"Type 3","Ownership":"HSIIDC","Width (m)":30,"Carriageway (m)":12,"GIS length (m)":142.4,"Start point":"1","End point":"2","Status":"P","MLA constituency":"Gurugram","Vidhan Sabha":"Badshahpur","PWD circle":"Gurugram","PWD division":"Manesar","District":"05","Road temp ID":"Sec6303","Temp road no.":"10020","Data source":"NEW Survey","Created on":"2025-04-20","Last edited on":"2025-05-14","FID":"31","_lng":76.921284,"_lat":28.3766077}},{"type":"Feature","geometry":{"type":"LineString","coordinates":[[76.9338916,28.372111],[76.9298,28.3721614],[76.9195205,28.3722852]]},"properties":{"_s":"Type 3","_l":"HSIIDC IMT Manesar Sec6601","Road name":"HSIIDC IMT Manesar Sec6601","Type":"Type 3","Ownership":"HSIIDC","Width (m)":60,"Carriageway (m)":60,"GIS length (m)":1408.9,"Start point":"1","End point":"2","Status":"P","MLA constituency":"Gurugram","Vidhan Sabha":"Badshahpur","PWD circle":"Gurugram","PWD division":"Manesar","District":"05","Road temp ID":"Sec6601","Temp road no.":"10005","Data source":"NEW Survey","Created on":"2025-04-20","Last edited on":"2025-05-14","FID":"32","_lng":76.9298,"_lat":28.3721614}},{"type":"Feature","geometry":{"type":"LineString","coordinates":[[76.8892089,28.3798562],[76.8891457,28.3760307]]},"properties":{"_s":"Type 3","_l":"309","Road name":"309","Type":"Type 3","Road category":"etc","Ownership":"HSIIDC","Width (m)":30,"Carriageway (m)":30,"GIS length (m)":424.0,"Start point":"407","End point":"446I","Status":"P","MLA constituency":"gurugram","Vidhan Sabha":"bhadshapur","PWD circle":"Gurugram","PWD division":"gurugram","District":"05","Road temp ID":"309","Temp road no.":"10510","Data source":"NEW Survey","Created on":"2025-04-21","Last edited on":"2025-05-14","FID":"33","_lng":76.8891457,"_lat":28.3760307}},{"type":"Feature","geometry":{"type":"LineString","coordinates":[[76.9049668,28.3797849],[76.8789012,28.3801194]]},"properties":{"_s":"Type 3","_l":"sec 08 601","Road name":"sec 08 601","Type":"Type 3","Road category":"ODR","Ownership":"HSIIDC","Width (m)":60,"Carriageway (m)":60,"GIS length (m)":2555.1,"Start point":"sec 08 601","End point":"sec 08 601","Status":"P","MLA constituency":"gurugram","Vidhan Sabha":"bhadshapur","PWD circle":"Gurugram","PWD division":"gurugram","District":"05","UR ID":"gurugram","Road temp ID":"sec 601","Temp road no.":"10216","DLP from":"01.03.2021","DLP to":"31.08.2026","Date":"28.02.2016","Data source":"NEW Survey","Created on":"2025-04-21","Last edited on":"2025-05-14","FID":"34","_lng":76.8789012,"_lat":28.3801194}},{"type":"Feature","geometry":{"type":"LineString","coordinates":[[76.9340678,28.3721088],[76.9321082,28.372134],[76.9199357,28.3722779],[76.9195205,28.3722852]]},"properties":{"_s":"Type 3","_l":"HSIIDC-IMT-Manesar-sec5601","Road name":"HSIIDC-IMT-Manesar-sec5601","Type":"Type 3","Ownership":"HSIIDC","Width (m)":60,"Carriageway (m)":60,"GIS length (m)":1426.1,"Start point":"1","End point":"1","Status":"P","MLA constituency":"Gurugram","Vidhan Sabha":"Badshahpur","PWD circle":"Gurugram","PWD division":"manesar","District":"05","Road temp ID":"sec5601","Temp road no.":"9965","Data source":"NEW Survey","Created on":"2025-04-20","Last edited on":"2025-05-14","FID":"35","_lng":76.9199357,"_lat":28.3722779}},{"type":"Feature","geometry":{"type":"LineString","coordinates":[[76.883309,28.3743621],[76.8832614,28.372607]]},"properties":{"_s":"Type 3","_l":"159","Road name":"159","Type":"Type 3","Road category":"etc","Ownership":"HSIIDC","Width (m)":15,"Carriageway (m)":15,"GIS length (m)":194.6,"Start point":"p 224","End point":"utillity","Status":"P","MLA constituency":"gurugram","Vidhan Sabha":"bhadshapur","PWD circle":"Gurugram","PWD division":"gurugram","District":"05","Road temp ID":"159","Temp road no.":"10825","Data source":"NEW Survey","Created on":"2025-04-21","Last edited on":"2025-05-14","FID":"36","_lng":76.8832614,"_lat":28.372607}},{"type":"Feature","geometry":{"type":"LineString","coordinates":[[76.8963926,28.3692496],[76.8965553,28.3798823]]},"properties":{"_s":"Type 3","_l":"604","Road name":"604","Type":"Type 3","Ownership":"HSIIDC","Width (m)":60,"Carriageway (m)":60,"GIS length (m)":1178.5,"Start point":"Maruti gate 3 corner","End point":"plot 496","Status":"P","MLA constituency":"gurugram","Vidhan Sabha":"bhadshapur","PWD circle":"Gurugram","PWD division":"gurugram","District":"05","Road temp ID":"604","Temp road no.":"10244","Data source":"NEW Survey","Created on":"2025-04-21","Last edited on":"2025-05-14","FID":"37","_lng":76.8965553,"_lat":28.3798823}},{"type":"Feature","geometry":{"type":"LineString","coordinates":[[76.9338758,28.3671054],[76.921917,28.3672357]]},"properties":{"_s":"Type 3","_l":"HSIIDC-IMT-MANESAR-Sec5303","Road name":"HSIIDC-IMT-MANESAR-Sec5303","Type":"Type 3","Ownership":"HSIIDC","Width (m)":30,"Carriageway (m)":12,"GIS length (m)":1172.4,"Start point":"1","End point":"2","Status":"P","MLA constituency":"Gurugram","Vidhan Sabha":"Badshahpur","PWD circle":"Gurugram","PWD division":"Manesar","District":"05","Road temp ID":"Sec5303","Temp road no.":"9976","Data source":"NEW Survey","Created on":"2025-04-20","Last edited on":"2025-05-14","FID":"38","_lng":76.921917,"_lat":28.3672357}},{"type":"Feature","geometry":{"type":"LineString","coordinates":[[76.9224436,28.3771943],[76.9224065,28.3751577]]},"properties":{"_s":"Type 3","_l":"HSIIDC IMT Manesar Sec61512","Road name":"HSIIDC IMT Manesar Sec61512","Type":"Type 3","Ownership":"HSIIDC","Width (m)":15,"Carriageway (m)":9,"GIS length (m)":225.8,"Start point":"1","End point":"2","Status":"P","MLA constituency":"Gurugram","Vidhan Sabha":"Badshahpur","PWD circle":"Gurugram","PWD division":"Manesar","District":"05","Road temp ID":"Sec61512","Temp road no.":"10025","Data source":"NEW Survey","Created on":"2025-04-20","Last edited on":"2025-05-14","FID":"39","_lng":76.9224065,"_lat":28.3751577}},{"type":"Feature","geometry":{"type":"LineString","coordinates":[[76.9048731,28.3724733],[76.9049668,28.3797849]]},"properties":{"_s":"Type 3","_l":"sec 07 603","Road name":"sec 07 603","Type":"Type 3","Road category":"ODR","Ownership":"HSIIDC","Width (m)":60,"Carriageway (m)":60,"GIS length (m)":810.4,"Start point":"sec 07","Status":"P","MLA constituency":"gurugram","Vidhan Sabha":"bhadshapur","PWD circle":"Gurugram","PWD division":"gurugram","District":"05","Road temp ID":"603","Temp road no.":"10196","DLP from":"01.03.2021","DLP to":"31.08.2026","Date":"28.02.2016","Data source":"NEW Survey","Created on":"2025-04-21","Last edited on":"2025-05-14","FID":"40","_lng":76.9049668,"_lat":28.3797849}},{"type":"Feature","geometry":{"type":"LineString","coordinates":[[76.9219513,28.3702275],[76.9338786,28.3700969]]},"properties":{"_s":"Type 3","_l":"HSIIDC-IMT-MANESAR-Sec5305","Road name":"HSIIDC-IMT-MANESAR-Sec5305","Type":"Type 3","Ownership":"HSIIDC","Width (m)":30,"Carriageway (m)":12,"GIS length (m)":1169.3,"Start point":"1","End point":"2","Status":"P","MLA constituency":"Gurugram","Vidhan Sabha":"Badshahpur","PWD circle":"Gurugram","PWD division":"Manesar","District":"05","Road temp ID":"Sec5305","Temp road no.":"9986","Data source":"NEW Survey","Created on":"2025-04-20","Last edited on":"2025-05-14","FID":"41","_lng":76.9338786,"_lat":28.3700969}},{"type":"Feature","geometry":{"type":"LineString","coordinates":[[76.9266453,28.3770016],[76.9266144,28.3751695]]},"properties":{"_s":"Type 3","_l":"HSIIDC IMT Manesar Sec6158","Road name":"HSIIDC IMT Manesar Sec6158","Type":"Type 3","Ownership":"HSIIDC","Width (m)":15,"Carriageway (m)":9,"GIS length (m)":203.1,"Start point":"1","End point":"2","Status":"P","MLA constituency":"Gurugram","Vidhan Sabha":"Badshahpur","PWD circle":"Gurugram","PWD division":"Manesar","District":"05","Road temp ID":"Sec6158","Temp road no.":"10034","Data source":"NEW Survey","Created on":"2025-04-20","Last edited on":"2025-05-14","FID":"42","_lng":76.9266144,"_lat":28.3751695}},{"type":"Feature","geometry":{"type":"LineString","coordinates":[[76.8810615,28.3761983],[76.8808924,28.3692772]]},"properties":{"_s":"Type 3","_l":"303","Road name":"303","Type":"Type 3","Ownership":"HSIIDC","Width (m)":30,"Carriageway (m)":30,"GIS length (m)":767.2,"Start point":"318","End point":"97","Status":"P","MLA constituency":"gurugram","Vidhan Sabha":"bhadshapur","PWD circle":"Gurugram","PWD division":"gurugram","District":"05","Road temp ID":"303","Temp road no.":"10501","Data source":"NEW Survey","Created on":"2025-04-21","Last edited on":"2025-05-14","FID":"43","_lng":76.8808924,"_lat":28.3692772}},{"type":"Feature","geometry":{"type":"LineString","coordinates":[[76.8834832,28.3761244],[76.883535,28.3789155],[76.8835644,28.3800606]]},"properties":{"_s":"Type 3","_l":"305","Road name":"305","Type":"Type 3","Road category":"etc","Ownership":"HSIIDC","Width (m)":30,"Carriageway (m)":30,"GIS length (m)":436.3,"Start point":"plot 424","End point":"446A","Status":"P","MLA constituency":"gurugram","PWD circle":"Gurugram","PWD division":"gurugram","District":"05","Road temp ID":"305","Temp road no.":"10504","Data source":"NEW Survey","Created on":"2025-04-21","Last edited on":"2025-05-14","FID":"44","_lng":76.883535,"_lat":28.3789155}},{"type":"Feature","geometry":{"type":"LineString","coordinates":[[76.880991,28.3733146],[76.8832796,28.3732788]]},"properties":{"_s":"Type 3","_l":"1510","Road name":"1510","Type":"Type 3","Road category":"etc","Ownership":"HSIIDC","Width (m)":15,"Carriageway (m)":15,"GIS length (m)":224.4,"Start point":"p 237","End point":"p 249","Status":"P","MLA constituency":"gurugram","Vidhan Sabha":"bhadshapur","PWD circle":"Gurugram","PWD division":"gurugram","District":"05","Road temp ID":"15","Temp road no.":"10826","Data source":"NEW Survey","Created on":"2025-04-21","Last edited on":"2025-05-14","FID":"45","_lng":76.8832796,"_lat":28.3732788}},{"type":"Feature","geometry":{"type":"LineString","coordinates":[[76.9235133,28.3771798],[76.9245092,28.3771671]]},"properties":{"_s":"Type 3","_l":"HSIIDC IMT Manesar Sec6157","Road name":"HSIIDC IMT Manesar Sec6157","Type":"Type 3","Ownership":"HSIIDC","Width (m)":15,"Carriageway (m)":9,"GIS length (m)":97.6,"Start point":"1","End point":"2","Status":"P","MLA constituency":"Gurugram","Vidhan Sabha":"Badshahpur","PWD circle":"Gurugram","PWD division":"Manesar","District":"05","Road temp ID":"Sec6157","Temp road no.":"10029","Data source":"NEW Survey","Created on":"2025-04-20","Last edited on":"2025-05-14","FID":"46","_lng":76.9245092,"_lat":28.3771671}},{"type":"Feature","geometry":{"type":"LineString","coordinates":[[76.9255751,28.3771534],[76.9255425,28.3751243]]},"properties":{"_s":"Type 3","_l":"HSIIDC IMT Manesar Sec6159","Road name":"HSIIDC IMT Manesar Sec6159","Type":"Type 3","Ownership":"HSIIDC","Width (m)":15,"Carriageway (m)":9,"GIS length (m)":224.9,"Start point":"1","End point":"2","Status":"P","MLA constituency":"Gurugram","Vidhan Sabha":"Badshahpur","PWD circle":"Gurugram","PWD division":"Manesar","District":"05","Road temp ID":"Sec6159","Temp road no.":"10032","Data source":"NEW Survey","Created on":"2025-04-20","Last edited on":"2025-05-14","FID":"47","_lng":76.9255425,"_lat":28.3751243}},{"type":"Feature","geometry":{"type":"LineString","coordinates":[[76.8800892,28.3801036],[76.8800419,28.3761813]]},"properties":{"_s":"Type 3","_l":"153","Road name":"153","Type":"Type 3","Road category":"etc","Ownership":"HSIIDC","Width (m)":15,"Carriageway (m)":15,"GIS length (m)":434.7,"Start point":"plot 563","End point":"plot 579","Status":"P","MLA constituency":"gurugram","Vidhan Sabha":"bhadshapur","PWD circle":"Gurugram","PWD division":"gurugram","District":"05","Road temp ID":"153","Temp road no.":"10669","Data source":"NEW Survey","Created on":"2025-04-21","Last edited on":"2025-05-14","FID":"48","_lng":76.8800419,"_lat":28.3761813}},{"type":"Feature","geometry":{"type":"LineString","coordinates":[[76.9235133,28.3771798],[76.9234743,28.3751202]]},"properties":{"_s":"Type 3","_l":"HSIIDC IMT Manesar Sec61511","Road name":"HSIIDC IMT Manesar Sec61511","Type":"Type 3","Ownership":"HSIIDC","Width (m)":15,"Carriageway (m)":9,"GIS length (m)":228.3,"Start point":"1","End point":"2","Status":"P","MLA constituency":"Gurugram","Vidhan Sabha":"Badshahpur","PWD circle":"Gurugram","PWD division":"Manesar","District":"05","Road temp ID":"Sec61511","Temp road no.":"10030","Data source":"NEW Survey","Created on":"2025-04-20","Last edited on":"2025-05-14","FID":"49","_lng":76.9234743,"_lat":28.3751202}},{"type":"Feature","geometry":{"type":"LineString","coordinates":[[76.9451056,28.3662206],[76.9445726,28.3662333],[76.9441182,28.3662414],[76.9434009,28.3662548],[76.9433134,28.3662668],[76.9432441,28.366319],[76.9431351,28.3665837],[76.9430503,28.3668156],[76.9429338,28.366888]]},"properties":{"_s":"Type 3","_l":"","Type":"Type 3","Width (m)":30,"GIS length (m)":257.0,"FID":"50"}},{"type":"Feature","geometry":{"type":"LineString","coordinates":[[76.9509585,28.3685186],[76.9491514,28.3685439],[76.9475072,28.3685689],[76.9468966,28.3685745],[76.9459973,28.3685888],[76.945249,28.3685971],[76.9451454,28.3685987]]},"properties":{"_s":"Type 3","_l":"","Type":"Type 3","Width (m)":30,"GIS length (m)":569.9,"FID":"51"}},{"type":"Feature","geometry":{"type":"LineString","coordinates":[[76.9523836,28.3620807],[76.9520915,28.3620833],[76.9515283,28.36209],[76.9508838,28.3620982],[76.9506355,28.3621025],[76.9474434,28.3621406],[76.9466204,28.3621507],[76.9458501,28.362165],[76.9451808,28.3621716],[76.9447538,28.3621744],[76.9441316,28.3621874],[76.9417142,28.3622189],[76.941056,28.3622359]]},"properties":{"_s":"Type 3","_l":"","Type":"Type 3","Width (m)":30,"GIS length (m)":1110.7,"FID":"52"}},{"type":"Feature","geometry":{"type":"LineString","coordinates":[[76.9450436,28.362172],[76.9450484,28.3625523],[76.9450677,28.3633544],[76.9450774,28.3643885],[76.945081,28.3647707],[76.9451043,28.3661422],[76.9451439,28.368526],[76.9451682,28.3697552]]},"properties":{"_s":"Type 3","_l":"","Type":"Type 3","Width (m)":30,"GIS length (m)":840.5,"FID":"53"}},{"type":"Feature","geometry":{"type":"LineString","coordinates":[[76.9508453,28.3620989],[76.9508487,28.3624234],[76.9508537,28.3627927],[76.9508619,28.3633873],[76.9508963,28.3649887],[76.9509035,28.3653982],[76.9509314,28.3671397],[76.9509585,28.3685186]]},"properties":{"_s":"Type 3","_l":"","Type":"Type 3","Width (m)":30,"GIS length (m)":711.6,"FID":"54"}},{"type":"Feature","geometry":{"type":"LineString","coordinates":[[76.9517576,28.3662783],[76.9517428,28.3652191],[76.9516882,28.3621828]]},"properties":{"_s":"Type 3","_l":"","Type":"Type 3","Width (m)":15,"GIS length (m)":454.0,"FID":"55"}},{"type":"Feature","geometry":{"type":"LineString","coordinates":[[76.9481966,28.3672204],[76.9488329,28.3672173],[76.9493243,28.3672167],[76.9500038,28.3672058],[76.9507887,28.3671933]]},"properties":{"_s":"Type 3","_l":"","Type":"Type 3","Width (m)":15,"GIS length (m)":254.1,"FID":"56"}},{"type":"Feature","geometry":{"type":"MultiLineString","coordinates":[[[76.9481966,28.3672204],[76.94818,28.366111],[76.9481548,28.3641414]],[[76.9482054,28.3678114],[76.9481966,28.3672204]]]},"properties":{"_s":"Type 3","_l":"","Type":"Type 3","Width (m)":15,"GIS length (m)":406.8,"FID":"57"}},{"type":"Feature","geometry":{"type":"LineString","coordinates":[[76.9481548,28.3641414],[76.9484797,28.3641371],[76.9487686,28.364135],[76.9495535,28.3641233],[76.9501381,28.364109]]},"properties":{"_s":"Type 3","_l":"","Type":"Type 3","Width (m)":15,"GIS length (m)":194.5,"FID":"58"}},{"type":"Feature","geometry":{"type":"LineString","coordinates":[[76.9481768,28.3658983],[76.9495653,28.3658851],[76.9508957,28.3658694]]},"properties":{"_s":"Type 3","_l":"","Type":"Type 3","Width (m)":15,"GIS length (m)":266.6,"FID":"59"}},{"type":"Feature","geometry":{"type":"LineString","coordinates":[[76.9508957,28.3658694],[76.950911,28.3658688]]},"properties":{"_s":"Type 3","_l":"","Type":"Type 3","Width (m)":15,"GIS length (m)":1.5,"FID":"60"}},{"type":"Feature","geometry":{"type":"LineString","coordinates":[[76.9481686,28.3652215],[76.9491037,28.3652117],[76.9502584,28.3651984],[76.9508999,28.3651939]]},"properties":{"_s":"Type 3","_l":"","Type":"Type 3","Width (m)":15,"GIS length (m)":267.8,"FID":"61"}},{"type":"Feature","geometry":{"type":"LineString","coordinates":[[76.9487604,28.364135],[76.9487734,28.3646236],[76.9487883,28.365215]]},"properties":{"_s":"Type 3","_l":"","Type":"Type 3","Width (m)":15,"GIS length (m)":119.7,"FID":"62"}},{"type":"Feature","geometry":{"type":"LineString","coordinates":[[76.9495395,28.3641235],[76.9495394,28.3643113],[76.9495421,28.3652067]]},"properties":{"_s":"Type 3","_l":"","Type":"Type 3","Width (m)":15,"GIS length (m)":120.0,"FID":"63"}},{"type":"Feature","geometry":{"type":"LineString","coordinates":[[76.9501381,28.364109],[76.950138,28.3644164],[76.9501456,28.3648312],[76.9501509,28.3651997]]},"properties":{"_s":"Type 3","_l":"","Type":"Type 3","Width (m)":15,"GIS length (m)":120.9,"FID":"64"}},{"type":"Feature","geometry":{"type":"LineString","coordinates":[[76.9487961,28.3658924],[76.9488106,28.366474],[76.9488134,28.3671099],[76.9488153,28.3672174]]},"properties":{"_s":"Type 3","_l":"","Type":"Type 3","Width (m)":15,"GIS length (m)":146.9,"FID":"65"}},{"type":"Feature","geometry":{"type":"LineString","coordinates":[[76.9495757,28.3672126],[76.9495651,28.3664943],[76.9495653,28.3658851]]},"properties":{"_s":"Type 3","_l":"","Type":"Type 3","Width (m)":15,"GIS length (m)":147.1,"FID":"66"}},{"type":"Feature","geometry":{"type":"LineString","coordinates":[[76.9501723,28.3658779],[76.9501782,28.3664088],[76.9501911,28.3672028]]},"properties":{"_s":"Type 3","_l":"","Type":"Type 3","Width (m)":15,"GIS length (m)":146.9,"FID":"67"}},{"type":"Feature","geometry":{"type":"LineString","coordinates":[[76.945205,28.3653258],[76.9457969,28.3653159],[76.9473197,28.3653026]]},"properties":{"_s":"Type 3","_l":"","Type":"Type 3","Width (m)":15,"GIS length (m)":207.3,"FID":"68"}},{"type":"Feature","geometry":{"type":"LineString","coordinates":[[76.946591,28.3658023],[76.9466,28.3663897],[76.9466057,28.3667972]]},"properties":{"_s":"Type 3","_l":"","Type":"Type 3","Width (m)":15,"GIS length (m)":110.3,"FID":"69"}},{"type":"Feature","geometry":{"type":"LineString","coordinates":[[76.9452366,28.365818],[76.9460216,28.3658105],[76.946591,28.3658023]]},"properties":{"_s":"Type 3","_l":"","Type":"Type 3","Width (m)":15,"GIS length (m)":132.8,"FID":"70"}},{"type":"Feature","geometry":{"type":"LineString","coordinates":[[76.9460006,28.3658107],[76.946005,28.3661795],[76.9460101,28.3666108],[76.9459952,28.3671991]]},"properties":{"_s":"Type 3","_l":"","Type":"Type 3","Width (m)":15,"GIS length (m)":153.9,"FID":"71"}},{"type":"Feature","geometry":{"type":"LineString","coordinates":[[76.9481801,28.3661136],[76.9481056,28.3661142],[76.9478797,28.3661213],[76.9476881,28.3661245],[76.9474763,28.3661292],[76.9474611,28.3661297]]},"properties":{"_s":"Type 3","_l":"","Type":"Type 3","Width (m)":15,"GIS length (m)":70.5,"FID":"72"}},{"type":"Feature","geometry":{"type":"LineString","coordinates":[[76.9522469,28.3650384],[76.9517421,28.3650474]]},"properties":{"_s":"Type 3","_l":"","Type":"Type 3","Width (m)":15,"GIS length (m)":49.5,"FID":"73"}},{"type":"Feature","geometry":{"type":"MultiLineString","coordinates":[[[76.9522469,28.3650384],[76.9521996,28.3645995]],[[76.9522688,28.3654371],[76.9522503,28.3650383],[76.9522469,28.3650384]]]},"properties":{"_s":"Type 3","_l":"","Type":"Type 3","Width (m)":15,"GIS length (m)":93.4,"FID":"74"}},{"type":"Feature","geometry":{"type":"LineString","coordinates":[[76.9517107,28.3637382],[76.9523571,28.3637216]]},"properties":{"_s":"Type 3","_l":"","Type":"Type 3","Width (m)":15,"GIS length (m)":63.4,"FID":"75"}},{"type":"Feature","geometry":{"type":"LineString","coordinates":[[76.9521083,28.363728],[76.9521127,28.3633962]]},"properties":{"_s":"Type 3","_l":"","Type":"Type 3","Width (m)":15,"GIS length (m)":36.8,"FID":"76"}},{"type":"Feature","geometry":{"type":"LineString","coordinates":[[76.9523729,28.3633888],[76.9521127,28.3633962],[76.95171,28.3633974]]},"properties":{"_s":"Type 3","_l":"","Type":"Type 3","Width (m)":15,"GIS length (m)":65.0,"FID":"77"}},{"type":"Feature","geometry":{"type":"LineString","coordinates":[[76.9517051,28.3631209],[76.9523742,28.3631184]]},"properties":{"_s":"Type 3","_l":"","Type":"Type 3","Width (m)":15,"GIS length (m)":65.6,"FID":"78"}},{"type":"Feature","geometry":{"type":"LineString","coordinates":[[76.9517,28.362838],[76.9523778,28.3628412]]},"properties":{"_s":"Type 3","_l":"","Type":"Type 3","Width (m)":15,"GIS length (m)":66.5,"FID":"79"}},{"type":"Feature","geometry":{"type":"LineString","coordinates":[[76.9428789,28.3647073],[76.9427996,28.3645787],[76.9423676,28.3635633],[76.9421176,28.3629797],[76.9420971,28.3629208],[76.9420865,28.3628907],[76.9420803,28.3628638],[76.9420782,28.3628546],[76.9420632,28.3627801],[76.9420322,28.362318]]},"properties":{"_s":"Type 3","_l":"","Type":"Type 3","Width (m)":12,"GIS length (m)":279.7,"FID":"80"}},{"type":"Feature","geometry":{"type":"LineString","coordinates":[[76.9420803,28.3628638],[76.9421766,28.3628614],[76.9428621,28.3628468],[76.9428955,28.3628461],[76.9436709,28.3628375],[76.9436774,28.3628374],[76.9442861,28.3628214],[76.9443007,28.362821],[76.9443062,28.3628211]]},"properties":{"_s":"Type 3","_l":"","Type":"Type 3","Width (m)":12,"GIS length (m)":218.3,"FID":"81"}},{"type":"Feature","geometry":{"type":"LineString","coordinates":[[76.943358,28.3640318],[76.9434919,28.3640311],[76.943729,28.3640288],[76.9437521,28.3640286],[76.9440986,28.3640252],[76.9443309,28.3640229]]},"properties":{"_s":"Type 3","_l":"","Type":"Type 3","Width (m)":12,"GIS length (m)":95.4,"FID":"82"}},{"type":"Feature","geometry":{"type":"LineString","coordinates":[[76.943729,28.3640288],[76.9437267,28.3640024],[76.9437068,28.3637662],[76.9436974,28.3635045],[76.9436833,28.3631087],[76.9436721,28.3628629],[76.9436709,28.3628375]]},"properties":{"_s":"Type 3","_l":"","Type":"Type 3","Width (m)":12,"GIS length (m)":132.2,"FID":"83"}},{"type":"Feature","geometry":{"type":"LineString","coordinates":[[76.9474745,28.3678257],[76.9482054,28.3678095],[76.9482393,28.3678087],[76.9497873,28.3677916],[76.9508036,28.3677847]]},"properties":{"_s":"Type 3","_l":"","Type":"Type 3","Width (m)":12,"GIS length (m)":326.4,"FID":"84"}},{"type":"Feature","geometry":{"type":"LineString","coordinates":[[76.9474066,28.3635622],[76.9479873,28.3635568],[76.9489041,28.3635481],[76.9498723,28.3635377],[76.9501714,28.3635322],[76.9507445,28.3635217]]},"properties":{"_s":"Type 3","_l":"","Type":"Type 3","Width (m)":12,"GIS length (m)":327.3,"FID":"85"}},{"type":"Feature","geometry":{"type":"LineString","coordinates":[[76.947335,28.3622501],[76.9473387,28.3625626],[76.9473548,28.3632285],[76.9473742,28.3653033],[76.9474267,28.3685697]]},"properties":{"_s":"Type 3","_l":"","Type":"Type 3","Width (m)":18,"GIS length (m)":700.5,"FID":"86"}},{"type":"Feature","geometry":{"type":"LineString","coordinates":[[76.951315,28.3637189],[76.9509822,28.3637244]]},"properties":{"_s":"Type 3","_l":"","Type":"Type 3","Width (m)":15,"GIS length (m)":32.6,"FID":"87"}},{"type":"Feature","geometry":{"type":"LineString","coordinates":[[76.9341638,28.3698999],[76.9361623,28.3698725],[76.9388105,28.3698407],[76.9389235,28.3698396],[76.9400555,28.3698266],[76.9401234,28.3698266],[76.9411049,28.3698142],[76.9436188,28.369782]]},"properties":{"_s":"Type 3","_l":"","Type":"Type 3","Width (m)":60,"GIS length (m)":926.9,"FID":"88"}},{"type":"Feature","geometry":{"type":"LineString","coordinates":[[76.9340139,28.3618394],[76.9341077,28.3618387],[76.9349323,28.3618301],[76.9350275,28.3618288],[76.9374201,28.3618009],[76.9394892,28.3617751],[76.9395173,28.3617737],[76.9395386,28.3617707],[76.9395718,28.361759],[76.9400172,28.3616135]]},"properties":{"_s":"Type 3","_l":"","Type":"Type 3","Width (m)":60,"GIS length (m)":591.8,"FID":"89"}},{"type":"Feature","geometry":{"type":"LineString","coordinates":[[76.9341055,28.3663222],[76.9350297,28.3663154],[76.9353954,28.3663157],[76.9357839,28.3663502],[76.9365857,28.3663457],[76.937672,28.3663356],[76.9382572,28.3663184],[76.9384045,28.3663137]]},"properties":{"_s":"Type 3","_l":"","Type":"Type 3","Width (m)":15,"GIS length (m)":421.7,"FID":"90"}},{"type":"Feature","geometry":{"type":"LineString","coordinates":[[76.9385081,28.3620667],[76.9385112,28.3622697],[76.9385184,28.3629037],[76.9385703,28.3659448],[76.9385747,28.3660321],[76.9386247,28.3662066],[76.938637,28.3662379],[76.9386819,28.366337],[76.9387483,28.3664855],[76.9387744,28.3665904],[76.9387959,28.3667691],[76.9388094,28.3670129],[76.9388072,28.3673548],[76.938796,28.3678428],[76.9387775,28.3682599],[76.9387732,28.3686706],[76.9387522,28.3692103],[76.9387287,28.3695458],[76.9387207,28.3696754]]},"properties":{"_s":"Type 3","_l":"","Type":"Type 3","Width (m)":30,"GIS length (m)":846.8,"FID":"91"}},{"type":"Feature","geometry":{"type":"LineString","coordinates":[[76.9047475,28.365179],[76.9047294,28.3649255],[76.9047117,28.3638002],[76.9046889,28.362652],[76.9046714,28.3612278],[76.9046564,28.3606329]]},"properties":{"_s":"Type 3","_l":"","Type":"Type 3","Width (m)":30,"GIS length (m)":504.0,"FID":"92"}},{"type":"Feature","geometry":{"type":"LineString","coordinates":[[76.9254698,28.3647569],[76.9254669,28.3639023],[76.9254595,28.3630352],[76.9254443,28.3621537],[76.9254211,28.3607933],[76.9254217,28.3606332]]},"properties":{"_s":"Type 3","_l":"","Type":"Type 3","Width (m)":30,"GIS length (m)":457.1,"FID":"93"}},{"type":"Feature","geometry":{"type":"LineString","coordinates":[[76.9174429,28.3650083],[76.9174286,28.3645142],[76.917381,28.3617509],[76.9173765,28.361537],[76.9173688,28.3614246]]},"properties":{"_s":"Type 3","_l":"","Type":"Type 3","Width (m)":30,"GIS length (m)":397.3,"FID":"94"}},{"type":"Feature","geometry":{"type":"LineString","coordinates":[[76.9173688,28.3614246],[76.9173048,28.3614181],[76.9172414,28.3614138],[76.9170069,28.3614171],[76.9159003,28.3614327],[76.9134094,28.3614658],[76.9132106,28.3614847],[76.9130203,28.361499],[76.9126849,28.3615011],[76.911941,28.361509],[76.910815,28.3615237],[76.909849,28.3615388],[76.9078436,28.3615594],[76.9067702,28.3615743],[76.9064232,28.3615791]]},"properties":{"_s":"Type 3","_l":"","Type":"Type 3","Width (m)":15,"GIS length (m)":1073.4,"FID":"95"}},{"type":"Feature","geometry":{"type":"LineString","coordinates":[[76.9072716,28.3625845],[76.908196,28.3625706],[76.9093894,28.3625541],[76.9111022,28.3625361],[76.9120288,28.3625216]]},"properties":{"_s":"Type 3","_l":"","Type":"Type 3","Width (m)":15,"GIS length (m)":466.4,"FID":"96"}},{"type":"Feature","geometry":{"type":"LineString","coordinates":[[76.9132361,28.3614844],[76.913249,28.3615735],[76.913256,28.3620667],[76.9132659,28.3629352],[76.9132809,28.3635634],[76.9132968,28.3648283]]},"properties":{"_s":"Type 3","_l":"","Type":"Type 3","Width (m)":15,"GIS length (m)":370.7,"FID":"97"}},{"type":"Feature","geometry":{"type":"LineString","coordinates":[[76.9120288,28.3625216],[76.9120812,28.3625202],[76.9120879,28.3629245],[76.9120997,28.3635866]]},"properties":{"_s":"Type 3","_l":"","Type":"Type 3","Width (m)":15,"GIS length (m)":123.3,"FID":"98"}},{"type":"Feature","geometry":{"type":"LineString","coordinates":[[76.9061713,28.3636597],[76.9065919,28.3636572],[76.9081973,28.3636372],[76.9101177,28.3636087],[76.9120997,28.3635866],[76.913281,28.3635708]]},"properties":{"_s":"Type 3","_l":"","Type":"Type 3","Width (m)":15,"GIS length (m)":697.0,"FID":"99"}},{"type":"Feature","geometry":{"type":"LineString","coordinates":[[76.9064232,28.3615791],[76.9061286,28.3615832]]},"properties":{"_s":"Type 3","_l":"","Type":"Type 3","Width (m)":15,"GIS length (m)":28.9,"FID":"100"}},{"type":"Feature","geometry":{"type":"LineString","coordinates":[[76.9048731,28.3724733],[76.9048559,28.3722149],[76.9048372,28.3710432],[76.9048274,28.3702758],[76.9047971,28.3686591],[76.9047596,28.3659288],[76.9047537,28.3657661],[76.9047527,28.365627],[76.9047472,28.3653033]]},"properties":{"_s":"Type 3","_l":"","Type":"Type 3","Width (m)":60,"GIS length (m)":794.8,"FID":"101"}},{"type":"Feature","geometry":{"type":"LineString","coordinates":[[76.907289,28.3724416],[76.9072891,28.3722688],[76.9072303,28.3688497]]},"properties":{"_s":"Type 3","_l":"","Type":"Type 3","Width (m)":60,"GIS length (m)":398.1,"FID":"102"}},{"type":"Feature","geometry":{"type":"LineString","coordinates":[[76.9049109,28.3688282],[76.9049845,28.3688283],[76.9095245,28.3687677]]},"properties":{"_s":"Type 3","_l":"","Type":"Type 3","Width (m)":30,"GIS length (m)":452.3,"FID":"103"}},{"type":"Feature","geometry":{"type":"LineString","coordinates":[[76.9094709,28.365242],[76.9095043,28.3674079],[76.9095123,28.3678306],[76.9095245,28.3687677],[76.9095754,28.3722896]]},"properties":{"_s":"Type 3","_l":"","Type":"Type 3","Width (m)":30,"GIS length (m)":781.1,"FID":"104"}},{"type":"Feature","geometry":{"type":"LineString","coordinates":[[76.9095478,28.3703773],[76.9097833,28.3703764],[76.9193257,28.3702717]]},"properties":{"_s":"Type 3","_l":"","Type":"Type 3","Width (m)":30,"GIS length (m)":958.6,"FID":"105"}},{"type":"Feature","geometry":{"type":"LineString","coordinates":[[76.9170766,28.3673151],[76.9167588,28.3673163],[76.9098576,28.3673996],[76.9095043,28.3674079]]},"properties":{"_s":"Type 3","_l":"","Type":"Type 3","Width (m)":30,"GIS length (m)":742.4,"FID":"106"}},{"type":"Feature","geometry":{"type":"LineString","coordinates":[[76.9110033,28.3703013],[76.9109997,28.3702756],[76.910955,28.3673864]]},"properties":{"_s":"Type 3","_l":"","Type":"Type 3","Width (m)":15,"GIS length (m)":323.1,"FID":"107"}},{"type":"Feature","geometry":{"type":"LineString","coordinates":[[76.9109854,28.3693491],[76.9111495,28.3693536],[76.9114457,28.3693402],[76.9118329,28.3693349],[76.9148142,28.3693061]]},"properties":{"_s":"Type 3","_l":"","Type":"Type 3","Width (m)":15,"GIS length (m)":375.4,"FID":"108"}},{"type":"Feature","geometry":{"type":"LineString","coordinates":[[76.9147973,28.3683574],[76.9148142,28.3693061],[76.9148295,28.3702663]]},"properties":{"_s":"Type 3","_l":"","Type":"Type 3","Width (m)":15,"GIS length (m)":211.6,"FID":"109"}},{"type":"Feature","geometry":{"type":"MultiLineString","coordinates":[[[76.9120423,28.3683851],[76.9122637,28.3683872],[76.9130157,28.3683798],[76.9145635,28.3683587],[76.9147973,28.3683574]],[[76.9147973,28.3683574],[76.9158678,28.3683428]]]},"properties":{"_s":"Type 3","_l":"","Type":"Type 3","Width (m)":15,"GIS length (m)":375.0,"FID":"110"}},{"type":"Feature","geometry":{"type":"LineString","coordinates":[[76.9338746,28.3605354],[76.9334908,28.360533],[76.9320857,28.360548],[76.9297174,28.3605852],[76.9272852,28.360612],[76.9254217,28.3606332],[76.9254216,28.3604895],[76.9250604,28.3604869],[76.9243946,28.3604901],[76.923555,28.3604941],[76.9227087,28.3604981],[76.9220904,28.3605011],[76.9215806,28.3605035],[76.9212465,28.3605051],[76.9202248,28.36051],[76.9186936,28.3605172],[76.9172097,28.3605382],[76.9165899,28.3605513],[76.9159466,28.3605532],[76.9154717,28.3605656],[76.9147375,28.3605717],[76.9139718,28.3605724],[76.913088,28.3605877],[76.9124745,28.3605885],[76.9116593,28.3606141],[76.9110233,28.3606231],[76.910658,28.360633],[76.909214,28.3606477],[76.9078169,28.3606401],[76.9072316,28.3606496],[76.9067514,28.3606531],[76.9061883,28.3606596],[76.9046564,28.3606329]]},"properties":{"_s":"Type 3","_l":"","Type":"Type 3","Width (m)":30,"GIS length (m)":2880.7,"FID":"111"}},{"type":"Feature","geometry":{"type":"LineString","coordinates":[[76.9234324,28.3672615],[76.9234335,28.3675859],[76.9234343,28.3677834],[76.9234589,28.3691619],[76.923479,28.3701661]]},"properties":{"_s":"Type 3","_l":"","Type":"Type 3","Width (m)":15,"GIS length (m)":322.0,"FID":"112"}},{"type":"Feature","geometry":{"type":"LineString","coordinates":[[76.9298726,28.3681612],[76.9298986,28.3701406]]},"properties":{"_s":"Type 3","_l":"","Type":"Type 3","Width (m)":15,"GIS length (m)":219.4,"FID":"113"}},{"type":"Feature","geometry":{"type":"LineString","coordinates":[[76.9309691,28.3701289],[76.9309691,28.3699763],[76.930966,28.3696125],[76.9309521,28.3687826],[76.9309432,28.3683555]]},"properties":{"_s":"Type 3","_l":"","Type":"Type 3","Width (m)":15,"GIS length (m)":196.6,"FID":"114"}},{"type":"Feature","geometry":{"type":"MultiLineString","coordinates":[[[76.9319638,28.3683362],[76.9322177,28.3683364],[76.9326361,28.368333],[76.9338559,28.3683232]],[[76.9298754,28.3683725],[76.9302075,28.3683644],[76.9305217,28.3683634],[76.9309432,28.3683555],[76.9319638,28.3683362]]]},"properties":{"_s":"Type 3","_l":"","Type":"Type 3","Width (m)":15,"GIS length (m)":390.3,"FID":"115"}},{"type":"Feature","geometry":{"type":"LineString","coordinates":[[76.92988,28.3687285],[76.9302683,28.3687262],[76.9309508,28.3687214],[76.9315888,28.3687027],[76.9317323,28.3687015],[76.9319655,28.3686966]]},"properties":{"_s":"Type 3","_l":"","Type":"Type 3","Width (m)":15,"GIS length (m)":204.5,"FID":"116"}},{"type":"Feature","geometry":{"type":"LineString","coordinates":[[76.921284,28.3766077],[76.9213038,28.3779878],[76.9213202,28.3794912]]},"properties":{"_s":"Type 3","_l":"","Type":"Type 3","Width (m)":15,"GIS length (m)":319.6,"FID":"117"}},{"type":"Feature","geometry":{"type":"MultiLineString","coordinates":[[[76.9255594,28.3751225],[76.9290058,28.3750762]],[[76.92126,28.375177],[76.9244766,28.3751308],[76.9255425,28.3751243]]]},"properties":{"_s":"Type 3","_l":"","Type":"Type 3","Width (m)":15,"GIS length (m)":757.7,"FID":"118"}},{"type":"Feature","geometry":{"type":"LineString","coordinates":[[76.9095858,28.3725424],[76.9095852,28.372842],[76.909624,28.3749562],[76.9096288,28.3753374],[76.9096808,28.3783661],[76.909703,28.3796056]]},"properties":{"_s":"Type 3","_l":"","Type":"Type 3","Width (m)":30,"GIS length (m)":782.9,"FID":"119"}},{"type":"Feature","geometry":{"type":"LineString","coordinates":[[76.9097548,28.3783647],[76.9168765,28.3782766]]},"properties":{"_s":"Type 3","_l":"","Type":"Type 3","Width (m)":30,"GIS length (m)":698.1,"FID":"120"}},{"type":"Feature","geometry":{"type":"LineString","coordinates":[[76.9097844,28.3749999],[76.9111177,28.3749605],[76.9134291,28.3749402],[76.9134627,28.3749396],[76.9136651,28.3749363],[76.913689,28.3749359],[76.9171515,28.3748882]]},"properties":{"_s":"Type 3","_l":"","Type":"Type 3","Width (m)":30,"GIS length (m)":722.3,"FID":"121"}},{"type":"Feature","geometry":{"type":"LineString","coordinates":[[76.9107313,28.3726496],[76.9107294,28.3730193],[76.9107698,28.3749247]]},"properties":{"_s":"Type 3","_l":"","Type":"Type 3","Width (m)":15,"GIS length (m)":252.2,"FID":"122"}},{"type":"Feature","geometry":{"type":"LineString","coordinates":[[76.9115047,28.3738071],[76.9115422,28.3749097]]},"properties":{"_s":"Type 3","_l":"","Type":"Type 3","Width (m)":15,"GIS length (m)":122.3,"FID":"123"}},{"type":"Feature","geometry":{"type":"LineString","coordinates":[[76.9111644,28.3750676],[76.9111756,28.3763541],[76.9111843,28.3770913],[76.9112048,28.3781239],[76.9112052,28.3782615]]},"properties":{"_s":"Type 3","_l":"","Type":"Type 3","Width (m)":15,"GIS length (m)":354.0,"FID":"124"}},{"type":"Feature","geometry":{"type":"LineString","coordinates":[[76.9120294,28.376921],[76.9120296,28.3770051],[76.9120347,28.3773186],[76.9120517,28.3783363]]},"properties":{"_s":"Type 3","_l":"","Type":"Type 3","Width (m)":15,"GIS length (m)":156.9,"FID":"125"}},{"type":"Feature","geometry":{"type":"LineString","coordinates":[[76.9120393,28.3775942],[76.9122861,28.3775949],[76.9164878,28.3775413]]},"properties":{"_s":"Type 3","_l":"","Type":"Type 3","Width (m)":15,"GIS length (m)":436.1,"FID":"126"}},{"type":"Feature","geometry":{"type":"LineString","coordinates":[[76.9121719,28.3762426],[76.9121679,28.3758343],[76.9121501,28.3750278]]},"properties":{"_s":"Type 3","_l":"","Type":"Type 3","Width (m)":15,"GIS length (m)":134.7,"FID":"127"}},{"type":"Feature","geometry":{"type":"LineString","coordinates":[[76.9129385,28.3762279],[76.9129275,28.3756794],[76.9129184,28.3752947],[76.9129174,28.3749915]]},"properties":{"_s":"Type 3","_l":"","Type":"Type 3","Width (m)":15,"GIS length (m)":137.0,"FID":"128"}},{"type":"Feature","geometry":{"type":"LineString","coordinates":[[76.9111824,28.3769289],[76.9112833,28.3769343],[76.9115982,28.3769295],[76.9120294,28.376921],[76.9129506,28.3769069],[76.9137137,28.3768986]]},"properties":{"_s":"Type 3","_l":"","Type":"Type 3","Width (m)":15,"GIS length (m)":248.2,"FID":"129"}},{"type":"Feature","geometry":{"type":"LineString","coordinates":[[76.9164588,28.3768528],[76.9156209,28.3768678],[76.9145448,28.3768912]]},"properties":{"_s":"Type 3","_l":"","Type":"Type 3","Width (m)":15,"GIS length (m)":187.7,"FID":"130"}},{"type":"Feature","geometry":{"type":"MultiLineString","coordinates":[[[76.9164588,28.3768528],[76.9164626,28.3764068],[76.9164483,28.3758602],[76.9164512,28.3753972],[76.9164485,28.3749572]],[[76.9164878,28.3775413],[76.9164588,28.3768528]]]},"properties":{"_s":"Type 3","_l":"","Type":"Type 3","Width (m)":15,"GIS length (m)":286.5,"FID":"131"}},{"type":"Feature","geometry":{"type":"LineString","coordinates":[[76.916451,28.3754286],[76.9168004,28.3754262],[76.917226,28.3754302]]},"properties":{"_s":"Type 3","_l":"","Type":"Type 3","Width (m)":15,"GIS length (m)":76.0,"FID":"132"}},{"type":"Feature","geometry":{"type":"MultiLineString","coordinates":[[[76.9137137,28.3768986],[76.9136947,28.375678]],[[76.9137137,28.3768986],[76.9137182,28.3775249]]]},"properties":{"_s":"Type 3","_l":"","Type":"Type 3","Width (m)":15,"GIS length (m)":204.7,"FID":"133"}},{"type":"Feature","geometry":{"type":"MultiLineString","coordinates":[[[76.9129385,28.3762279],[76.9137031,28.376217]],[[76.9111747,28.3762556],[76.9112876,28.376253],[76.9114607,28.3762526],[76.9121719,28.3762426],[76.9123538,28.37624],[76.9128097,28.3762268],[76.9129385,28.3762279]]]},"properties":{"_s":"Type 3","_l":"","Type":"Type 3","Width (m)":15,"GIS length (m)":247.9,"FID":"134"}},{"type":"Feature","geometry":{"type":"LineString","coordinates":[[76.8836124,28.3777648],[76.8845902,28.3777434],[76.8860428,28.3777312],[76.8864228,28.377722],[76.8878115,28.3776952],[76.8891732,28.3776951]]},"properties":{"_s":"Type 3","_l":"","Type":"Type 3","Width (m)":15,"GIS length (m)":545.2,"FID":"135"}},{"type":"Feature","geometry":{"type":"LineString","coordinates":[[76.8818658,28.3744612],[76.8825235,28.374445],[76.883053,28.374442],[76.8833056,28.3744428],[76.883309,28.3743621]]},"properties":{"_s":"Type 3","_l":"","Type":"Type 3","Width (m)":15,"GIS length (m)":150.1,"FID":"136"}},{"type":"Feature","geometry":{"type":"MultiLineString","coordinates":[[[76.8810092,28.3715882],[76.8941551,28.3714704]],[[76.8941551,28.3714704],[76.8961769,28.3714902]]]},"properties":{"_s":"Type 3","_l":"","Type":"Type 3","Width (m)":30,"GIS length (m)":1486.9,"FID":"137"}},{"type":"Feature","geometry":{"type":"LineString","coordinates":[[76.8855327,28.3760905],[76.8855369,28.3756575],[76.8855354,28.3752612],[76.8855266,28.374365],[76.8855134,28.3737823],[76.8855031,28.3736805],[76.8855039,28.3736465],[76.8855001,28.3735912],[76.8855197,28.373494],[76.8855059,28.3732752],[76.8854942,28.3730185],[76.885488,28.372748],[76.8854897,28.3725214],[76.8854877,28.3723288],[76.885482,28.3720029],[76.8854848,28.3716781],[76.885487,28.3715482]]},"properties":{"_s":"Type 3","_l":"","Type":"Type 3","Width (m)":30,"GIS length (m)":503.7,"FID":"138"}},{"type":"Feature","geometry":{"type":"LineString","coordinates":[[76.8867159,28.3752126],[76.8867495,28.3752033],[76.8868269,28.3752022],[76.8872276,28.3751966],[76.8875436,28.3751955],[76.8882808,28.3751888],[76.888968,28.3751891],[76.8909813,28.3751527]]},"properties":{"_s":"Type 3","_l":"","Type":"Type 3","Width (m)":12,"GIS length (m)":418.3,"FID":"139"}},{"type":"Feature","geometry":{"type":"LineString","coordinates":[[76.89661,28.3750387],[76.8975856,28.3750306],[76.898476,28.3750182],[76.8994177,28.3750084],[76.9006632,28.3749844],[76.9014892,28.3749732],[76.9020521,28.3749667]]},"properties":{"_s":"Type 3","_l":"","Type":"Type 3","Width (m)":15,"GIS length (m)":533.5,"FID":"140"}},{"type":"Feature","geometry":{"type":"MultiLineString","coordinates":[[[76.9021049,28.3773426],[76.9032068,28.3773313],[76.904702,28.3773146]],[[76.9021049,28.3773426],[76.9011388,28.377365],[76.9004029,28.3773887],[76.8997171,28.3773849],[76.8993628,28.3773786]]]},"properties":{"_s":"Type 3","_l":"","Type":"Type 3","Width (m)":15,"GIS length (m)":523.5,"FID":"141"}},{"type":"Feature","geometry":{"type":"MultiLineString","coordinates":[[[76.8993628,28.3773786],[76.8993772,28.3784409],[76.8994084,28.3793322],[76.8994021,28.3797075]],[[76.8993628,28.3773786],[76.8993496,28.3767813],[76.8993376,28.3761079],[76.8993207,28.3750094]]]},"properties":{"_s":"Type 3","_l":"","Type":"Type 3","Width (m)":15,"GIS length (m)":520.8,"FID":"142"}},{"type":"Feature","geometry":{"type":"LineString","coordinates":[[76.9013271,28.3773607],[76.9013269,28.3775774],[76.9013291,28.3778866],[76.9013293,28.378304],[76.9013319,28.378674],[76.9013378,28.3790047],[76.9013502,28.3795636]]},"properties":{"_s":"Type 3","_l":"","Type":"Type 3","Width (m)":15,"GIS length (m)":244.2,"FID":"143"}},{"type":"Feature","geometry":{"type":"LineString","coordinates":[[76.9028279,28.3773352],[76.902837,28.3777676],[76.9028457,28.378414],[76.9028574,28.3791507],[76.9028643,28.3795349]]},"properties":{"_s":"Type 3","_l":"","Type":"Type 3","Width (m)":15,"GIS length (m)":243.8,"FID":"144"}},{"type":"Feature","geometry":{"type":"LineString","coordinates":[[76.9224267,28.3762682],[76.9213374,28.3762845]]},"properties":{"_s":"Type 3","_l":"","Type":"Type 3","Width (m)":15,"GIS length (m)":106.8,"FID":"145"}},{"type":"Feature","geometry":{"type":"LineString","coordinates":[[76.9339435,28.3647846],[76.9338973,28.3617273],[76.9338746,28.3605354]]},"properties":{"_s":"Type 3","_l":"","Type":"Type 3","Width (m)":30,"GIS length (m)":471.0,"FID":"146"}},{"type":"Feature","geometry":{"type":"LineString","coordinates":[[76.9120586,28.3693327],[76.9120558,28.3692621],[76.9120423,28.3683851]]},"properties":{"_s":"Type 3","_l":"","Type":"Type 3","Width (m)":15,"GIS length (m)":105.0,"FID":"147"}},{"type":"Feature","geometry":{"type":"LineString","coordinates":[[76.9339435,28.3647846],[76.9339726,28.3663032],[76.9340678,28.3721088]]},"properties":{"_s":"Type 3","_l":"HSIIDC-IMT-Manesar-sec5601","Road name":"HSIIDC-IMT-Manesar-sec5601","Type":"Type 3","Ownership":"HSIIDC","Width (m)":60,"Carriageway (m)":60,"GIS length (m)":811.8,"Start point":"1","End point":"1","Status":"P","MLA constituency":"Gurugram","Vidhan Sabha":"Badshahpur","PWD circle":"Gurugram","PWD division":"manesar","District":"05","Road temp ID":"sec5601","Temp road no.":"9965","Data source":"NEW Survey","Created on":"2025-04-20","Last edited on":"2025-05-14","FID":"148","_lng":76.9339726,"_lat":28.3663032}},{"type":"Feature","geometry":{"type":"LineString","coordinates":[[76.9195205,28.3722852],[76.91942,28.3652642],[76.9194183,28.3649832]]},"properties":{"_s":"Type 3","_l":"HSIIDC-IMT-Manesar-sec5601","Road name":"HSIIDC-IMT-Manesar-sec5601","Type":"Type 3","Ownership":"HSIIDC","Width (m)":60,"Carriageway (m)":60,"GIS length (m)":809.3,"Start point":"1","End point":"1","Status":"P","MLA constituency":"Gurugram","Vidhan Sabha":"Badshahpur","PWD circle":"Gurugram","PWD division":"manesar","District":"05","Road temp ID":"sec5601","Temp road no.":"9965","Data source":"NEW Survey","Created on":"2025-04-20","Last edited on":"2025-05-14","FID":"149","_lng":76.91942,"_lat":28.3652642}},{"type":"Feature","geometry":{"type":"LineString","coordinates":[[76.9196684,28.3795878],[76.9234729,28.3795535]]},"properties":{"_s":"Type 3","_l":"HSIIDC IMT Manesar Sec6601","Road name":"HSIIDC IMT Manesar Sec6601","Type":"Type 3","Ownership":"HSIIDC","Width (m)":60,"Carriageway (m)":60,"GIS length (m)":372.9,"Start point":"1","End point":"2","Status":"P","MLA constituency":"Gurugram","Vidhan Sabha":"Badshahpur","PWD circle":"Gurugram","PWD division":"Manesar","District":"05","Road temp ID":"Sec6601","Temp road no.":"10005","Data source":"NEW Survey","Created on":"2025-04-20","Last edited on":"2025-05-14","FID":"150","_lng":76.9234729,"_lat":28.3795535}},{"type":"Feature","geometry":{"type":"LineString","coordinates":[[76.9195205,28.3722852],[76.9195353,28.3726687],[76.919652,28.379588],[76.9196684,28.3795878]]},"properties":{"_s":"Type 3","_l":"HSIIDC IMT Manesar Sec6601","Road name":"HSIIDC IMT Manesar Sec6601","Type":"Type 3","Ownership":"HSIIDC","Width (m)":60,"Carriageway (m)":60,"GIS length (m)":811.1,"Start point":"1","End point":"2","Status":"P","MLA constituency":"Gurugram","Vidhan Sabha":"Badshahpur","PWD circle":"Gurugram","PWD division":"Manesar","District":"05","Road temp ID":"Sec6601","Temp road no.":"10005","Data source":"NEW Survey","Created on":"2025-04-20","Last edited on":"2025-05-14","FID":"151","_lng":76.919652,"_lat":28.379588}},{"type":"Feature","geometry":{"type":"LineString","coordinates":[[76.9156804,28.3756546],[76.9151243,28.3756604],[76.9143343,28.3756684],[76.9132873,28.3756841],[76.9129275,28.3756794]]},"properties":{"_s":"Type 3","_l":"","Type":"Type 3","Width (m)":15,"GIS length (m)":269.9,"FID":"152"}},{"type":"Feature","geometry":{"type":"LineString","coordinates":[[76.9020353,28.3727292],[76.9020439,28.3734967],[76.9020462,28.3740494],[76.9020547,28.3746658],[76.9020521,28.3749667],[76.902095,28.3757919],[76.9020983,28.376687],[76.9021049,28.3773426]]},"properties":{"_s":"Type 3","_l":"","Type":"Type 3","Width (m)":15,"GIS length (m)":511.4,"FID":"153"}},{"type":"Feature","geometry":{"type":"LineString","coordinates":[[76.9157,28.3768664],[76.9156905,28.3764454],[76.9156814,28.3757184],[76.915672,28.3749086]]},"properties":{"_s":"Type 3","_l":"","Type":"Type 3","Width (m)":15,"GIS length (m)":217.0,"FID":"154"}},{"type":"Feature","geometry":{"type":"LineString","coordinates":[[76.9107463,28.3738195],[76.9115047,28.3738071],[76.9140039,28.3737797],[76.9140832,28.3737898]]},"properties":{"_s":"Type 3","_l":"","Type":"Type 3","Width (m)":15,"GIS length (m)":327.2,"FID":"155"}},{"type":"Feature","geometry":{"type":"LineString","coordinates":[[76.9047475,28.365179],[76.9194182,28.3649808],[76.9339435,28.3647846]]},"properties":{"_s":"Type 3","_l":"maruti T &P to Honda T point","Road name":"maruti T &P to Honda T point","Type":"Type 3","Road category":"mdr","Road / surface type":"bitumen","Crust":"bitumen","Ownership":"HSIIDC","Width (m)":60,"Carriageway (m)":60,"GIS length (m)":2862.5,"Start point":"end point","End point":"end point","Status":"C","MLA constituency":"manesar","Vidhan Sabha":"manesar","PWD circle":"sector3","PWD division":"Hsiidc","District":"05","UR ID":"Road no2 &3","Road temp ID":"Road no 2 &3","Temp road no.":"10242","DLP from":"no treatment","DLP to":"no dlp","Date":"no treatmemt","Data source":"NEW Survey","Created on":"2025-04-21","Last edited on":"2025-05-14","FID":"156","_lng":76.9194182,"_lat":28.3649808}},{"type":"Feature","geometry":{"type":"LineString","coordinates":[[76.8866954,28.3760713],[76.8866934,28.3758002],[76.8866761,28.3754315],[76.8866749,28.3753155],[76.886676,28.3752711],[76.8866946,28.3752419],[76.8867159,28.3752126]]},"properties":{"_s":"Type 3","_l":"","Type":"Type 3","Width (m)":12,"GIS length (m)":96.3,"FID":"157"}},{"type":"Feature","geometry":{"type":"LineString","coordinates":[[76.9460078,28.3667983],[76.9452289,28.3668154]]},"properties":{"_s":"Type 3","_l":"","Type":"Type 3","Width (m)":15,"GIS length (m)":76.4,"FID":"158"}},{"type":"Feature","geometry":{"type":"LineString","coordinates":[[76.9466057,28.3667972],[76.9473547,28.3667893]]},"properties":{"_s":"Type 3","_l":"","Type":"Type 3","Width (m)":15,"GIS length (m)":73.4,"FID":"159"}},{"type":"Feature","geometry":{"type":"LineString","coordinates":[[76.9521996,28.3645995],[76.9517317,28.3646026]]},"properties":{"_s":"Type 3","_l":"","Type":"Type 3","Width (m)":15,"GIS length (m)":45.9,"FID":"160"}},{"type":"Feature","geometry":{"type":"LineString","coordinates":[[76.951746,28.3654464],[76.9522688,28.3654371]]},"properties":{"_s":"Type 3","_l":"","Type":"Type 3","Width (m)":15,"GIS length (m)":51.3,"FID":"161"}},{"type":"Feature","geometry":{"type":"LineString","coordinates":[[76.9501381,28.364109],[76.9501241,28.36354]]},"properties":{"_s":"Type 3","_l":"","Type":"Type 3","Width (m)":15,"GIS length (m)":63.1,"FID":"162"}},{"type":"Feature","geometry":{"type":"LineString","coordinates":[[76.9443062,28.3628211],[76.9443093,28.3629471],[76.9443159,28.3631287],[76.9443218,28.3633011],[76.9443246,28.3635382],[76.9443303,28.3638481],[76.9443306,28.3640158],[76.9443309,28.3640229],[76.9443315,28.3640394],[76.9443527,28.3646157],[76.9443565,28.3646842]]},"properties":{"_s":"Type 3","_l":"","Type":"Type 3","Width (m)":12,"GIS length (m)":206.6,"FID":"163"}},{"type":"Feature","geometry":{"type":"LineString","coordinates":[[76.9449868,28.3646756],[76.944824,28.3646778],[76.9443861,28.3646838],[76.9443565,28.3646842],[76.9436158,28.3646944],[76.9435614,28.3646951],[76.9428789,28.3647073]]},"properties":{"_s":"Type 3","_l":"","Type":"Type 3","Width (m)":12,"GIS length (m)":206.7,"FID":"164"}},{"type":"Feature","geometry":{"type":"LineString","coordinates":[[76.9428621,28.3628468],[76.9429295,28.363006],[76.9430516,28.3633021],[76.9431396,28.3635122],[76.9432657,28.363825],[76.943358,28.3640318],[76.9434827,28.3643111],[76.9435867,28.364605],[76.9436282,28.3646942]]},"properties":{"_s":"Type 3","_l":"","Type":"Type 3","Width (m)":12,"GIS length (m)":218.2,"FID":"165"}}]}