{"type":"FeatureCollection","features":[{"type":"Feature","geometry":{"type":"MultiLineString","coordinates":[[[76.9469709,28.4035319],[76.9466752,28.4035684],[76.9460727,28.4036239],[76.9458794,28.4036504],[76.9454667,28.4031284],[76.9452821,28.403002]],[[76.9452821,28.403002],[76.9449416,28.4029557],[76.9438547,28.4029948],[76.9431974,28.4030403],[76.9426552,28.4030937]]]},"properties":{"_s":"Type 6","_l":"Shiv Mandir to Iris mall","Road name":"Shiv Mandir to Iris mall","Type":"Type 6","Ownership":"MC Manesar","Department":"MC Manesar","Width (m)":7,"Width (GIS)":"7","Length as per record (m)":480.0,"GIS length (m)":459.7,"Status":"1","FID":"222","_lng":76.9458794,"_lat":28.4036504}},{"type":"Feature","geometry":{"type":"LineString","coordinates":[[76.9605447,28.378873],[76.9590969,28.3789032],[76.9579019,28.3789054],[76.9567527,28.378919],[76.9562613,28.3787879],[76.9550347,28.3783675],[76.9540886,28.37785],[76.9538758,28.3777887],[76.9534579,28.3777312],[76.9529632,28.3776273],[76.952575,28.3775367],[76.9522567,28.3774163],[76.9517424,28.3772376],[76.9513939,28.3771242],[76.9511144,28.3770412],[76.9509474,28.3769797],[76.9508775,28.3769353],[76.9505448,28.3765887],[76.9499325,28.3759106],[76.9486076,28.3744745],[76.947559,28.3733425],[76.9466033,28.3723177],[76.9460106,28.3716926]]},"properties":{"_s":"Type 6","_l":"Nakhdola","Road name":"Nakhdola","Type":"Type 6","Ownership":"MC Manesar","Department":"MC Manesar","Width (m)":8,"Width (GIS)":"8","Length as per record (m)":1000.0,"GIS length (m)":1744.0,"Status":"2","FID":"223","_lng":76.9522567,"_lat":28.3774163}},{"type":"Feature","geometry":{"type":"MultiLineString","coordinates":[[[76.916992,28.4193201],[76.9171568,28.4191412],[76.9173306,28.4189803],[76.9175598,28.4188274],[76.917762,28.4187131],[76.9179358,28.4185964],[76.9181122,28.4184447],[76.91825,28.4183065],[76.9183657,28.4181766],[76.9184365,28.4180758],[76.918401,28.4173975],[76.9184022,28.4170596],[76.9184022,28.4167509],[76.9183986,28.4161221],[76.9184129,28.4155746],[76.9184318,28.415219],[76.918433,28.4149771],[76.9183891,28.4147727],[76.9177818,28.4135336]],[[76.916992,28.4193201],[76.9169011,28.4196385],[76.9168655,28.4200421],[76.9168383,28.4208607],[76.9167956,28.4214634]]]},"properties":{"_s":"Type 6","_l":"Road near Shanti Vihar","Road name":"Road near Shanti Vihar","Type":"Type 6","Ownership":"MC Manesar","Department":"MC Manesar","Width (m)":5.5,"Width (GIS)":"Varying from 10m to 25m","Length as per record (m)":600.0,"GIS length (m)":954.5,"Status":"3","FID":"224","_lng":76.9184365,"_lat":28.4180758}},{"type":"Feature","geometry":{"type":"MultiLineString","coordinates":[[[76.9694039,28.351331],[76.9699073,28.3525125],[76.9701391,28.3530819],[76.9705128,28.354044],[76.9706599,28.3545338],[76.9706237,28.3547795],[76.9705578,28.3549455],[76.9704763,28.3550695],[76.970389,28.355168],[76.9702283,28.3552956],[76.9699055,28.35555],[76.9696361,28.3557747],[76.9694146,28.355953],[76.969114,28.3562306],[76.968773,28.356506]],[[76.968773,28.356506],[76.9681912,28.3570812],[76.9679369,28.3575182],[76.9678175,28.3577846],[76.9675528,28.358561],[76.9672864,28.3593191],[76.9670009,28.3602599],[76.9667518,28.3610348],[76.9666106,28.3614671]]]},"properties":{"_s":"Type 6","_l":"Bharti public school to crusher zone naurangpur","Road name":"Bharti public school to crusher zone naurangpur","Type":"Type 6","Ownership":"MC Manesar","Department":"MC Manesar","Width (m)":6,"Width (GIS)":"7","Length as per record (m)":1200.0,"GIS length (m)":1266.5,"Status":"4","FID":"225","_lng":76.9704763,"_lat":28.3550695}},{"type":"Feature","geometry":{"type":"LineString","coordinates":[[76.9856632,28.3991594],[76.985698,28.3989159],[76.9857096,28.398618],[76.9856915,28.3983723],[76.985707,28.3982035],[76.9856915,28.3978423],[76.9856701,28.3974823],[76.9856721,28.3970683],[76.9856661,28.3967957],[76.98565,28.3963834],[76.9856621,28.3960171],[76.9857083,28.3955393],[76.9857289,28.395293],[76.9857418,28.3950189],[76.9857482,28.3946395],[76.9857533,28.3943223],[76.9857577,28.3941276],[76.9857684,28.3939399],[76.98578,28.393584],[76.9857866,28.3933339],[76.9857931,28.392986],[76.9858014,28.3927381],[76.9858063,28.3924293],[76.9858038,28.3922394],[76.9858055,28.3919567],[76.9858137,28.3916682],[76.9858129,28.391379],[76.9858162,28.3911652],[76.9858146,28.3907317],[76.9858113,28.3901185],[76.9858129,28.3895488],[76.9858126,28.3891827],[76.9858164,28.3887421],[76.9858151,28.388032],[76.985817,28.3878395],[76.9858212,28.3876416],[76.9858187,28.3873836],[76.985808,28.3872683]]},"properties":{"_s":"Type 6","_l":"Kheri Daula Growzz","Road name":"Kheri Daula Growzz","Type":"Type 6","Ownership":"MC Manesar","Department":"MC Manesar","Width (m)":5,"Width (GIS)":"9","Length as per record (m)":1330.0,"GIS length (m)":1318.9,"Status":"5","FID":"226","_lng":76.9857866,"_lat":28.3933339}},{"type":"Feature","geometry":{"type":"LineString","coordinates":[[76.9280601,28.4407383],[76.9283741,28.4405245],[76.9287061,28.4402617],[76.9290639,28.4399703],[76.9293816,28.4397143],[76.9297342,28.4394309],[76.9299937,28.4392013],[76.930336,28.4389134],[76.9305229,28.4386748],[76.9306944,28.4384534],[76.9315919,28.4388579],[76.9318382,28.4388394],[76.9334275,28.4389947],[76.9334497,28.4389952],[76.9336511,28.4385554],[76.9337306,28.4384064],[76.9338274,28.4382274],[76.9338992,28.4380719],[76.9339762,28.4378903],[76.9340325,28.4376949],[76.9340865,28.4374765],[76.9341302,28.4373196],[76.9341655,28.437058],[76.9341668,28.43689],[76.9341767,28.4366998],[76.9341774,28.4363608],[76.9341786,28.4359802],[76.9341814,28.4357518],[76.9341808,28.4355144],[76.9341817,28.4352865],[76.9341853,28.4350682],[76.9341904,28.4347952],[76.9341936,28.4345899],[76.9341995,28.4342887],[76.9342086,28.4340585],[76.9342204,28.4337628],[76.9342273,28.4335174],[76.9342307,28.4331531],[76.934234,28.4328835],[76.9342362,28.4325913],[76.934237,28.4323906],[76.9342444,28.4320685],[76.934249,28.4318705],[76.9342537,28.4317108],[76.9342586,28.4314592],[76.9342576,28.431201],[76.9342534,28.4309072],[76.9342576,28.4306873],[76.9342523,28.4304347],[76.9342519,28.4301714],[76.9342521,28.4299091],[76.9342521,28.4297044],[76.9342547,28.4293638],[76.934255,28.4291038],[76.934257,28.4290068],[76.934261,28.4288776],[76.9342691,28.4287664],[76.9342782,28.4286377],[76.9343076,28.4284359],[76.9343259,28.4283556],[76.9343896,28.4281409],[76.9344754,28.4279186],[76.9345617,28.4276552],[76.9345901,28.4275031],[76.9345918,28.4274562],[76.9346008,28.4272892],[76.9346113,28.4270607],[76.9346253,28.4268236],[76.9346353,28.4266035],[76.9346441,28.4263903],[76.9346499,28.4262227],[76.9346572,28.4260314],[76.9346668,28.4259292],[76.9346785,28.425735],[76.9346879,28.4254353],[76.934698,28.4250279],[76.9347018,28.4249548],[76.934709,28.4244437]]},"properties":{"_s":"Type 6","_l":"Gurugram pataudi road to Farukhnagar road","Road name":"Gurugram pataudi road to Farukhnagar road","Type":"Type 6","Ownership":"MC Manesar","Department":"MC Manesar","Width (m)":12,"Width (GIS)":"4.5","Length as per record (m)":1500.0,"GIS length (m)":2274.5,"Status":"9","FID":"227","_lng":76.9342362,"_lat":28.4325913}},{"type":"Feature","geometry":{"type":"MultiLineString","coordinates":[[[76.9388503,28.3699588],[76.9387779,28.3716221],[76.9387662,28.3719349],[76.9387645,28.3719663],[76.938752,28.3723453],[76.9387356,28.3727894],[76.9387196,28.3731669],[76.9387124,28.3735159],[76.9386964,28.3738852],[76.9386799,28.3742336],[76.9386594,28.3746418],[76.9386506,28.3748982],[76.9386309,28.3752579],[76.9386116,28.3756369],[76.9385913,28.3760526],[76.9385707,28.3764018],[76.9385622,28.3766343],[76.9385492,28.3769416],[76.9385265,28.3773633],[76.9385092,28.3777625],[76.938499,28.3780809],[76.9384876,28.3784292],[76.9384781,28.3787417],[76.9384672,28.3790295],[76.938457,28.3793494],[76.9384411,28.3796844],[76.9384137,28.3802219],[76.9384051,28.3803535],[76.9383947,28.3805196],[76.9383896,28.3806578],[76.93837,28.3809757],[76.9383547,28.3812015],[76.9383418,28.3814214],[76.9383319,28.3815747],[76.9383157,28.3817975],[76.9383007,28.3820398],[76.9382899,28.3822372],[76.9382777,28.3824518],[76.9382684,28.3826806],[76.9382593,28.3828802],[76.9382398,28.3831524],[76.938231,28.3833214],[76.9382161,28.3836175],[76.9382052,28.3838044],[76.9381999,28.3839808],[76.938188,28.3841603],[76.938175,28.3843719],[76.9381648,28.3846052],[76.9381554,28.3847831],[76.9381546,28.3849258],[76.9381274,28.3853312],[76.9381136,28.3855951],[76.9381051,28.3857783],[76.9381046,28.3858933],[76.9381116,28.3859956],[76.9381302,28.3860932],[76.9381497,28.3861422],[76.9382062,28.3862266],[76.9382777,28.3863025],[76.9383522,28.386362],[76.9384786,28.3864371],[76.938565,28.3865375],[76.9386208,28.3866354],[76.93862,28.3866817],[76.9386204,28.3867542],[76.9386095,28.3869426],[76.938596,28.3871774],[76.9385796,28.3875288],[76.9385617,28.3879347],[76.9385547,28.3882008],[76.9385474,28.3883593],[76.9385329,28.3885821],[76.9385294,28.3887159],[76.9385223,28.3889305],[76.9385226,28.3891314],[76.9385232,28.3893481],[76.9385171,28.3895275],[76.9385097,28.3897211],[76.938501,28.3898938],[76.9384972,28.3900582],[76.9384959,28.3902659],[76.9384955,28.3904729],[76.9384958,28.3906784],[76.9384867,28.3908735],[76.9384766,28.3911067],[76.9384729,28.3913668],[76.9384686,28.3915484],[76.9384628,28.3916942],[76.9384583,28.3918198],[76.9384521,28.3919409],[76.9384474,28.3921509],[76.9384439,28.3923759],[76.9384386,28.3925956],[76.9384435,28.3927218],[76.9384545,28.3927702],[76.9384769,28.3928431],[76.938485,28.3929132],[76.9384759,28.3931584],[76.9384663,28.3932818],[76.9384515,28.3933956],[76.9384419,28.3936572],[76.9384402,28.3938903],[76.9384438,28.394083],[76.9384517,28.3942398],[76.9384728,28.39438],[76.9385051,28.3944826],[76.9385346,28.3945726],[76.9385698,28.3946483],[76.9386274,28.3947491],[76.9386866,28.3948439],[76.9387396,28.3949238],[76.9388042,28.3950425],[76.9388933,28.3952011],[76.9389337,28.3952872],[76.9389815,28.3954509],[76.9389991,28.395535],[76.9390034,28.3956314],[76.9390011,28.3957853],[76.9389979,28.3960289],[76.9389925,28.3961919],[76.9389909,28.3963368],[76.9389875,28.3964773],[76.9389826,28.3966276],[76.9389774,28.396801],[76.9389719,28.3969677],[76.938965,28.3972353],[76.9389583,28.3974244],[76.9389574,28.3976082],[76.9389564,28.3976926],[76.9389683,28.3978374],[76.9389896,28.3979379],[76.9390331,28.3980531],[76.9390991,28.3981971],[76.9391681,28.3983217],[76.9392122,28.3983771],[76.9393154,28.3984757],[76.9394208,28.3985549],[76.9395882,28.3986571],[76.9397177,28.3987136],[76.9398078,28.3987429],[76.9399436,28.3987761],[76.9401423,28.3988308],[76.9403248,28.3988782],[76.9405214,28.3989532],[76.9406815,28.3990233],[76.9407701,28.3990639],[76.9408645,28.3991448],[76.9409926,28.399261],[76.9410151,28.3992913],[76.9411289,28.3994652],[76.9411859,28.3995758],[76.9412634,28.399748],[76.9413314,28.3999114],[76.9413855,28.4000541],[76.9414482,28.4002018],[76.9414995,28.4003281],[76.9415702,28.4004982],[76.9416523,28.4006883],[76.9417229,28.4008532],[76.9417867,28.4010144],[76.9418493,28.4011592],[76.941897,28.4012713],[76.9419975,28.4015037],[76.9420549,28.4016396],[76.9421122,28.4017711],[76.9421643,28.4018936],[76.9422114,28.4020162],[76.9423403,28.4023222],[76.9424305,28.4025391],[76.9425225,28.4027693],[76.9426552,28.4030937]],[[76.9591804,28.3988788],[76.9582955,28.3994688],[76.9576655,28.3998816],[76.9573666,28.4000893],[76.9572661,28.4001568],[76.9571185,28.4002566],[76.9569988,28.400335],[76.9569388,28.4003951],[76.9568688,28.4004444],[76.9567868,28.4005102],[76.9567132,28.4005672],[76.9565758,28.4006825],[76.9564811,28.4007656],[76.9563926,28.4008357],[76.9562715,28.4009269],[76.9561366,28.4010316],[76.9560022,28.4011316],[76.955895,28.4012163],[76.9557619,28.4013258],[76.9556095,28.4014509],[76.9554682,28.4015591],[76.95532,28.401674],[76.9552154,28.4017554],[76.9550516,28.4018744],[76.954889,28.4020006],[76.9547532,28.4021149],[76.9545568,28.4022545],[76.9544154,28.4023598],[76.9542413,28.4024799],[76.9541497,28.4025291],[76.9540312,28.4025805],[76.9539629,28.4026015],[76.9538037,28.4026497],[76.9535018,28.402731],[76.9533366,28.4027769],[76.9531698,28.4028195],[76.9530273,28.4028368],[76.9529048,28.4028486],[76.95269,28.4028742],[76.9523846,28.4029106],[76.9521241,28.4029478],[76.9517486,28.4029938],[76.9514199,28.4030291],[76.951129,28.4030606],[76.9508768,28.4030819],[76.9506977,28.4031045],[76.9504193,28.4031386],[76.9501451,28.4031674],[76.9500123,28.4031818],[76.9497421,28.4032186],[76.9495392,28.4032426],[76.9494118,28.4032587],[76.9492024,28.403279],[76.9489504,28.4033074],[76.9487383,28.4033301],[76.9484785,28.4033648],[76.9482362,28.4033939],[76.9478367,28.403436],[76.9476369,28.4034561],[76.9473866,28.4034812],[76.9471475,28.4035101],[76.9469709,28.4035319]],[[76.9383695,28.3809786],[76.9385165,28.381057],[76.9388119,28.381302],[76.9390454,28.3815434],[76.9392929,28.381906],[76.9396572,28.3823799],[76.9399203,28.3827091],[76.9401622,28.382995]]]},"properties":{"_s":"Type 6","_l":"DJ road (Manesar) via Nawada and Naharpur kasan","Road name":"DJ road (Manesar) via Nawada and Naharpur kasan","Type":"Type 6","Ownership":"MC Manesar","Department":"MC Manesar","Width (m)":12,"Width (GIS)":"Varying from 3.6m to 6m","Length as per record (m)":5710.0,"GIS length (m)":5485.3,"Status":"13","FID":"228","_lng":76.9384729,"_lat":28.3913668}},{"type":"Feature","geometry":{"type":"MultiLineString","coordinates":[[[76.9613324,28.378825],[76.9615563,28.377932],[76.96173,28.3772529],[76.9619498,28.3763137],[76.9620951,28.3757225],[76.9624248,28.3744128]],[[76.9399708,28.4371076],[76.9398793,28.4371823],[76.939759,28.4372829],[76.9396241,28.4373935],[76.9394252,28.4375591],[76.9391793,28.4377626],[76.9390082,28.437904],[76.9388286,28.438053],[76.9386725,28.4381818],[76.9385138,28.4383143],[76.9383617,28.4384407],[76.9382458,28.438536],[76.9380986,28.4386596],[76.9379403,28.4387888],[76.9376807,28.4390025],[76.9375228,28.4391329],[76.937376,28.4392549],[76.9371827,28.4394132],[76.9370191,28.4395469],[76.9369222,28.4396261],[76.9367352,28.4397824],[76.9365233,28.4399513],[76.9363755,28.4400712],[76.9362398,28.4401843],[76.936193,28.4402274]]]},"properties":{"_s":"Type 6","_l":"DJ road rampura to kota khandevla road via naurangpur","Road name":"DJ road rampura to kota khandevla road via naurangpur","Type":"Type 6","Ownership":"MC Manesar","Department":"MC Manesar","Width (m)":12,"Width (GIS)":"Varying from 3.8m to 8.2m","Length as per record (m)":1000.0,"GIS length (m)":1007.1,"Status":"14","FID":"229","_lng":76.9380986,"_lat":28.4386596}},{"type":"Feature","geometry":{"type":"LineString","coordinates":[[76.9141592,28.3924892],[76.9149209,28.3918191],[76.9153763,28.391412],[76.9159208,28.3909142],[76.9163289,28.390572],[76.9165935,28.3904038],[76.9168922,28.3902551],[76.9171121,28.3901725]]},"properties":{"_s":"Type 6","_l":"Hayatpur to Dhana Kakrola","Road name":"Hayatpur to Dhana Kakrola","Type":"Type 6","Ownership":"MC Manesar","Department":"MC Manesar","Width (m)":12,"Width (GIS)":"Varying from 5.5m to 12m","Length as per record (m)":420.0,"GIS length (m)":389.6,"Status":"17","FID":"230","_lng":76.9163289,"_lat":28.390572}},{"type":"Feature","geometry":{"type":"MultiLineString","coordinates":[[[76.9350622,28.3786103],[76.9348223,28.3784928],[76.9346204,28.3783895],[76.9344656,28.3783076],[76.9342964,28.3782159],[76.934134,28.3781281],[76.9340532,28.3780825],[76.9339027,28.3780259],[76.9338111,28.3779886],[76.9337454,28.3779861],[76.9336509,28.3779439],[76.93355,28.3778701],[76.9334333,28.3777974],[76.9333031,28.3777591],[76.9331398,28.3777063],[76.9330155,28.3776461],[76.932969,28.3776105],[76.9328989,28.3775517],[76.9328156,28.3774926],[76.9327237,28.3774324],[76.932659,28.3774064],[76.9325533,28.3773579],[76.93242,28.3773072],[76.9323355,28.3772806],[76.9322626,28.377259],[76.9322022,28.3772325],[76.9321502,28.3771859],[76.9320973,28.3771195],[76.9320384,28.3770187],[76.9319779,28.3769306],[76.9319151,28.3768516],[76.9318432,28.3767458],[76.9317818,28.3766668],[76.931719,28.3765865],[76.9316548,28.3765054],[76.9315956,28.3764392],[76.9315364,28.3763671],[76.9315001,28.3763162],[76.9314366,28.3762509],[76.9313549,28.37617],[76.9312776,28.3760861],[76.9312206,28.3760078],[76.9311931,28.3759561],[76.9311559,28.3758737],[76.9311135,28.375776],[76.9310804,28.3756817],[76.9310598,28.3756392],[76.9310397,28.3755699],[76.9310205,28.3754676],[76.9309994,28.3753726],[76.9309911,28.3753368],[76.9309563,28.3752583],[76.9308911,28.3751528],[76.9308238,28.3750346],[76.9307898,28.3749979],[76.9307376,28.3749456],[76.9306636,28.3748604],[76.930619,28.3747995],[76.9305761,28.3747249],[76.9305279,28.3746504],[76.9304629,28.3745565],[76.9304119,28.3744619],[76.9303689,28.3743818],[76.9303135,28.3742843],[76.9302676,28.3742024],[76.9302339,28.3741521],[76.9301732,28.3740286],[76.9301626,28.3740074]],[[76.9336785,28.3779562],[76.9336127,28.3781401],[76.9335628,28.3782637],[76.9335155,28.3783198],[76.9334363,28.3784063],[76.9333404,28.3784892],[76.933147,28.3786862],[76.9329868,28.3788433],[76.932806,28.3790315]]]},"properties":{"_s":"Type 6","_l":"Naharpur internal streets","Road name":"Naharpur internal streets","Type":"Type 6","Ownership":"MC Manesar","Department":"MC Manesar","Width (m)":4.65,"Width (GIS)":"Varying from 6.5m to 10m","Length as per record (m)":800.0,"GIS length (m)":884.5,"Status":"6","FID":"231","_lng":76.9316548,"_lat":28.3765054}},{"type":"Feature","geometry":{"type":"MultiLineString","coordinates":[[[76.9409723,28.3509247],[76.9409184,28.3509734],[76.9408197,28.3510402],[76.9406894,28.3511248],[76.9405696,28.3512004],[76.9404898,28.3512565],[76.9404488,28.3512849],[76.940402,28.3513424],[76.9403946,28.3513712],[76.9403995,28.3514356],[76.9403946,28.3514665]],[[76.9395596,28.3519074],[76.939593,28.352012],[76.9396172,28.3521087],[76.9396245,28.3521865],[76.9396256,28.3523264],[76.9396374,28.3524413],[76.939637,28.3525552],[76.9396393,28.3526404],[76.9396621,28.3527503],[76.9397574,28.3528753],[76.9398073,28.3529672],[76.9398253,28.3531352],[76.9398504,28.3532362],[76.9398844,28.3533239],[76.9399624,28.3534595],[76.9400513,28.3536434],[76.9401033,28.3537624],[76.94017,28.3539128],[76.9402382,28.3540574],[76.9402505,28.3540917],[76.940229,28.354142],[76.9402485,28.3542115],[76.9403083,28.3543459],[76.9403239,28.3544279],[76.9403017,28.3544848],[76.9403596,28.3546104],[76.9403716,28.3546763],[76.9403681,28.3547102],[76.9403088,28.3547412],[76.9402155,28.354769],[76.9401231,28.3548033],[76.9401656,28.3549063],[76.9402075,28.3550138],[76.9402557,28.3551101],[76.9402886,28.3551338],[76.9403887,28.3551133],[76.9404666,28.3551019],[76.9405604,28.3551461],[76.9406471,28.3552088],[76.9407684,28.3553004],[76.940849,28.3553941],[76.9408961,28.3554705],[76.940955,28.3555586],[76.9409916,28.3556081]],[[76.9398826,28.3533195],[76.9397817,28.353357],[76.9396539,28.3534136],[76.9395395,28.3534671],[76.9394735,28.3534992]],[[76.9397168,28.352822],[76.9398388,28.3527986],[76.9399576,28.352779],[76.9400406,28.3527664],[76.9401442,28.3527539],[76.9402462,28.352741]],[[76.9397628,28.3542618],[76.9398887,28.3542098],[76.9399677,28.3541802],[76.9400907,28.354141],[76.9401786,28.3541186],[76.9402505,28.3540917],[76.9403649,28.3540523]],[[76.941759,28.3514963],[76.9415247,28.3514886],[76.9412588,28.3514821],[76.9410769,28.3514861],[76.940857,28.3514951],[76.9407018,28.3515025],[76.9405771,28.3514962],[76.9403946,28.3514665],[76.9402689,28.3514962],[76.9401179,28.3515498],[76.9399595,28.3516079],[76.939815,28.3517018],[76.9397122,28.3518068],[76.9396739,28.3518456],[76.9395596,28.3519074],[76.9395041,28.3519185],[76.9393573,28.3519302],[76.9391843,28.3519635],[76.9390212,28.3519886],[76.9389044,28.3520061],[76.9387766,28.3520216],[76.9386271,28.3520472],[76.9384652,28.3520618],[76.9383314,28.3520688]]]},"properties":{"_s":"Type 6","_l":"Manesar internal streets","Road name":"Manesar internal streets","Type":"Type 6","Ownership":"MC Manesar","Department":"MC Manesar","Width (m)":7,"Width (GIS)":"Varying from 5.5m to 11.5m","Length as per record (m)":3000.0,"GIS length (m)":1090.8,"Status":"7","FID":"232","_lng":76.9403083,"_lat":28.3543459}},{"type":"Feature","geometry":{"type":"MultiLineString","coordinates":[[[76.9633028,28.381852],[76.9632233,28.381666],[76.9631786,28.3815536],[76.9631477,28.3814668],[76.9631205,28.3813947],[76.963083,28.3813124],[76.9630141,28.3811589],[76.9630676,28.3811145],[76.9628473,28.3808099],[76.9630325,28.3806883],[76.9631804,28.3805796],[76.9633217,28.3804339],[76.9634133,28.3803442]],[[76.9660755,28.381738],[76.9660184,28.3817706],[76.9659343,28.3817933],[76.9657909,28.3818102],[76.96574,28.381819],[76.9655953,28.3818581],[76.9653482,28.3819238],[76.9651918,28.3819689],[76.9650281,28.3820208],[76.9648172,28.3820963],[76.9646759,28.3821412],[76.9646086,28.3821651],[76.9645221,28.3821479],[76.9644491,28.3821327],[76.9642898,28.3821978],[76.9641098,28.3823172],[76.9639743,28.3824042],[76.9637506,28.3825176],[76.9635606,28.382595]]]},"properties":{"_s":"Type 6","_l":"Internal streets","Road name":"Internal streets","Type":"Type 6","Ownership":"MC Manesar","Department":"MC Manesar","Width (m)":8,"Width (GIS)":"Varying from 9m to 12m","Length as per record (m)":1200.0,"GIS length (m)":474.7,"Status":"8","FID":"233","_lng":76.9648172,"_lat":28.3820963}},{"type":"Feature","geometry":{"type":"LineString","coordinates":[[76.9054244,28.3574121],[76.9058609,28.3574228],[76.9062033,28.3574322],[76.9065236,28.3574384],[76.9068761,28.3574485],[76.9072855,28.3574596],[76.907753,28.3574672],[76.9082255,28.3574774],[76.908673,28.3574862],[76.9090604,28.3574949],[76.9093197,28.3575001],[76.9096632,28.3575148],[76.9100887,28.3575292],[76.9104162,28.3575406],[76.9107796,28.3575514],[76.9111271,28.3575642],[76.9114414,28.3575722],[76.9116798,28.3575839],[76.9119231,28.3575902],[76.9122213,28.3575905],[76.9125647,28.3576016],[76.9129311,28.3576088],[76.9132936,28.3576241],[76.9137271,28.357634],[76.9141075,28.3576428],[76.9144831,28.3576605],[76.9149106,28.357674],[76.9153751,28.3576843],[76.916112,28.3577058],[76.9166197,28.3577235],[76.9172003,28.3577348],[76.9176138,28.3577493],[76.9180073,28.3577588],[76.9184536,28.3577614],[76.9189551,28.3577694],[76.9194476,28.3577748],[76.919768,28.3577872],[76.9199031,28.3577906],[76.9200492,28.3577867],[76.9202628,28.3577563],[76.9205938,28.3576905],[76.9209238,28.3576239],[76.9212501,28.3575698],[76.9214771,28.3575639],[76.9217603,28.3575608],[76.9220675,28.3575635],[76.9224107,28.3575569],[76.92275,28.357561],[76.9231622,28.3575587],[76.9236023,28.3575472],[76.9240054,28.3575371],[76.9241829,28.3575356],[76.9244729,28.3575298],[76.9246836,28.3575257],[76.9247661,28.3575223],[76.9248385,28.3575213],[76.9249248,28.3575138],[76.9250397,28.3574941],[76.9251681,28.3574769],[76.9253257,28.3574413],[76.9254735,28.3573979],[76.9256346,28.3573486],[76.9257822,28.3572944],[76.9258959,28.3572395],[76.9260806,28.3571479],[76.9262335,28.3570682],[76.9263843,28.3569811],[76.926541,28.3568973],[76.9266925,28.356813],[76.9268696,28.3567232],[76.9270205,28.3566406],[76.9272407,28.3565231],[76.9274404,28.3564138],[76.9276319,28.3563074],[76.9278278,28.3561947],[76.9280669,28.3560695],[76.9282953,28.355949],[76.9285165,28.355823],[76.9287435,28.3556968],[76.9289478,28.3555891],[76.9291583,28.3554722],[76.929348,28.355371],[76.9295389,28.3552714],[76.929683,28.3552003],[76.9298452,28.3551362],[76.9300036,28.355079],[76.9301905,28.3550373],[76.9303846,28.3550085],[76.9306254,28.3550045],[76.9308701,28.3550101],[76.9312262,28.3550113],[76.9316305,28.3550231],[76.9320522,28.3550398],[76.932331,28.3550489],[76.932593,28.3550559],[76.9327955,28.3550582],[76.9329769,28.3550715],[76.9332187,28.3550879],[76.9334885,28.3550976],[76.9337652,28.3551028],[76.9340099,28.3551038],[76.9342092,28.3551123],[76.9344752,28.3551227],[76.9347808,28.3551331],[76.9351103,28.3551494],[76.9354678,28.355159],[76.9357638,28.3551645],[76.9360446,28.3551786],[76.9363029,28.3551948],[76.9366027,28.3551984],[76.9367147,28.3552017],[76.9369341,28.3552189],[76.9372956,28.355235],[76.937523,28.3552451],[76.937681,28.3552419]]},"properties":{"_s":"Type 6","_l":"Manesar Road to Kasan Puran Bhagat Mandir","Road name":"Manesar Road to Kasan Puran Bhagat Mandir","Type":"Type 6","Ownership":"MC Manesar","Department":"MC Manesar","Width (m)":12,"Width (GIS)":"Varying from 7m to 12m","Length as per record (m)":4450.0,"GIS length (m)":3238.8,"Status":"10","FID":"234","_lng":76.9250397,"_lat":28.3574941}},{"type":"Feature","geometry":{"type":"LineString","coordinates":[[76.9595071,28.4037338],[76.9597756,28.4039792],[76.9600147,28.4041886],[76.9602717,28.4043976],[76.9605433,28.404616],[76.9608531,28.4048608],[76.9610914,28.4050289],[76.961497,28.4053104],[76.9619576,28.4056467],[76.9623125,28.4059068],[76.9626311,28.4061419],[76.9630313,28.4064204],[76.9632972,28.4066245],[76.9636141,28.4068645],[76.9639036,28.4070762],[76.9641913,28.4072944],[76.9645155,28.4075406],[76.9647759,28.4077368],[76.9649236,28.4078554],[76.9651477,28.40803],[76.9653607,28.4081904],[76.9655865,28.4083587],[76.9658307,28.4085488],[76.9661255,28.4087605],[76.9664408,28.4090132],[76.9666866,28.4091954],[76.9669851,28.4094118],[76.9672146,28.4095879],[76.9674732,28.4097826],[76.9678117,28.4100223],[76.968105,28.4102498],[76.9683343,28.4104116],[76.9685478,28.4105984],[76.9688612,28.4108519],[76.9691828,28.4110978],[76.9694051,28.4112806]]},"properties":{"_s":"Type 6","_l":"Kherki Dola to Sihi Sikanderpur Badha","Road name":"Kherki Dola to Sihi Sikanderpur Badha","Type":"Type 6","Ownership":"MC Manesar","Department":"MC Manesar","Width (m)":12,"Width (GIS)":"Varying from 8m to 12m","Length as per record (m)":1450.0,"GIS length (m)":1281.4,"Status":"11","FID":"235","_lng":76.9649236,"_lat":28.4078554}},{"type":"Feature","geometry":{"type":"LineString","coordinates":[[76.9096543,28.3887809],[76.9099053,28.3889974],[76.9101172,28.3891675],[76.9103353,28.3893506],[76.9105586,28.3895306],[76.9107626,28.389697],[76.9110085,28.3898844],[76.9112493,28.390074],[76.9114507,28.3902405],[76.9116872,28.3904372],[76.9118446,28.3905652],[76.9120783,28.3907465],[76.9122736,28.3909101],[76.912517,28.391102],[76.9127167,28.3912723],[76.91289,28.3914201],[76.9130544,28.3915526],[76.9132301,28.3916873],[76.9133847,28.3918061],[76.9135516,28.3919348],[76.9137002,28.3920576],[76.9138427,28.3921736],[76.9139623,28.3922761],[76.9141613,28.3924495],[76.914297,28.3925809],[76.9143818,28.3926694],[76.9145218,28.3928072],[76.9146224,28.3929146],[76.914719,28.3930118],[76.9148338,28.3931367],[76.9149389,28.3932455],[76.9150377,28.3933442],[76.9151568,28.3934617],[76.9152703,28.3935753],[76.9153744,28.3936915],[76.9155015,28.3938211],[76.9156253,28.3939547],[76.9157749,28.3941168],[76.9158932,28.3942401],[76.9160531,28.3944064],[76.9161538,28.3945145],[76.9162906,28.3946566],[76.9164363,28.3948078],[76.916476,28.3948501]]},"properties":{"_s":"Type 6","_l":"Hayatpur Dhana via Bhangrola","Road name":"Hayatpur Dhana via Bhangrola","Type":"Type 6","Ownership":"MC Manesar","Department":"MC Manesar","Width (m)":12,"Width (GIS)":"Varying from 6.5m to 12m","Length as per record (m)":2000.0,"GIS length (m)":950.2,"Status":"12","FID":"236","_lng":76.9139623,"_lat":28.3922761}},{"type":"Feature","geometry":{"type":"LineString","coordinates":[[76.9095269,28.391452],[76.909532,28.3911939],[76.909538,28.3909298],[76.9095398,28.3907062],[76.9095445,28.3904792],[76.909553,28.3902426],[76.9095563,28.389994],[76.9095589,28.3896988],[76.9095615,28.3894657],[76.9095697,28.3892714],[76.9095799,28.389021],[76.9095923,28.3888396]]},"properties":{"_s":"Type 6","_l":"Link Road to Bhangrola","Road name":"Link Road to Bhangrola","Type":"Type 6","Ownership":"MC Manesar","Department":"MC Manesar","Width (m)":12,"Width (GIS)":"Varying from 5.5m to 9m","Length as per record (m)":270.0,"GIS length (m)":289.6,"Status":"16","FID":"237","_lng":76.9095563,"_lat":28.389994}},{"type":"Feature","geometry":{"type":"MultiLineString","coordinates":[[[76.9345464,28.441621],[76.9343867,28.441449],[76.9342105,28.4412782],[76.9340754,28.441133],[76.9338821,28.4409256],[76.9336654,28.4406944],[76.9334468,28.4404797],[76.9332638,28.4402916],[76.9330708,28.4401007],[76.9328879,28.4399203],[76.9326719,28.4397298],[76.9325061,28.439583],[76.9322584,28.4393939],[76.9320331,28.4392296],[76.9318965,28.439128],[76.9317208,28.4389823],[76.9316175,28.4389054],[76.9315813,28.4388797],[76.9313451,28.4387408],[76.9311339,28.4386305],[76.9309925,28.4385638],[76.9308072,28.4384928],[76.9307043,28.4384972],[76.9306425,28.43853],[76.9305825,28.4386045],[76.9305549,28.4386375],[76.9305134,28.4386909],[76.9303269,28.4389277],[76.929986,28.4392134],[76.9297275,28.4394413],[76.9293763,28.4397224],[76.9290598,28.4399764],[76.9287034,28.4402655],[76.9283728,28.4405263],[76.9280601,28.4407383],[76.9278989,28.4408521],[76.9277849,28.4409354],[76.9275634,28.4410909],[76.9273664,28.4412187],[76.9271895,28.4413361],[76.9270192,28.4414466],[76.9268955,28.4415275],[76.9267932,28.4416183],[76.9267356,28.4416795],[76.9266414,28.441794],[76.9265675,28.4419133],[76.9264372,28.44211],[76.9263257,28.4422784],[76.9262557,28.442386],[76.926147,28.4425616],[76.9260602,28.4427129],[76.9259757,28.4428493],[76.9259174,28.4429522],[76.925832,28.4430849],[76.9257476,28.4432324],[76.9256728,28.4433607]],[[76.9361184,28.4402885],[76.9359986,28.4404011],[76.9358888,28.4404872],[76.9357273,28.4406154],[76.9355791,28.440737],[76.9354171,28.4408701],[76.9352521,28.441006],[76.9350381,28.4411898],[76.9348954,28.4413151],[76.9347371,28.4414455],[76.9346454,28.4415286],[76.9345464,28.441621],[76.9344003,28.441716],[76.9341757,28.4418689],[76.9339598,28.4420267],[76.9336996,28.4422112],[76.9334336,28.4423908],[76.9331847,28.4425718],[76.9330889,28.442637]]]},"properties":{"_s":"Type 6","_l":"Gurugram Pataudi Road to Garhi Railway Station","Road name":"Gurugram Pataudi Road to Garhi Railway Station","Type":"Type 6","Ownership":"MC Manesar","Department":"MC Manesar","Width (m)":12,"Width (GIS)":"Varying from 11m to 12m","Length as per record (m)":1700.0,"GIS length (m)":1654.9,"Status":"15","FID":"238","_lng":76.929986,"_lat":28.4392134}}]}