{"type":"FeatureCollection","features":[{"type":"Feature","geometry":{"type":"LineString","coordinates":[[77.1074199,28.4203139],[77.107385,28.4203583]]},"properties":{"_s":"L4_line","_l":"CH -300","Chainage":"-300 m","_lat":28.420421,"_lng":77.107341}},{"type":"Feature","geometry":{"type":"LineString","coordinates":[[77.1065822,28.4197986],[77.1065472,28.4198431]]},"properties":{"_s":"L4_line","_l":"CH -200","Chainage":"-200 m","_lat":28.419906,"_lng":77.106503}},{"type":"Feature","geometry":{"type":"LineString","coordinates":[[77.1057052,28.4193313],[77.105681,28.4193811]]},"properties":{"_s":"L4_line","_l":"CH -100","Chainage":"-100 m","_lat":28.41945,"_lng":77.105652}},{"type":"Feature","geometry":{"type":"LineString","coordinates":[[77.1047386,28.4190361],[77.1047196,28.4190875]]},"properties":{"_s":"L4_line","_l":"CH 0","Chainage":"0 m","_lat":28.419159,"_lng":77.104698}},{"type":"Feature","geometry":{"type":"LineString","coordinates":[[77.1037688,28.4187554],[77.1037497,28.4188069]]},"properties":{"_s":"L4_line","_l":"CH 100","Chainage":"100 m","_lat":28.418878,"_lng":77.103728}},{"type":"Feature","geometry":{"type":"LineString","coordinates":[[77.1027989,28.4184748],[77.1027798,28.4185262]]},"properties":{"_s":"L4_line","_l":"CH 200","Chainage":"200 m","_lat":28.418598,"_lng":77.102758}},{"type":"Feature","geometry":{"type":"LineString","coordinates":[[77.101829,28.4181941],[77.10181,28.4182455]]},"properties":{"_s":"L4_line","_l":"CH 300","Chainage":"300 m","_lat":28.418317,"_lng":77.101788}},{"type":"Feature","geometry":{"type":"LineString","coordinates":[[77.1008567,28.4179193],[77.1008384,28.4179709]]},"properties":{"_s":"L4_line","_l":"CH 400","Chainage":"400 m","_lat":28.418043,"_lng":77.100817}},{"type":"Feature","geometry":{"type":"LineString","coordinates":[[77.0998829,28.4176494],[77.0998646,28.4177011]]},"properties":{"_s":"L4_line","_l":"CH 500","Chainage":"500 m","_lat":28.417773,"_lng":77.099844}},{"type":"Feature","geometry":{"type":"LineString","coordinates":[[77.0989091,28.4173796],[77.0988908,28.4174312]]},"properties":{"_s":"L4_line","_l":"CH 600","Chainage":"600 m","_lat":28.417503,"_lng":77.09887}},{"type":"Feature","geometry":{"type":"LineString","coordinates":[[77.0979347,28.4171105],[77.0979172,28.4171624]]},"properties":{"_s":"L4_line","_l":"CH 700","Chainage":"700 m","_lat":28.417234,"_lng":77.097897}},{"type":"Feature","geometry":{"type":"LineString","coordinates":[[77.0969227,28.416971],[77.0969221,28.4170252]]},"properties":{"_s":"L4_line","_l":"CH 800","Chainage":"800 m","_lat":28.417099,"_lng":77.096925}},{"type":"Feature","geometry":{"type":"LineString","coordinates":[[77.0959016,28.4169835],[77.0959026,28.4170376]]},"properties":{"_s":"L4_line","_l":"CH 900","Chainage":"900 m","_lat":28.417112,"_lng":77.095908}},{"type":"Feature","geometry":{"type":"LineString","coordinates":[[77.0948813,28.4169982],[77.0948823,28.4170523]]},"properties":{"_s":"L4_line","_l":"CH 1,000","Chainage":"1,000 m","_lat":28.417126,"_lng":77.094888}},{"type":"Feature","geometry":{"type":"LineString","coordinates":[[77.0938609,28.4170129],[77.0938619,28.4170671]]},"properties":{"_s":"L4_line","_l":"CH 1,100","Chainage":"1,100 m","_lat":28.417141,"_lng":77.093868}},{"type":"Feature","geometry":{"type":"LineString","coordinates":[[77.0928406,28.4170277],[77.0928416,28.4170818]]},"properties":{"_s":"L4_line","_l":"CH 1,200","Chainage":"1,200 m","_lat":28.417156,"_lng":77.092847}},{"type":"Feature","geometry":{"type":"LineString","coordinates":[[77.0918202,28.4170424],[77.0918212,28.4170965]]},"properties":{"_s":"L4_line","_l":"CH 1,300","Chainage":"1,300 m","_lat":28.41717,"_lng":77.091827}},{"type":"Feature","geometry":{"type":"LineString","coordinates":[[77.0908078,28.4170044],[77.0907971,28.4170577]]},"properties":{"_s":"L4_line","_l":"CH 1,400","Chainage":"1,400 m","_lat":28.417131,"_lng":77.090787}},{"type":"Feature","geometry":{"type":"LineString","coordinates":[[77.0898319,28.4167553],[77.0898129,28.4168068]]},"properties":{"_s":"L4_line","_l":"CH 1,500","Chainage":"1,500 m","_lat":28.416878,"_lng":77.089791}},{"type":"Feature","geometry":{"type":"LineString","coordinates":[[77.0888614,28.4164763],[77.0888425,28.4165277]]},"properties":{"_s":"L4_line","_l":"CH 1,600","Chainage":"1,600 m","_lat":28.416599,"_lng":77.088821}},{"type":"Feature","geometry":{"type":"LineString","coordinates":[[77.087891,28.4161972],[77.087872,28.4162487]]},"properties":{"_s":"L4_line","_l":"CH 1,700","Chainage":"1,700 m","_lat":28.41632,"_lng":77.08785}},{"type":"Feature","geometry":{"type":"LineString","coordinates":[[77.0869205,28.4159182],[77.0869016,28.4159697]]},"properties":{"_s":"L4_line","_l":"CH 1,800","Chainage":"1,800 m","_lat":28.416041,"_lng":77.08688}},{"type":"Feature","geometry":{"type":"LineString","coordinates":[[77.0859501,28.4156391],[77.0859311,28.4156906]]},"properties":{"_s":"L4_line","_l":"CH 1,900","Chainage":"1,900 m","_lat":28.415762,"_lng":77.085909}},{"type":"Feature","geometry":{"type":"LineString","coordinates":[[77.0849796,28.4153601],[77.0849607,28.4154115]]},"properties":{"_s":"L4_line","_l":"CH 2,000","Chainage":"2,000 m","_lat":28.415483,"_lng":77.084939}},{"type":"Feature","geometry":{"type":"LineString","coordinates":[[77.0840089,28.4150817],[77.0839901,28.4151332]]},"properties":{"_s":"L4_line","_l":"CH 2,100","Chainage":"2,100 m","_lat":28.415205,"_lng":77.083968}},{"type":"Feature","geometry":{"type":"LineString","coordinates":[[77.0830379,28.4148042],[77.0830191,28.4148557]]},"properties":{"_s":"L4_line","_l":"CH 2,200","Chainage":"2,200 m","_lat":28.414927,"_lng":77.082997}},{"type":"Feature","geometry":{"type":"LineString","coordinates":[[77.0820665,28.4145272],[77.0820481,28.4145788]]},"properties":{"_s":"L4_line","_l":"CH 2,300","Chainage":"2,300 m","_lat":28.414651,"_lng":77.082027}},{"type":"Feature","geometry":{"type":"LineString","coordinates":[[77.0810896,28.4142654],[77.081072,28.4143172]]},"properties":{"_s":"L4_line","_l":"CH 2,400","Chainage":"2,400 m","_lat":28.414389,"_lng":77.081052}},{"type":"Feature","geometry":{"type":"LineString","coordinates":[[77.0801124,28.4140057],[77.0800945,28.4140574]]},"properties":{"_s":"L4_line","_l":"CH 2,500","Chainage":"2,500 m","_lat":28.414129,"_lng":77.080074}},{"type":"Feature","geometry":{"type":"LineString","coordinates":[[77.0791557,28.4136993],[77.0791327,28.4137495]]},"properties":{"_s":"L4_line","_l":"CH 2,600","Chainage":"2,600 m","_lat":28.413819,"_lng":77.079105}},{"type":"Feature","geometry":{"type":"LineString","coordinates":[[77.0782101,28.41336],[77.0781871,28.4134102]]},"properties":{"_s":"L4_line","_l":"CH 2,700","Chainage":"2,700 m","_lat":28.41348,"_lng":77.07816}},{"type":"Feature","geometry":{"type":"LineString","coordinates":[[77.0772646,28.4130208],[77.0772415,28.4130709]]},"properties":{"_s":"L4_line","_l":"CH 2,800","Chainage":"2,800 m","_lat":28.413141,"_lng":77.077214}},{"type":"Feature","geometry":{"type":"LineString","coordinates":[[77.076319,28.4126815],[77.076296,28.4127316]]},"properties":{"_s":"L4_line","_l":"CH 2,900","Chainage":"2,900 m","_lat":28.412802,"_lng":77.076268}},{"type":"Feature","geometry":{"type":"LineString","coordinates":[[77.0753734,28.4123422],[77.0753504,28.4123924]]},"properties":{"_s":"L4_line","_l":"CH 3,000","Chainage":"3,000 m","_lat":28.412462,"_lng":77.075323}},{"type":"Feature","geometry":{"type":"LineString","coordinates":[[77.0744279,28.4120029],[77.0744049,28.4120531]]},"properties":{"_s":"L4_line","_l":"CH 3,100","Chainage":"3,100 m","_lat":28.412123,"_lng":77.074377}},{"type":"Feature","geometry":{"type":"LineString","coordinates":[[77.0734824,28.4116636],[77.0734593,28.4117138]]},"properties":{"_s":"L4_line","_l":"CH 3,200","Chainage":"3,200 m","_lat":28.411784,"_lng":77.073432}},{"type":"Feature","geometry":{"type":"LineString","coordinates":[[77.0725369,28.4113243],[77.0725138,28.4113744]]},"properties":{"_s":"L4_line","_l":"CH 3,300","Chainage":"3,300 m","_lat":28.411444,"_lng":77.072486}},{"type":"Feature","geometry":{"type":"LineString","coordinates":[[77.0715961,28.4109758],[77.0715722,28.4110257]]},"properties":{"_s":"L4_line","_l":"CH 3,400","Chainage":"3,400 m","_lat":28.411095,"_lng":77.071544}},{"type":"Feature","geometry":{"type":"LineString","coordinates":[[77.0706564,28.410624],[77.0706325,28.4106738]]},"properties":{"_s":"L4_line","_l":"CH 3,500","Chainage":"3,500 m","_lat":28.410743,"_lng":77.070604}},{"type":"Feature","geometry":{"type":"LineString","coordinates":[[77.0697168,28.4102721],[77.0696929,28.410322]]},"properties":{"_s":"L4_line","_l":"CH 3,600","Chainage":"3,600 m","_lat":28.410392,"_lng":77.069664}},{"type":"Feature","geometry":{"type":"LineString","coordinates":[[77.0687771,28.4099203],[77.0687532,28.4099701]]},"properties":{"_s":"L4_line","_l":"CH 3,700","Chainage":"3,700 m","_lat":28.41004,"_lng":77.068725}},{"type":"Feature","geometry":{"type":"LineString","coordinates":[[77.0678375,28.4095684],[77.0678136,28.4096183]]},"properties":{"_s":"L4_line","_l":"CH 3,800","Chainage":"3,800 m","_lat":28.409688,"_lng":77.067785}},{"type":"Feature","geometry":{"type":"LineString","coordinates":[[77.0668979,28.4092166],[77.066874,28.4092664]]},"properties":{"_s":"L4_line","_l":"CH 3,900","Chainage":"3,900 m","_lat":28.409336,"_lng":77.066845}},{"type":"Feature","geometry":{"type":"LineString","coordinates":[[77.0659582,28.4088647],[77.0659344,28.4089145]]},"properties":{"_s":"L4_line","_l":"CH 4,000","Chainage":"4,000 m","_lat":28.408984,"_lng":77.065906}},{"type":"Feature","geometry":{"type":"LineString","coordinates":[[77.0650186,28.4085128],[77.0649947,28.4085627]]},"properties":{"_s":"L4_line","_l":"CH 4,100","Chainage":"4,100 m","_lat":28.408632,"_lng":77.064966}},{"type":"Feature","geometry":{"type":"LineString","coordinates":[[77.064079,28.4081609],[77.0640551,28.4082108]]},"properties":{"_s":"L4_line","_l":"CH 4,200","Chainage":"4,200 m","_lat":28.40828,"_lng":77.064026}},{"type":"Feature","geometry":{"type":"LineString","coordinates":[[77.0631396,28.4078088],[77.0631156,28.4078586]]},"properties":{"_s":"L4_line","_l":"CH 4,300","Chainage":"4,300 m","_lat":28.407928,"_lng":77.063087}},{"type":"Feature","geometry":{"type":"LineString","coordinates":[[77.062201,28.4074548],[77.062177,28.4075046]]},"properties":{"_s":"L4_line","_l":"CH 4,400","Chainage":"4,400 m","_lat":28.407574,"_lng":77.062148}},{"type":"Feature","geometry":{"type":"LineString","coordinates":[[77.0612624,28.4071008],[77.0612384,28.4071506]]},"properties":{"_s":"L4_line","_l":"CH 4,500","Chainage":"4,500 m","_lat":28.40722,"_lng":77.06121}},{"type":"Feature","geometry":{"type":"LineString","coordinates":[[77.0603238,28.4067468],[77.0602998,28.4067966]]},"properties":{"_s":"L4_line","_l":"CH 4,600","Chainage":"4,600 m","_lat":28.406866,"_lng":77.060271}},{"type":"Feature","geometry":{"type":"LineString","coordinates":[[77.0593853,28.4063928],[77.0593612,28.4064426]]},"properties":{"_s":"L4_line","_l":"CH 4,700","Chainage":"4,700 m","_lat":28.406512,"_lng":77.059332}},{"type":"Feature","geometry":{"type":"LineString","coordinates":[[77.0584467,28.4060388],[77.0584227,28.4060886]]},"properties":{"_s":"L4_line","_l":"CH 4,800","Chainage":"4,800 m","_lat":28.406158,"_lng":77.058394}},{"type":"Feature","geometry":{"type":"LineString","coordinates":[[77.0575081,28.4056848],[77.0574841,28.4057345]]},"properties":{"_s":"L4_line","_l":"CH 4,900","Chainage":"4,900 m","_lat":28.405804,"_lng":77.057455}},{"type":"Feature","geometry":{"type":"LineString","coordinates":[[77.0565696,28.4053307],[77.0565456,28.4053805]]},"properties":{"_s":"L4_line","_l":"CH 5,000","Chainage":"5,000 m","_lat":28.40545,"_lng":77.056517}},{"type":"Feature","geometry":{"type":"LineString","coordinates":[[77.0556319,28.4049751],[77.0556077,28.4050248]]},"properties":{"_s":"L4_line","_l":"CH 5,100","Chainage":"5,100 m","_lat":28.405094,"_lng":77.055578}},{"type":"Feature","geometry":{"type":"LineString","coordinates":[[77.054695,28.4046178],[77.0546707,28.4046675]]},"properties":{"_s":"L4_line","_l":"CH 5,200","Chainage":"5,200 m","_lat":28.404737,"_lng":77.054642}},{"type":"Feature","geometry":{"type":"LineString","coordinates":[[77.053758,28.4042604],[77.0537338,28.4043101]]},"properties":{"_s":"L4_line","_l":"CH 5,300","Chainage":"5,300 m","_lat":28.40438,"_lng":77.053704}},{"type":"Feature","geometry":{"type":"LineString","coordinates":[[77.0528211,28.4039031],[77.0527968,28.4039528]]},"properties":{"_s":"L4_line","_l":"CH 5,400","Chainage":"5,400 m","_lat":28.404022,"_lng":77.052768}},{"type":"Feature","geometry":{"type":"LineString","coordinates":[[77.0518844,28.4035456],[77.0518598,28.4035952]]},"properties":{"_s":"L4_line","_l":"CH 5,500","Chainage":"5,500 m","_lat":28.403665,"_lng":77.05183}},{"type":"Feature","geometry":{"type":"LineString","coordinates":[[77.0509694,28.4031503],[77.0509413,28.4031984]]},"properties":{"_s":"L4_line","_l":"CH 5,600","Chainage":"5,600 m","_lat":28.403266,"_lng":77.050907}},{"type":"Feature","geometry":{"type":"LineString","coordinates":[[77.0500621,28.4027374],[77.0500341,28.4027855]]},"properties":{"_s":"L4_line","_l":"CH 5,700","Chainage":"5,700 m","_lat":28.402853,"_lng":77.05}},{"type":"Feature","geometry":{"type":"LineString","coordinates":[[77.0491548,28.4023246],[77.0491268,28.4023727]]},"properties":{"_s":"L4_line","_l":"CH 5,800","Chainage":"5,800 m","_lat":28.40244,"_lng":77.049092}},{"type":"Feature","geometry":{"type":"LineString","coordinates":[[77.0482333,28.4019329],[77.0482103,28.4019831]]},"properties":{"_s":"L4_line","_l":"CH 5,900","Chainage":"5,900 m","_lat":28.402053,"_lng":77.048183}},{"type":"Feature","geometry":{"type":"LineString","coordinates":[[77.0472773,28.4016156],[77.047256,28.4016664]]},"properties":{"_s":"L4_line","_l":"CH 6,000","Chainage":"6,000 m","_lat":28.401737,"_lng":77.047231}},{"type":"Feature","geometry":{"type":"LineString","coordinates":[[77.0463207,28.4013016],[77.0462994,28.4013523]]},"properties":{"_s":"L4_line","_l":"CH 6,100","Chainage":"6,100 m","_lat":28.401423,"_lng":77.046274}},{"type":"Feature","geometry":{"type":"LineString","coordinates":[[77.0453556,28.4010024],[77.04534,28.4010548]]},"properties":{"_s":"L4_line","_l":"CH 6,200","Chainage":"6,200 m","_lat":28.401127,"_lng":77.045323}},{"type":"Feature","geometry":{"type":"LineString","coordinates":[[77.0443362,28.4009142],[77.0443381,28.4009683]]},"properties":{"_s":"L4_line","_l":"CH 6,300","Chainage":"6,300 m","_lat":28.401042,"_lng":77.044345}},{"type":"Feature","geometry":{"type":"LineString","coordinates":[[77.0433164,28.4009499],[77.0433189,28.401004]]},"properties":{"_s":"L4_line","_l":"CH 6,400","Chainage":"6,400 m","_lat":28.401078,"_lng":77.043327}},{"type":"Feature","geometry":{"type":"LineString","coordinates":[[77.0422969,28.400986],[77.0422993,28.4010401]]},"properties":{"_s":"L4_line","_l":"CH 6,500","Chainage":"6,500 m","_lat":28.401114,"_lng":77.042307}},{"type":"Feature","geometry":{"type":"LineString","coordinates":[[77.0412774,28.401022],[77.0412797,28.4010761]]},"properties":{"_s":"L4_line","_l":"CH 6,600","Chainage":"6,600 m","_lat":28.40115,"_lng":77.041287}},{"type":"Feature","geometry":{"type":"LineString","coordinates":[[77.0402617,28.4009993],[77.0402561,28.4010532]]},"properties":{"_s":"L4_line","_l":"CH 6,700","Chainage":"6,700 m","_lat":28.401127,"_lng":77.040253}},{"type":"Feature","geometry":{"type":"LineString","coordinates":[[77.0392474,28.4009076],[77.0392402,28.4009614]]},"properties":{"_s":"L4_line","_l":"CH 6,800","Chainage":"6,800 m","_lat":28.401035,"_lng":77.039235}},{"type":"Feature","geometry":{"type":"LineString","coordinates":[[77.0382343,28.4008],[77.038227,28.4008538]]},"properties":{"_s":"L4_line","_l":"CH 6,900","Chainage":"6,900 m","_lat":28.400928,"_lng":77.038221}},{"type":"Feature","geometry":{"type":"LineString","coordinates":[[77.0372213,28.4006923],[77.037214,28.4007461]]},"properties":{"_s":"L4_line","_l":"CH 7,000","Chainage":"7,000 m","_lat":28.40082,"_lng":77.037208}},{"type":"Feature","geometry":{"type":"LineString","coordinates":[[77.0362052,28.4006027],[77.0361996,28.4006566]]},"properties":{"_s":"L4_line","_l":"CH 7,100","Chainage":"7,100 m","_lat":28.400731,"_lng":77.036196}},{"type":"Feature","geometry":{"type":"LineString","coordinates":[[77.0351892,28.4005201],[77.0351836,28.4005741]]},"properties":{"_s":"L4_line","_l":"CH 7,200","Chainage":"7,200 m","_lat":28.400648,"_lng":77.03518}},{"type":"Feature","geometry":{"type":"LineString","coordinates":[[77.0341731,28.4004376],[77.0341675,28.4004915]]},"properties":{"_s":"L4_line","_l":"CH 7,300","Chainage":"7,300 m","_lat":28.400565,"_lng":77.034164}},{"type":"Feature","geometry":{"type":"LineString","coordinates":[[77.033157,28.400355],[77.0331514,28.4004089]]},"properties":{"_s":"L4_line","_l":"CH 7,400","Chainage":"7,400 m","_lat":28.400483,"_lng":77.033148}},{"type":"Feature","geometry":{"type":"LineString","coordinates":[[77.0321409,28.4002724],[77.0321353,28.4003263]]},"properties":{"_s":"L4_line","_l":"CH 7,500","Chainage":"7,500 m","_lat":28.4004,"_lng":77.032132}},{"type":"Feature","geometry":{"type":"LineString","coordinates":[[77.0311217,28.400205],[77.0311205,28.4002591]]},"properties":{"_s":"L4_line","_l":"CH 7,600","Chainage":"7,600 m","_lat":28.400333,"_lng":77.031123}},{"type":"Feature","geometry":{"type":"LineString","coordinates":[[77.0301002,28.4002304],[77.0301027,28.4002845]]},"properties":{"_s":"L4_line","_l":"CH 7,700","Chainage":"7,700 m","_lat":28.400358,"_lng":77.03011}},{"type":"Feature","geometry":{"type":"LineString","coordinates":[[77.0290807,28.4002662],[77.0290831,28.4003203]]},"properties":{"_s":"L4_line","_l":"CH 7,800","Chainage":"7,800 m","_lat":28.400394,"_lng":77.029091}},{"type":"Feature","geometry":{"type":"LineString","coordinates":[[77.0280611,28.400302],[77.0280636,28.4003561]]},"properties":{"_s":"L4_line","_l":"CH 7,900","Chainage":"7,900 m","_lat":28.40043,"_lng":77.028071}},{"type":"Feature","geometry":{"type":"LineString","coordinates":[[77.0270416,28.4003378],[77.027044,28.4003919]]},"properties":{"_s":"L4_line","_l":"CH 8,000","Chainage":"8,000 m","_lat":28.400466,"_lng":77.027052}},{"type":"Feature","geometry":{"type":"LineString","coordinates":[[77.0260221,28.4003734],[77.0260243,28.4004275]]},"properties":{"_s":"L4_line","_l":"CH 8,100","Chainage":"8,100 m","_lat":28.400501,"_lng":77.026032}},{"type":"Feature","geometry":{"type":"LineString","coordinates":[[77.0250024,28.4003995],[77.0250041,28.4004536]]},"properties":{"_s":"L4_line","_l":"CH 8,200","Chainage":"8,200 m","_lat":28.400527,"_lng":77.025011}},{"type":"Feature","geometry":{"type":"LineString","coordinates":[[77.0239827,28.4004177],[77.0239834,28.4004718]]},"properties":{"_s":"L4_line","_l":"CH 8,300","Chainage":"8,300 m","_lat":28.400546,"_lng":77.023989}},{"type":"Feature","geometry":{"type":"LineString","coordinates":[[77.0229624,28.4004272],[77.0229631,28.4004813]]},"properties":{"_s":"L4_line","_l":"CH 8,400","Chainage":"8,400 m","_lat":28.400555,"_lng":77.022968}},{"type":"Feature","geometry":{"type":"LineString","coordinates":[[77.0219421,28.4004367],[77.0219428,28.4004908]]},"properties":{"_s":"L4_line","_l":"CH 8,500","Chainage":"8,500 m","_lat":28.400565,"_lng":77.021948}},{"type":"Feature","geometry":{"type":"LineString","coordinates":[[77.0209218,28.4004462],[77.0209225,28.4005004]]},"properties":{"_s":"L4_line","_l":"CH 8,600","Chainage":"8,600 m","_lat":28.400574,"_lng":77.020928}},{"type":"Feature","geometry":{"type":"LineString","coordinates":[[77.0199015,28.4004557],[77.0199022,28.4005099]]},"properties":{"_s":"L4_line","_l":"CH 8,700","Chainage":"8,700 m","_lat":28.400584,"_lng":77.019907}},{"type":"Feature","geometry":{"type":"LineString","coordinates":[[77.018881,28.4004671],[77.0188822,28.4005212]]},"properties":{"_s":"L4_line","_l":"CH 8,800","Chainage":"8,800 m","_lat":28.400595,"_lng":77.018888}},{"type":"Feature","geometry":{"type":"LineString","coordinates":[[77.0178608,28.4004844],[77.017862,28.4005385]]},"properties":{"_s":"L4_line","_l":"CH 8,900","Chainage":"8,900 m","_lat":28.400612,"_lng":77.017868}},{"type":"Feature","geometry":{"type":"LineString","coordinates":[[77.0168412,28.400488],[77.0168408,28.4005421]]},"properties":{"_s":"L4_line","_l":"CH 9,000","Chainage":"9,000 m","_lat":28.400616,"_lng":77.016845}},{"type":"Feature","geometry":{"type":"LineString","coordinates":[[77.01582,28.4004952],[77.0158218,28.4005493]]},"properties":{"_s":"L4_line","_l":"CH 9,100","Chainage":"9,100 m","_lat":28.400623,"_lng":77.015828}},{"type":"Feature","geometry":{"type":"LineString","coordinates":[[77.0148,28.4005216],[77.0148018,28.4005757]]},"properties":{"_s":"L4_line","_l":"CH 9,200","Chainage":"9,200 m","_lat":28.40065,"_lng":77.014809}},{"type":"Feature","geometry":{"type":"LineString","coordinates":[[77.0137802,28.4005477],[77.0137817,28.4006018]]},"properties":{"_s":"L4_line","_l":"CH 9,300","Chainage":"9,300 m","_lat":28.400676,"_lng":77.013788}},{"type":"Feature","geometry":{"type":"LineString","coordinates":[[77.0127605,28.4005553],[77.0127607,28.4006094]]},"properties":{"_s":"L4_line","_l":"CH 9,400","Chainage":"9,400 m","_lat":28.400683,"_lng":77.012765}},{"type":"Feature","geometry":{"type":"LineString","coordinates":[[77.0117401,28.4005591],[77.0117404,28.4006132]]},"properties":{"_s":"L4_line","_l":"CH 9,500","Chainage":"9,500 m","_lat":28.400687,"_lng":77.011745}},{"type":"Feature","geometry":{"type":"LineString","coordinates":[[77.0107197,28.4005629],[77.01072,28.400617]]},"properties":{"_s":"L4_line","_l":"CH 9,600","Chainage":"9,600 m","_lat":28.400691,"_lng":77.010725}},{"type":"Feature","geometry":{"type":"LineString","coordinates":[[77.0096987,28.4005957],[77.0097026,28.4006497]]},"properties":{"_s":"L4_line","_l":"CH 9,700","Chainage":"9,700 m","_lat":28.400723,"_lng":77.009712}},{"type":"Feature","geometry":{"type":"LineString","coordinates":[[77.0086803,28.4006533],[77.0086843,28.4007074]]},"properties":{"_s":"L4_line","_l":"CH 9,800","Chainage":"9,800 m","_lat":28.400781,"_lng":77.008694}},{"type":"Feature","geometry":{"type":"LineString","coordinates":[[77.0076655,28.4007659],[77.0076765,28.4008192]]},"properties":{"_s":"L4_line","_l":"CH 9,900","Chainage":"9,900 m","_lat":28.400891,"_lng":77.007696}},{"type":"Feature","geometry":{"type":"LineString","coordinates":[[77.0066619,28.4009288],[77.0066729,28.400982]]},"properties":{"_s":"L4_line","_l":"CH 10,000","Chainage":"10,000 m","_lat":28.401054,"_lng":77.006692}},{"type":"Feature","geometry":{"type":"LineString","coordinates":[[77.0056582,28.4010886],[77.005668,28.4011421]]},"properties":{"_s":"L4_line","_l":"CH 10,100","Chainage":"10,100 m","_lat":28.401214,"_lng":77.005686}},{"type":"Feature","geometry":{"type":"LineString","coordinates":[[77.0046489,28.4012177],[77.0046575,28.4012713]]},"properties":{"_s":"L4_line","_l":"CH 10,200","Chainage":"10,200 m","_lat":28.401344,"_lng":77.004673}},{"type":"Feature","geometry":{"type":"LineString","coordinates":[[77.0036386,28.4013446],[77.0036474,28.4013981]]},"properties":{"_s":"L4_line","_l":"CH 10,300","Chainage":"10,300 m","_lat":28.401471,"_lng":77.003664}},{"type":"Feature","geometry":{"type":"LineString","coordinates":[[77.0026362,28.4015223],[77.0026504,28.401575]]},"properties":{"_s":"L4_line","_l":"CH 10,400","Chainage":"10,400 m","_lat":28.401646,"_lng":77.002674}},{"type":"Feature","geometry":{"type":"LineString","coordinates":[[77.0016435,28.4017311],[77.0016576,28.4017837]]},"properties":{"_s":"L4_line","_l":"CH 10,500","Chainage":"10,500 m","_lat":28.401855,"_lng":77.001681}},{"type":"Feature","geometry":{"type":"LineString","coordinates":[[77.0006508,28.4019398],[77.0006649,28.4019925]]},"properties":{"_s":"L4_line","_l":"CH 10,600","Chainage":"10,600 m","_lat":28.402064,"_lng":77.000688}},{"type":"Feature","geometry":{"type":"LineString","coordinates":[[76.999658,28.4021491],[76.9996727,28.4022017]]},"properties":{"_s":"L4_line","_l":"CH 10,700","Chainage":"10,700 m","_lat":28.402273,"_lng":76.999697}},{"type":"Feature","geometry":{"type":"LineString","coordinates":[[76.9986822,28.4024193],[76.9987024,28.4024704]]},"properties":{"_s":"L4_line","_l":"CH 10,800","Chainage":"10,800 m","_lat":28.402539,"_lng":76.998734}},{"type":"Feature","geometry":{"type":"LineString","coordinates":[[76.9977169,28.4027094],[76.9977354,28.402761]]},"properties":{"_s":"L4_line","_l":"CH 10,900","Chainage":"10,900 m","_lat":28.40283,"_lng":76.997765}},{"type":"Feature","geometry":{"type":"LineString","coordinates":[[76.9967436,28.40298],[76.9967619,28.4030317]]},"properties":{"_s":"L4_line","_l":"CH 11,000","Chainage":"11,000 m","_lat":28.403101,"_lng":76.996791}},{"type":"Feature","geometry":{"type":"LineString","coordinates":[[76.9957709,28.4032557],[76.9957915,28.4033067]]},"properties":{"_s":"L4_line","_l":"CH 11,100","Chainage":"11,100 m","_lat":28.403375,"_lng":76.995824}},{"type":"Feature","geometry":{"type":"LineString","coordinates":[[76.9948286,28.403606],[76.9948534,28.4036555]]},"properties":{"_s":"L4_line","_l":"CH 11,200","Chainage":"11,200 m","_lat":28.403722,"_lng":76.994891}},{"type":"Feature","geometry":{"type":"LineString","coordinates":[[76.9938953,28.4039708],[76.9939201,28.4040203]]},"properties":{"_s":"L4_line","_l":"CH 11,300","Chainage":"11,300 m","_lat":28.404086,"_lng":76.993958}},{"type":"Feature","geometry":{"type":"LineString","coordinates":[[76.9929639,28.4043408],[76.9929901,28.4043897]]},"properties":{"_s":"L4_line","_l":"CH 11,400","Chainage":"11,400 m","_lat":28.404455,"_lng":76.99303}},{"type":"Feature","geometry":{"type":"LineString","coordinates":[[76.9920438,28.4047312],[76.9920703,28.40478]]},"properties":{"_s":"L4_line","_l":"CH 11,500","Chainage":"11,500 m","_lat":28.404845,"_lng":76.99211}},{"type":"Feature","geometry":{"type":"LineString","coordinates":[[76.9911239,28.4051217],[76.9911504,28.4051705]]},"properties":{"_s":"L4_line","_l":"CH 11,600","Chainage":"11,600 m","_lat":28.405236,"_lng":76.991191}},{"type":"Feature","geometry":{"type":"LineString","coordinates":[[76.990204,28.4055122],[76.9902305,28.405561]]},"properties":{"_s":"L4_line","_l":"CH 11,700","Chainage":"11,700 m","_lat":28.405626,"_lng":76.990271}},{"type":"Feature","geometry":{"type":"LineString","coordinates":[[76.989284,28.405902],[76.9893101,28.405951]]},"properties":{"_s":"L4_line","_l":"CH 11,800","Chainage":"11,800 m","_lat":28.406016,"_lng":76.98935}},{"type":"Feature","geometry":{"type":"LineString","coordinates":[[76.9883575,28.406279],[76.9883825,28.4063284]]},"properties":{"_s":"L4_line","_l":"CH 11,900","Chainage":"11,900 m","_lat":28.406394,"_lng":76.988421}},{"type":"Feature","geometry":{"type":"LineString","coordinates":[[76.9873986,28.4065718],[76.9874141,28.4066242]]},"properties":{"_s":"L4_line","_l":"CH 12,000","Chainage":"12,000 m","_lat":28.406695,"_lng":76.987439}},{"type":"Feature","geometry":{"type":"LineString","coordinates":[[76.9864188,28.406835],[76.9864448,28.406884]]},"properties":{"_s":"L4_line","_l":"CH 12,100","Chainage":"12,100 m","_lat":28.406949,"_lng":76.986484}},{"type":"Feature","geometry":{"type":"LineString","coordinates":[[76.9855888,28.4073656],[76.9856284,28.4074069]]},"properties":{"_s":"L4_line","_l":"CH 12,200","Chainage":"12,200 m","_lat":28.407461,"_lng":76.985686}},{"type":"Feature","geometry":{"type":"LineString","coordinates":[[76.9848101,28.4079487],[76.9848497,28.40799]]},"properties":{"_s":"L4_line","_l":"CH 12,300","Chainage":"12,300 m","_lat":28.408044,"_lng":76.984907}},{"type":"Feature","geometry":{"type":"LineString","coordinates":[[76.9840314,28.4085322],[76.9840715,28.4085732]]},"properties":{"_s":"L4_line","_l":"CH 12,400","Chainage":"12,400 m","_lat":28.408627,"_lng":76.984129}},{"type":"Feature","geometry":{"type":"LineString","coordinates":[[76.9834802,28.4092878],[76.9835403,28.4092982]]},"properties":{"_s":"L4_line","_l":"CH 12,500","Chainage":"12,500 m","_lat":28.409309,"_lng":76.983623}},{"type":"Feature","geometry":{"type":"LineString","coordinates":[[76.9834827,28.4101939],[76.9835439,28.4101912]]},"properties":{"_s":"L4_line","_l":"CH 12,600","Chainage":"12,600 m","_lat":28.410184,"_lng":76.983627}},{"type":"Feature","geometry":{"type":"LineString","coordinates":[[76.9835333,28.411095],[76.9835945,28.4110923]]},"properties":{"_s":"L4_line","_l":"CH 12,700","Chainage":"12,700 m","_lat":28.411085,"_lng":76.983678}},{"type":"Feature","geometry":{"type":"LineString","coordinates":[[76.9835839,28.4119962],[76.9836451,28.4119935]]},"properties":{"_s":"L4_line","_l":"CH 12,800","Chainage":"12,800 m","_lat":28.411986,"_lng":76.983728}},{"type":"Feature","geometry":{"type":"LineString","coordinates":[[76.9836346,28.4128973],[76.9836957,28.4128946]]},"properties":{"_s":"L4_line","_l":"CH 12,900","Chainage":"12,900 m","_lat":28.412887,"_lng":76.983779}},{"type":"Feature","geometry":{"type":"LineString","coordinates":[[76.9836852,28.4137985],[76.9837463,28.4137958]]},"properties":{"_s":"L4_line","_l":"CH 13,000","Chainage":"13,000 m","_lat":28.413788,"_lng":76.98383}},{"type":"Feature","geometry":{"type":"LineString","coordinates":[[76.9837358,28.4146996],[76.9837969,28.4146969]]},"properties":{"_s":"L4_line","_l":"CH 13,100","Chainage":"13,100 m","_lat":28.41469,"_lng":76.98388}},{"type":"Feature","geometry":{"type":"LineString","coordinates":[[76.9836681,28.4155822],[76.9837253,28.4156016]]},"properties":{"_s":"L4_line","_l":"CH 13,200","Chainage":"13,200 m","_lat":28.415625,"_lng":76.983805}},{"type":"Feature","geometry":{"type":"LineString","coordinates":[[76.9830123,28.4162362],[76.9830486,28.4162798]]},"properties":{"_s":"L4_line","_l":"CH 13,300","Chainage":"13,300 m","_lat":28.416337,"_lng":76.983102}},{"type":"Feature","geometry":{"type":"LineString","coordinates":[[76.9821903,28.4167709],[76.9822266,28.4168145]]},"properties":{"_s":"L4_line","_l":"CH 13,400","Chainage":"13,400 m","_lat":28.416872,"_lng":76.98228}},{"type":"Feature","geometry":{"type":"LineString","coordinates":[[76.9813683,28.4173056],[76.9814046,28.4173492]]},"properties":{"_s":"L4_line","_l":"CH 13,500","Chainage":"13,500 m","_lat":28.417407,"_lng":76.981458}},{"type":"Feature","geometry":{"type":"LineString","coordinates":[[76.9805463,28.4178403],[76.9805826,28.4178839]]},"properties":{"_s":"L4_line","_l":"CH 13,600","Chainage":"13,600 m","_lat":28.417941,"_lng":76.980636}},{"type":"Feature","geometry":{"type":"LineString","coordinates":[[76.9797243,28.418375],[76.9797606,28.4184186]]},"properties":{"_s":"L4_line","_l":"CH 13,700","Chainage":"13,700 m","_lat":28.418476,"_lng":76.979814}},{"type":"Feature","geometry":{"type":"LineString","coordinates":[[76.9789577,28.4189756],[76.9790069,28.4190079]]},"properties":{"_s":"L4_line","_l":"CH 13,800","Chainage":"13,800 m","_lat":28.419049,"_lng":76.979077}},{"type":"Feature","geometry":{"type":"LineString","coordinates":[[76.9784945,28.4197833],[76.9785506,28.4198051]]},"properties":{"_s":"L4_line","_l":"CH 13,900","Chainage":"13,900 m","_lat":28.419831,"_lng":76.978629}},{"type":"Feature","geometry":{"type":"LineString","coordinates":[[76.9780841,28.4206094],[76.9781402,28.4206312]]},"properties":{"_s":"L4_line","_l":"CH 14,000","Chainage":"14,000 m","_lat":28.420658,"_lng":76.978218}},{"type":"Feature","geometry":{"type":"LineString","coordinates":[[76.9776736,28.4214355],[76.9777297,28.4214573]]},"properties":{"_s":"L4_line","_l":"CH 14,100","Chainage":"14,100 m","_lat":28.421484,"_lng":76.977808}},{"type":"Feature","geometry":{"type":"LineString","coordinates":[[76.9772632,28.4222616],[76.9773192,28.4222833]]},"properties":{"_s":"L4_line","_l":"CH 14,200","Chainage":"14,200 m","_lat":28.42231,"_lng":76.977398}},{"type":"Feature","geometry":{"type":"LineString","coordinates":[[76.9768527,28.4230876],[76.9769088,28.4231094]]},"properties":{"_s":"L4_line","_l":"CH 14,300","Chainage":"14,300 m","_lat":28.423136,"_lng":76.976987}},{"type":"Feature","geometry":{"type":"LineString","coordinates":[[76.9764423,28.4239137],[76.9764983,28.4239355]]},"properties":{"_s":"L4_line","_l":"CH 14,400","Chainage":"14,400 m","_lat":28.423962,"_lng":76.976577}},{"type":"Feature","geometry":{"type":"LineString","coordinates":[[76.975951,28.4246873],[76.9759941,28.4247258]]},"properties":{"_s":"L4_line","_l":"CH 14,500","Chainage":"14,500 m","_lat":28.424776,"_lng":76.976056}},{"type":"Feature","geometry":{"type":"LineString","coordinates":[[76.9750466,28.4250147],[76.9750506,28.4250688]]},"properties":{"_s":"L4_line","_l":"CH 14,600","Chainage":"14,600 m","_lat":28.425142,"_lng":76.97506}},{"type":"Feature","geometry":{"type":"LineString","coordinates":[[76.9740275,28.4250454],[76.9740295,28.4250995]]},"properties":{"_s":"L4_line","_l":"CH 14,700","Chainage":"14,700 m","_lat":28.425173,"_lng":76.974036}},{"type":"Feature","geometry":{"type":"LineString","coordinates":[[76.9730074,28.4250741],[76.9730094,28.4251282]]},"properties":{"_s":"L4_line","_l":"CH 14,800","Chainage":"14,800 m","_lat":28.425202,"_lng":76.973016}},{"type":"Feature","geometry":{"type":"LineString","coordinates":[[76.9719873,28.4251027],[76.9719892,28.4251568]]},"properties":{"_s":"L4_line","_l":"CH 14,900","Chainage":"14,900 m","_lat":28.425231,"_lng":76.971996}},{"type":"Feature","geometry":{"type":"LineString","coordinates":[[76.9709672,28.4251314],[76.9709691,28.4251855]]},"properties":{"_s":"L4_line","_l":"CH 15,000","Chainage":"15,000 m","_lat":28.425259,"_lng":76.970976}},{"type":"Feature","geometry":{"type":"LineString","coordinates":[[76.9699471,28.42516],[76.969949,28.4252141]]},"properties":{"_s":"L4_line","_l":"CH 15,100","Chainage":"15,100 m","_lat":28.425288,"_lng":76.969956}},{"type":"Feature","geometry":{"type":"LineString","coordinates":[[76.968927,28.4251887],[76.9689289,28.4252428]]},"properties":{"_s":"L4_line","_l":"CH 15,200","Chainage":"15,200 m","_lat":28.425317,"_lng":76.968936}},{"type":"Feature","geometry":{"type":"LineString","coordinates":[[76.9679068,28.4252173],[76.9679088,28.4252714]]},"properties":{"_s":"L4_line","_l":"CH 15,300","Chainage":"15,300 m","_lat":28.425345,"_lng":76.967916}},{"type":"Feature","geometry":{"type":"LineString","coordinates":[[76.9668867,28.4252459],[76.9668887,28.4253]]},"properties":{"_s":"L4_line","_l":"CH 15,400","Chainage":"15,400 m","_lat":28.425374,"_lng":76.966896}},{"type":"Feature","geometry":{"type":"LineString","coordinates":[[76.9658666,28.4252745],[76.9658686,28.4253286]]},"properties":{"_s":"L4_line","_l":"CH 15,500","Chainage":"15,500 m","_lat":28.425403,"_lng":76.965875}},{"type":"Feature","geometry":{"type":"LineString","coordinates":[[76.9648465,28.4253031],[76.9648484,28.4253572]]},"properties":{"_s":"L4_line","_l":"CH 15,600","Chainage":"15,600 m","_lat":28.425431,"_lng":76.964855}},{"type":"Feature","geometry":{"type":"LineString","coordinates":[[76.9638264,28.4253317],[76.9638283,28.4253858]]},"properties":{"_s":"L4_line","_l":"CH 15,700","Chainage":"15,700 m","_lat":28.42546,"_lng":76.963835}},{"type":"Feature","geometry":{"type":"LineString","coordinates":[[76.9628299,28.4252541],[76.9628067,28.4253042]]},"properties":{"_s":"L4_line","_l":"CH 15,800","Chainage":"15,800 m","_lat":28.425374,"_lng":76.962779}},{"type":"Feature","geometry":{"type":"LineString","coordinates":[[76.9621452,28.424644],[76.9620884,28.4246642]]},"properties":{"_s":"L4_line","_l":"CH 15,900","Chainage":"15,900 m","_lat":28.424695,"_lng":76.962012}},{"type":"Feature","geometry":{"type":"LineString","coordinates":[[76.9621204,28.4237698],[76.9620602,28.4237601]]},"properties":{"_s":"L4_line","_l":"CH 16,000","Chainage":"16,000 m","_lat":28.42375,"_lng":76.961977}},{"type":"Feature","geometry":{"type":"LineString","coordinates":[[76.9623044,28.4228824],[76.9622442,28.4228726]]},"properties":{"_s":"L4_line","_l":"CH 16,100","Chainage":"16,100 m","_lat":28.422863,"_lng":76.962161}},{"type":"Feature","geometry":{"type":"LineString","coordinates":[[76.9624885,28.4219949],[76.9624282,28.4219851]]},"properties":{"_s":"L4_line","_l":"CH 16,200","Chainage":"16,200 m","_lat":28.421975,"_lng":76.962345}},{"type":"Feature","geometry":{"type":"LineString","coordinates":[[76.9626796,28.4211097],[76.9626199,28.4210977]]},"properties":{"_s":"L4_line","_l":"CH 16,300","Chainage":"16,300 m","_lat":28.421085,"_lng":76.962537}},{"type":"Feature","geometry":{"type":"LineString","coordinates":[[76.9629658,28.4202463],[76.9629076,28.4202296]]},"properties":{"_s":"L4_line","_l":"CH 16,400","Chainage":"16,400 m","_lat":28.42021,"_lng":76.962827}},{"type":"Feature","geometry":{"type":"LineString","coordinates":[[76.9632801,28.4193879],[76.9632218,28.4193712]]},"properties":{"_s":"L4_line","_l":"CH 16,500","Chainage":"16,500 m","_lat":28.419352,"_lng":76.963141}},{"type":"Feature","geometry":{"type":"LineString","coordinates":[[76.9635943,28.4185295],[76.9635361,28.4185128]]},"properties":{"_s":"L4_line","_l":"CH 16,600","Chainage":"16,600 m","_lat":28.418494,"_lng":76.963455}},{"type":"Feature","geometry":{"type":"LineString","coordinates":[[76.9638501,28.417652],[76.9637889,28.4176504]]},"properties":{"_s":"L4_line","_l":"CH 16,700","Chainage":"16,700 m","_lat":28.417652,"_lng":76.963705}},{"type":"Feature","geometry":{"type":"LineString","coordinates":[[76.9634827,28.4168155],[76.9634388,28.4168532]]},"properties":{"_s":"L4_line","_l":"CH 16,800","Chainage":"16,800 m","_lat":28.416907,"_lng":76.963382}},{"type":"Feature","geometry":{"type":"LineString","coordinates":[[76.962596,28.4163626],[76.9625708,28.416412]]},"properties":{"_s":"L4_line","_l":"CH 16,900","Chainage":"16,900 m","_lat":28.416481,"_lng":76.96254}},{"type":"Feature","geometry":{"type":"LineString","coordinates":[[76.9616663,28.4159906],[76.961641,28.4160399]]},"properties":{"_s":"L4_line","_l":"CH 17,000","Chainage":"17,000 m","_lat":28.416109,"_lng":76.96161}},{"type":"Feature","geometry":{"type":"LineString","coordinates":[[76.9607443,28.4156083],[76.9607151,28.4156559]]},"properties":{"_s":"L4_line","_l":"CH 17,100","Chainage":"17,100 m","_lat":28.415723,"_lng":76.960679}},{"type":"Feature","geometry":{"type":"LineString","coordinates":[[76.9599151,28.4150933],[76.9598761,28.4151351]]},"properties":{"_s":"L4_line","_l":"CH 17,200","Chainage":"17,200 m","_lat":28.415195,"_lng":76.959826}},{"type":"Feature","geometry":{"type":"LineString","coordinates":[[76.9591265,28.4145201],[76.9590882,28.4145623]]},"properties":{"_s":"L4_line","_l":"CH 17,300","Chainage":"17,300 m","_lat":28.414622,"_lng":76.959039}},{"type":"Feature","geometry":{"type":"LineString","coordinates":[[76.9582781,28.4140143],[76.9582466,28.4140608]]},"properties":{"_s":"L4_line","_l":"CH 17,400","Chainage":"17,400 m","_lat":28.414126,"_lng":76.958207}},{"type":"Feature","geometry":{"type":"LineString","coordinates":[[76.9574028,28.4135505],[76.9573713,28.4135969]]},"properties":{"_s":"L4_line","_l":"CH 17,500","Chainage":"17,500 m","_lat":28.413662,"_lng":76.957332}},{"type":"Feature","geometry":{"type":"LineString","coordinates":[[76.9565275,28.4130866],[76.956496,28.413133]]},"properties":{"_s":"L4_line","_l":"CH 17,600","Chainage":"17,600 m","_lat":28.413198,"_lng":76.956457}},{"type":"Feature","geometry":{"type":"LineString","coordinates":[[76.9556521,28.4126227],[76.9556207,28.4126692]]},"properties":{"_s":"L4_line","_l":"CH 17,700","Chainage":"17,700 m","_lat":28.412735,"_lng":76.955581}},{"type":"Feature","geometry":{"type":"LineString","coordinates":[[76.9547768,28.4121589],[76.9547453,28.4122053]]},"properties":{"_s":"L4_line","_l":"CH 17,800","Chainage":"17,800 m","_lat":28.412271,"_lng":76.954706}},{"type":"Feature","geometry":{"type":"LineString","coordinates":[[76.9539015,28.411695],[76.95387,28.4117414]]},"properties":{"_s":"L4_line","_l":"CH 17,900","Chainage":"17,900 m","_lat":28.411807,"_lng":76.953831}},{"type":"Feature","geometry":{"type":"LineString","coordinates":[[76.9530262,28.4112311],[76.9529947,28.4112775]]},"properties":{"_s":"L4_line","_l":"CH 18,000","Chainage":"18,000 m","_lat":28.411343,"_lng":76.952955}},{"type":"Feature","geometry":{"type":"LineString","coordinates":[[76.9521509,28.4107672],[76.9521195,28.4108136]]},"properties":{"_s":"L4_line","_l":"CH 18,100","Chainage":"18,100 m","_lat":28.410879,"_lng":76.95208}},{"type":"Feature","geometry":{"type":"LineString","coordinates":[[76.9512757,28.4103033],[76.9512442,28.4103497]]},"properties":{"_s":"L4_line","_l":"CH 18,200","Chainage":"18,200 m","_lat":28.410415,"_lng":76.951205}},{"type":"Feature","geometry":{"type":"LineString","coordinates":[[76.9504004,28.4098394],[76.9503689,28.4098858]]},"properties":{"_s":"L4_line","_l":"CH 18,300","Chainage":"18,300 m","_lat":28.409951,"_lng":76.950329}},{"type":"Feature","geometry":{"type":"LineString","coordinates":[[76.9495251,28.4093755],[76.9494936,28.4094219]]},"properties":{"_s":"L4_line","_l":"CH 18,400","Chainage":"18,400 m","_lat":28.409487,"_lng":76.949454}},{"type":"Feature","geometry":{"type":"LineString","coordinates":[[76.9486499,28.4089116],[76.9486184,28.408958]]},"properties":{"_s":"L4_line","_l":"CH 18,500","Chainage":"18,500 m","_lat":28.409023,"_lng":76.948579}},{"type":"Feature","geometry":{"type":"LineString","coordinates":[[76.9477746,28.4084477],[76.9477431,28.4084941]]},"properties":{"_s":"L4_line","_l":"CH 18,600","Chainage":"18,600 m","_lat":28.408559,"_lng":76.947704}},{"type":"Feature","geometry":{"type":"LineString","coordinates":[[76.9468994,28.4079837],[76.9468679,28.4080302]]},"properties":{"_s":"L4_line","_l":"CH 18,700","Chainage":"18,700 m","_lat":28.408096,"_lng":76.946828}},{"type":"Feature","geometry":{"type":"LineString","coordinates":[[76.9460241,28.4075198],[76.9459926,28.4075662]]},"properties":{"_s":"L4_line","_l":"CH 18,800","Chainage":"18,800 m","_lat":28.407632,"_lng":76.945953}},{"type":"Feature","geometry":{"type":"LineString","coordinates":[[76.9451489,28.4070558],[76.9451174,28.4071023]]},"properties":{"_s":"L4_line","_l":"CH 18,900","Chainage":"18,900 m","_lat":28.407168,"_lng":76.945078}},{"type":"Feature","geometry":{"type":"LineString","coordinates":[[76.9442737,28.4065919],[76.9442422,28.4066383]]},"properties":{"_s":"L4_line","_l":"CH 19,000","Chainage":"19,000 m","_lat":28.406704,"_lng":76.944203}},{"type":"Feature","geometry":{"type":"LineString","coordinates":[[76.9433985,28.4061279],[76.943367,28.4061744]]},"properties":{"_s":"L4_line","_l":"CH 19,100","Chainage":"19,100 m","_lat":28.40624,"_lng":76.943328}},{"type":"Feature","geometry":{"type":"LineString","coordinates":[[76.9425233,28.405664],[76.9424918,28.4057104]]},"properties":{"_s":"L4_line","_l":"CH 19,200","Chainage":"19,200 m","_lat":28.405776,"_lng":76.942452}},{"type":"Feature","geometry":{"type":"LineString","coordinates":[[76.9416406,28.4052101],[76.9416104,28.4052571]]},"properties":{"_s":"L4_line","_l":"CH 19,300","Chainage":"19,300 m","_lat":28.405323,"_lng":76.941573}},{"type":"Feature","geometry":{"type":"LineString","coordinates":[[76.9407537,28.404764],[76.9407234,28.404811]]},"properties":{"_s":"L4_line","_l":"CH 19,400","Chainage":"19,400 m","_lat":28.404877,"_lng":76.940686}},{"type":"Feature","geometry":{"type":"LineString","coordinates":[[76.9398667,28.4043178],[76.9398364,28.4043649]]},"properties":{"_s":"L4_line","_l":"CH 19,500","Chainage":"19,500 m","_lat":28.404431,"_lng":76.939799}},{"type":"Feature","geometry":{"type":"LineString","coordinates":[[76.9389797,28.4038717],[76.9389495,28.4039187]]},"properties":{"_s":"L4_line","_l":"CH 19,600","Chainage":"19,600 m","_lat":28.403985,"_lng":76.938912}},{"type":"Feature","geometry":{"type":"LineString","coordinates":[[76.9380928,28.4034255],[76.9380625,28.4034726]]},"properties":{"_s":"L4_line","_l":"CH 19,700","Chainage":"19,700 m","_lat":28.403539,"_lng":76.938025}},{"type":"Feature","geometry":{"type":"LineString","coordinates":[[76.9372058,28.4029794],[76.9371756,28.4030264]]},"properties":{"_s":"L4_line","_l":"CH 19,800","Chainage":"19,800 m","_lat":28.403093,"_lng":76.937138}},{"type":"Feature","geometry":{"type":"LineString","coordinates":[[76.9363189,28.4025332],[76.9362886,28.4025803]]},"properties":{"_s":"L4_line","_l":"CH 19,900","Chainage":"19,900 m","_lat":28.402646,"_lng":76.936251}},{"type":"Feature","geometry":{"type":"LineString","coordinates":[[76.935432,28.402087],[76.9354017,28.4021341]]},"properties":{"_s":"L4_line","_l":"CH 20,000","Chainage":"20,000 m","_lat":28.4022,"_lng":76.935364}},{"type":"Feature","geometry":{"type":"LineString","coordinates":[[76.934545,28.4016409],[76.9345148,28.4016879]]},"properties":{"_s":"L4_line","_l":"CH 20,100","Chainage":"20,100 m","_lat":28.401754,"_lng":76.934477}},{"type":"Feature","geometry":{"type":"LineString","coordinates":[[76.9336581,28.4011947],[76.9336278,28.4012417]]},"properties":{"_s":"L4_line","_l":"CH 20,200","Chainage":"20,200 m","_lat":28.401308,"_lng":76.93359}},{"type":"Feature","geometry":{"type":"LineString","coordinates":[[76.9327712,28.4007485],[76.9327409,28.4007955]]},"properties":{"_s":"L4_line","_l":"CH 20,300","Chainage":"20,300 m","_lat":28.400862,"_lng":76.932703}},{"type":"Feature","geometry":{"type":"LineString","coordinates":[[76.9318843,28.4003023],[76.931854,28.4003493]]},"properties":{"_s":"L4_line","_l":"CH 20,400","Chainage":"20,400 m","_lat":28.400416,"_lng":76.931816}},{"type":"Feature","geometry":{"type":"LineString","coordinates":[[76.9309974,28.3998561],[76.9309671,28.3999031]]},"properties":{"_s":"L4_line","_l":"CH 20,500","Chainage":"20,500 m","_lat":28.399969,"_lng":76.930929}},{"type":"Feature","geometry":{"type":"LineString","coordinates":[[76.9301105,28.3994099],[76.9300802,28.3994569]]},"properties":{"_s":"L4_line","_l":"CH 20,600","Chainage":"20,600 m","_lat":28.399523,"_lng":76.930043}},{"type":"Feature","geometry":{"type":"LineString","coordinates":[[76.9292294,28.3989557],[76.9291982,28.3990022]]},"properties":{"_s":"L4_line","_l":"CH 20,700","Chainage":"20,700 m","_lat":28.399068,"_lng":76.929159}},{"type":"Feature","geometry":{"type":"LineString","coordinates":[[76.9283518,28.3984954],[76.9283206,28.398542]]},"properties":{"_s":"L4_line","_l":"CH 20,800","Chainage":"20,800 m","_lat":28.398608,"_lng":76.928281}},{"type":"Feature","geometry":{"type":"LineString","coordinates":[[76.9274741,28.3980352],[76.9274429,28.3980817]]},"properties":{"_s":"L4_line","_l":"CH 20,900","Chainage":"20,900 m","_lat":28.398147,"_lng":76.927404}},{"type":"Feature","geometry":{"type":"LineString","coordinates":[[76.9265965,28.3975749],[76.9265652,28.3976215]]},"properties":{"_s":"L4_line","_l":"CH 21,000","Chainage":"21,000 m","_lat":28.397687,"_lng":76.926526}},{"type":"Feature","geometry":{"type":"LineString","coordinates":[[76.9257188,28.3971147],[76.9256876,28.3971612]]},"properties":{"_s":"L4_line","_l":"CH 21,100","Chainage":"21,100 m","_lat":28.397227,"_lng":76.925649}},{"type":"Feature","geometry":{"type":"LineString","coordinates":[[76.9248412,28.3966544],[76.92481,28.396701]]},"properties":{"_s":"L4_line","_l":"CH 21,200","Chainage":"21,200 m","_lat":28.396766,"_lng":76.924771}},{"type":"Feature","geometry":{"type":"LineString","coordinates":[[76.9239636,28.3961941],[76.9239323,28.3962407]]},"properties":{"_s":"L4_line","_l":"CH 21,300","Chainage":"21,300 m","_lat":28.396306,"_lng":76.923893}},{"type":"Feature","geometry":{"type":"LineString","coordinates":[[76.9230859,28.3957339],[76.9230547,28.3957804]]},"properties":{"_s":"L4_line","_l":"CH 21,400","Chainage":"21,400 m","_lat":28.395846,"_lng":76.923016}},{"type":"Feature","geometry":{"type":"LineString","coordinates":[[76.9222083,28.3952736],[76.9221771,28.3953201]]},"properties":{"_s":"L4_line","_l":"CH 21,500","Chainage":"21,500 m","_lat":28.395386,"_lng":76.922138}},{"type":"Feature","geometry":{"type":"LineString","coordinates":[[76.9213307,28.3948133],[76.9212995,28.3948599]]},"properties":{"_s":"L4_line","_l":"CH 21,600","Chainage":"21,600 m","_lat":28.394925,"_lng":76.921261}},{"type":"Feature","geometry":{"type":"LineString","coordinates":[[76.9204531,28.394353],[76.9204219,28.3943996]]},"properties":{"_s":"L4_line","_l":"CH 21,700","Chainage":"21,700 m","_lat":28.394465,"_lng":76.920383}},{"type":"Feature","geometry":{"type":"LineString","coordinates":[[76.9195755,28.3938927],[76.9195443,28.3939393]]},"properties":{"_s":"L4_line","_l":"CH 21,800","Chainage":"21,800 m","_lat":28.394005,"_lng":76.919505}},{"type":"Feature","geometry":{"type":"LineString","coordinates":[[76.918698,28.3934324],[76.9186667,28.393479]]},"properties":{"_s":"L4_line","_l":"CH 21,900","Chainage":"21,900 m","_lat":28.393545,"_lng":76.918628}},{"type":"Feature","geometry":{"type":"LineString","coordinates":[[76.9178204,28.3929721],[76.9177891,28.3930186]]},"properties":{"_s":"L4_line","_l":"CH 22,000","Chainage":"22,000 m","_lat":28.393084,"_lng":76.91775}},{"type":"Feature","geometry":{"type":"LineString","coordinates":[[76.9169503,28.3925035],[76.9169163,28.3925485]]},"properties":{"_s":"L4_line","_l":"CH 22,100","Chainage":"22,100 m","_lat":28.392612,"_lng":76.916873}},{"type":"Feature","geometry":{"type":"LineString","coordinates":[[76.9161205,28.39198],[76.9160847,28.3920239]]},"properties":{"_s":"L4_line","_l":"CH 22,200","Chainage":"22,200 m","_lat":28.392086,"_lng":76.916039}},{"type":"Feature","geometry":{"type":"LineString","coordinates":[[76.9152929,28.3914523],[76.9152571,28.3914962]]},"properties":{"_s":"L4_line","_l":"CH 22,300","Chainage":"22,300 m","_lat":28.391558,"_lng":76.915212}},{"type":"Feature","geometry":{"type":"LineString","coordinates":[[76.9144653,28.3909246],[76.9144295,28.3909685]]},"properties":{"_s":"L4_line","_l":"CH 22,400","Chainage":"22,400 m","_lat":28.391031,"_lng":76.914384}},{"type":"Feature","geometry":{"type":"LineString","coordinates":[[76.9136973,28.3903441],[76.9136504,28.3903788]]},"properties":{"_s":"L4_line","_l":"CH 22,500","Chainage":"22,500 m","_lat":28.390429,"_lng":76.913589}},{"type":"Feature","geometry":{"type":"LineString","coordinates":[[76.9132197,28.3895645],[76.9131612,28.3895804]]},"properties":{"_s":"L4_line","_l":"CH 22,600","Chainage":"22,600 m","_lat":28.389606,"_lng":76.913082}},{"type":"Feature","geometry":{"type":"LineString","coordinates":[[76.9131124,28.38868],[76.9130512,28.3886783]]},"properties":{"_s":"L4_line","_l":"CH 22,700","Chainage":"22,700 m","_lat":28.38868,"_lng":76.912967}},{"type":"Feature","geometry":{"type":"LineString","coordinates":[[76.9131488,28.3877784],[76.9130876,28.3877764]]},"properties":{"_s":"L4_line","_l":"CH 22,800","Chainage":"22,800 m","_lat":28.387777,"_lng":76.913004}},{"type":"Feature","geometry":{"type":"LineString","coordinates":[[76.9131853,28.3868766],[76.9131241,28.3868747]]},"properties":{"_s":"L4_line","_l":"CH 22,900","Chainage":"22,900 m","_lat":28.386876,"_lng":76.91304}},{"type":"Feature","geometry":{"type":"LineString","coordinates":[[76.9132255,28.3859753],[76.9131644,28.3859729]]},"properties":{"_s":"L4_line","_l":"CH 23,000","Chainage":"23,000 m","_lat":28.385973,"_lng":76.913081}},{"type":"Feature","geometry":{"type":"LineString","coordinates":[[76.9132712,28.3850739],[76.91321,28.3850715]]},"properties":{"_s":"L4_line","_l":"CH 23,100","Chainage":"23,100 m","_lat":28.385072,"_lng":76.913126}},{"type":"Feature","geometry":{"type":"LineString","coordinates":[[76.9132942,28.3841694],[76.9132331,28.3841735]]},"properties":{"_s":"L4_line","_l":"CH 23,200","Chainage":"23,200 m","_lat":28.384183,"_lng":76.91315}},{"type":"Feature","geometry":{"type":"LineString","coordinates":[[76.9130226,28.3832964],[76.9129656,28.3833161]]},"properties":{"_s":"L4_line","_l":"CH 23,300","Chainage":"23,300 m","_lat":28.383347,"_lng":76.912889}},{"type":"Feature","geometry":{"type":"LineString","coordinates":[[76.9127144,28.3824418],[76.9126545,28.3824529]]},"properties":{"_s":"L4_line","_l":"CH 23,400","Chainage":"23,400 m","_lat":28.382472,"_lng":76.912573}},{"type":"Feature","geometry":{"type":"LineString","coordinates":[[76.9126177,28.3815509],[76.9125565,28.38155]]},"properties":{"_s":"L4_line","_l":"CH 23,500","Chainage":"23,500 m","_lat":28.381553,"_lng":76.912473}},{"type":"Feature","geometry":{"type":"LineString","coordinates":[[76.9126917,28.3806549],[76.9126313,28.3806462]]},"properties":{"_s":"L4_line","_l":"CH 23,600","Chainage":"23,600 m","_lat":28.380638,"_lng":76.912548}},{"type":"Feature","geometry":{"type":"LineString","coordinates":[[76.9131855,28.3799131],[76.9131489,28.3798697]]},"properties":{"_s":"L4_line","_l":"CH 23,700","Chainage":"23,700 m","_lat":28.379813,"_lng":76.913095}},{"type":"Feature","geometry":{"type":"LineString","coordinates":[[76.9141344,28.3796828],[76.9141334,28.3796287]]},"properties":{"_s":"L4_line","_l":"CH 23,800","Chainage":"23,800 m","_lat":28.379555,"_lng":76.914128}},{"type":"Feature","geometry":{"type":"LineString","coordinates":[[76.9151544,28.3796701],[76.9151536,28.379616]]},"properties":{"_s":"L4_line","_l":"CH 23,900","Chainage":"23,900 m","_lat":28.379542,"_lng":76.915148}},{"type":"Feature","geometry":{"type":"LineString","coordinates":[[76.9161746,28.3796575],[76.9161737,28.3796033]]},"properties":{"_s":"L4_line","_l":"CH 24,000","Chainage":"24,000 m","_lat":28.379529,"_lng":76.916168}},{"type":"Feature","geometry":{"type":"LineString","coordinates":[[76.9171947,28.3796448],[76.9171938,28.3795906]]},"properties":{"_s":"L4_line","_l":"CH 24,100","Chainage":"24,100 m","_lat":28.379517,"_lng":76.917188}},{"type":"Feature","geometry":{"type":"LineString","coordinates":[[76.9182151,28.3796316],[76.9182135,28.3795775]]},"properties":{"_s":"L4_line","_l":"CH 24,200","Chainage":"24,200 m","_lat":28.379504,"_lng":76.918207}},{"type":"Feature","geometry":{"type":"LineString","coordinates":[[76.9191821,28.3793542],[76.9191429,28.3793126]]},"properties":{"_s":"L4_line","_l":"CH 24,300","Chainage":"24,300 m","_lat":28.379258,"_lng":76.919086}},{"type":"Feature","geometry":{"type":"LineString","coordinates":[[76.9196481,28.3785572],[76.9195872,28.378552]]},"properties":{"_s":"L4_line","_l":"CH 24,400","Chainage":"24,400 m","_lat":28.378549,"_lng":76.919504}},{"type":"Feature","geometry":{"type":"LineString","coordinates":[[76.9196478,28.3776525],[76.9195866,28.3776533]]},"properties":{"_s":"L4_line","_l":"CH 24,500","Chainage":"24,500 m","_lat":28.377658,"_lng":76.919503}},{"type":"Feature","geometry":{"type":"LineString","coordinates":[[76.9196329,28.3767503],[76.9195717,28.3767511]]},"properties":{"_s":"L4_line","_l":"CH 24,600","Chainage":"24,600 m","_lat":28.376756,"_lng":76.919488}},{"type":"Feature","geometry":{"type":"LineString","coordinates":[[76.9196179,28.3758481],[76.9195567,28.3758489]]},"properties":{"_s":"L4_line","_l":"CH 24,700","Chainage":"24,700 m","_lat":28.375854,"_lng":76.919473}},{"type":"Feature","geometry":{"type":"LineString","coordinates":[[76.919603,28.374946],[76.9195418,28.3749468]]},"properties":{"_s":"L4_line","_l":"CH 24,800","Chainage":"24,800 m","_lat":28.374952,"_lng":76.919458}},{"type":"Feature","geometry":{"type":"LineString","coordinates":[[76.9195881,28.3740438],[76.9195269,28.3740446]]},"properties":{"_s":"L4_line","_l":"CH 24,900","Chainage":"24,900 m","_lat":28.374049,"_lng":76.919443}},{"type":"Feature","geometry":{"type":"LineString","coordinates":[[76.919523,28.3731395],[76.9194639,28.3731536]]},"properties":{"_s":"L4_line","_l":"CH 25,000","Chainage":"25,000 m","_lat":28.373176,"_lng":76.919384}},{"type":"Feature","geometry":{"type":"LineString","coordinates":[[76.9188989,28.372432],[76.9188691,28.3724793]]},"properties":{"_s":"L4_line","_l":"CH 25,100","Chainage":"25,100 m","_lat":28.372546,"_lng":76.918832}},{"type":"Feature","geometry":{"type":"LineString","coordinates":[[76.9178928,28.3722819],[76.9178937,28.372336]]},"properties":{"_s":"L4_line","_l":"CH 25,200","Chainage":"25,200 m","_lat":28.37241,"_lng":76.917899}},{"type":"Feature","geometry":{"type":"LineString","coordinates":[[76.9168728,28.3722949],[76.9168737,28.372349]]},"properties":{"_s":"L4_line","_l":"CH 25,300","Chainage":"25,300 m","_lat":28.372423,"_lng":76.916879}},{"type":"Feature","geometry":{"type":"LineString","coordinates":[[76.9158528,28.3723079],[76.9158536,28.372362]]},"properties":{"_s":"L4_line","_l":"CH 25,400","Chainage":"25,400 m","_lat":28.372436,"_lng":76.915859}},{"type":"Feature","geometry":{"type":"LineString","coordinates":[[76.9148327,28.3723209],[76.9148336,28.372375]]},"properties":{"_s":"L4_line","_l":"CH 25,500","Chainage":"25,500 m","_lat":28.372449,"_lng":76.914839}},{"type":"Feature","geometry":{"type":"LineString","coordinates":[[76.9138127,28.3723339],[76.9138136,28.372388]]},"properties":{"_s":"L4_line","_l":"CH 25,600","Chainage":"25,600 m","_lat":28.372462,"_lng":76.913819}},{"type":"Feature","geometry":{"type":"LineString","coordinates":[[76.9127926,28.3723468],[76.9127935,28.372401]]},"properties":{"_s":"L4_line","_l":"CH 25,700","Chainage":"25,700 m","_lat":28.372475,"_lng":76.912799}},{"type":"Feature","geometry":{"type":"LineString","coordinates":[[76.9117726,28.3723598],[76.9117735,28.3724139]]},"properties":{"_s":"L4_line","_l":"CH 25,800","Chainage":"25,800 m","_lat":28.372488,"_lng":76.911779}},{"type":"Feature","geometry":{"type":"LineString","coordinates":[[76.9107526,28.3723727],[76.9107534,28.3724269]]},"properties":{"_s":"L4_line","_l":"CH 25,900","Chainage":"25,900 m","_lat":28.372501,"_lng":76.910759}},{"type":"Feature","geometry":{"type":"LineString","coordinates":[[76.9097325,28.3723857],[76.9097334,28.3724398]]},"properties":{"_s":"L4_line","_l":"CH 26,000","Chainage":"26,000 m","_lat":28.372514,"_lng":76.909739}},{"type":"Feature","geometry":{"type":"LineString","coordinates":[[76.9087125,28.3723986],[76.9087133,28.3724528]]},"properties":{"_s":"L4_line","_l":"CH 26,100","Chainage":"26,100 m","_lat":28.372527,"_lng":76.908719}},{"type":"Feature","geometry":{"type":"LineString","coordinates":[[76.9076924,28.3724116],[76.9076933,28.3724657]]},"properties":{"_s":"L4_line","_l":"CH 26,200","Chainage":"26,200 m","_lat":28.37254,"_lng":76.907699}},{"type":"Feature","geometry":{"type":"LineString","coordinates":[[76.9066724,28.3724245],[76.9066732,28.3724786]]},"properties":{"_s":"L4_line","_l":"CH 26,300","Chainage":"26,300 m","_lat":28.372553,"_lng":76.906679}},{"type":"Feature","geometry":{"type":"LineString","coordinates":[[76.9056523,28.3724374],[76.9056532,28.3724915]]},"properties":{"_s":"L4_line","_l":"CH 26,400","Chainage":"26,400 m","_lat":28.372566,"_lng":76.905659}},{"type":"Feature","geometry":{"type":"LineString","coordinates":[[76.9046323,28.3724503],[76.9046331,28.3725044]]},"properties":{"_s":"L4_line","_l":"CH 26,500","Chainage":"26,500 m","_lat":28.372578,"_lng":76.904639}},{"type":"Feature","geometry":{"type":"LineString","coordinates":[[76.9036122,28.3724632],[76.9036131,28.3725173]]},"properties":{"_s":"L4_line","_l":"CH 26,600","Chainage":"26,600 m","_lat":28.372591,"_lng":76.903618}},{"type":"Feature","geometry":{"type":"LineString","coordinates":[[76.9025922,28.3724761],[76.902593,28.3725302]]},"properties":{"_s":"L4_line","_l":"CH 26,700","Chainage":"26,700 m","_lat":28.372604,"_lng":76.902598}},{"type":"Feature","geometry":{"type":"LineString","coordinates":[[76.9015721,28.372489],[76.901573,28.3725431]]},"properties":{"_s":"L4_line","_l":"CH 26,800","Chainage":"26,800 m","_lat":28.372617,"_lng":76.901578}},{"type":"Feature","geometry":{"type":"LineString","coordinates":[[76.9005521,28.3725019],[76.9005529,28.372556]]},"properties":{"_s":"L4_line","_l":"CH 26,900","Chainage":"26,900 m","_lat":28.37263,"_lng":76.900558}},{"type":"Feature","geometry":{"type":"LineString","coordinates":[[76.899532,28.3725147],[76.8995329,28.3725689]]},"properties":{"_s":"L4_line","_l":"CH 27,000","Chainage":"27,000 m","_lat":28.372643,"_lng":76.899538}},{"type":"Feature","geometry":{"type":"LineString","coordinates":[[76.898512,28.3725276],[76.8985128,28.3725817]]},"properties":{"_s":"L4_line","_l":"CH 27,100","Chainage":"27,100 m","_lat":28.372656,"_lng":76.898518}},{"type":"Feature","geometry":{"type":"LineString","coordinates":[[76.8974977,28.3725165],[76.897488,28.3725699]]},"properties":{"_s":"L4_line","_l":"CH 27,200","Chainage":"27,200 m","_lat":28.372644,"_lng":76.897479}},{"type":"Feature","geometry":{"type":"LineString","coordinates":[[76.8966784,28.3720564],[76.8966278,28.3720869]]},"properties":{"_s":"L4_line","_l":"CH 27,300","Chainage":"27,300 m","_lat":28.372132,"_lng":76.896561}},{"type":"Feature","geometry":{"type":"LineString","coordinates":[[76.8964533,28.371207],[76.8963921,28.3712076]]},"properties":{"_s":"L4_line","_l":"CH 27,400","Chainage":"27,400 m","_lat":28.371212,"_lng":76.896309}},{"type":"Feature","geometry":{"type":"LineString","coordinates":[[76.8964406,28.3703042],[76.8963794,28.3703061]]},"properties":{"_s":"L4_line","_l":"CH 27,500","Chainage":"27,500 m","_lat":28.370313,"_lng":76.896296}},{"type":"Feature","geometry":{"type":"LineString","coordinates":[[76.8960777,28.3694659],[76.8960334,28.3695033]]},"properties":{"_s":"L4_line","_l":"CH 27,600","Chainage":"27,600 m","_lat":28.369557,"_lng":76.895976}},{"type":"Feature","geometry":{"type":"LineString","coordinates":[[76.8951459,28.3691119],[76.8951434,28.3691659]]},"properties":{"_s":"L4_line","_l":"CH 27,700","Chainage":"27,700 m","_lat":28.36924,"_lng":76.895144}},{"type":"Feature","geometry":{"type":"LineString","coordinates":[[76.8941244,28.3691211],[76.8941253,28.3691752]]},"properties":{"_s":"L4_line","_l":"CH 27,800","Chainage":"27,800 m","_lat":28.369249,"_lng":76.894131}},{"type":"Feature","geometry":{"type":"LineString","coordinates":[[76.8931043,28.3691347],[76.8931053,28.3691889]]},"properties":{"_s":"L4_line","_l":"CH 27,900","Chainage":"27,900 m","_lat":28.369263,"_lng":76.893111}},{"type":"Feature","geometry":{"type":"LineString","coordinates":[[76.8920843,28.3691484],[76.8920853,28.3692025]]},"properties":{"_s":"L4_line","_l":"CH 28,000","Chainage":"28,000 m","_lat":28.369277,"_lng":76.892091}},{"type":"Feature","geometry":{"type":"LineString","coordinates":[[76.8910643,28.3691621],[76.8910652,28.3692162]]},"properties":{"_s":"L4_line","_l":"CH 28,100","Chainage":"28,100 m","_lat":28.36929,"_lng":76.891071}},{"type":"Feature","geometry":{"type":"LineString","coordinates":[[76.8900443,28.3691757],[76.8900452,28.3692298]]},"properties":{"_s":"L4_line","_l":"CH 28,200","Chainage":"28,200 m","_lat":28.369304,"_lng":76.890051}},{"type":"Feature","geometry":{"type":"LineString","coordinates":[[76.8890243,28.3691894],[76.8890252,28.3692435]]},"properties":{"_s":"L4_line","_l":"CH 28,300","Chainage":"28,300 m","_lat":28.369317,"_lng":76.889031}},{"type":"Feature","geometry":{"type":"LineString","coordinates":[[76.8880043,28.369203],[76.8880052,28.3692571]]},"properties":{"_s":"L4_line","_l":"CH 28,400","Chainage":"28,400 m","_lat":28.369331,"_lng":76.888011}},{"type":"Feature","geometry":{"type":"LineString","coordinates":[[76.8869843,28.3692166],[76.8869852,28.3692707]]},"properties":{"_s":"L4_line","_l":"CH 28,500","Chainage":"28,500 m","_lat":28.369345,"_lng":76.886991}},{"type":"Feature","geometry":{"type":"LineString","coordinates":[[76.8859643,28.3692302],[76.8859652,28.3692844]]},"properties":{"_s":"L4_line","_l":"CH 28,600","Chainage":"28,600 m","_lat":28.369358,"_lng":76.885971}},{"type":"Feature","geometry":{"type":"LineString","coordinates":[[76.8849442,28.3692438],[76.8849452,28.369298]]},"properties":{"_s":"L4_line","_l":"CH 28,700","Chainage":"28,700 m","_lat":28.369372,"_lng":76.884951}},{"type":"Feature","geometry":{"type":"LineString","coordinates":[[76.8839242,28.3692575],[76.8839252,28.3693116]]},"properties":{"_s":"L4_line","_l":"CH 28,800","Chainage":"28,800 m","_lat":28.369385,"_lng":76.883931}},{"type":"Feature","geometry":{"type":"LineString","coordinates":[[76.8829042,28.369271],[76.8829051,28.3693252]]},"properties":{"_s":"L4_line","_l":"CH 28,900","Chainage":"28,900 m","_lat":28.369399,"_lng":76.882911}},{"type":"Feature","geometry":{"type":"LineString","coordinates":[[76.8818842,28.3692846],[76.8818851,28.3693388]]},"properties":{"_s":"L4_line","_l":"CH 29,000","Chainage":"29,000 m","_lat":28.369413,"_lng":76.881891}},{"type":"Feature","geometry":{"type":"LineString","coordinates":[[76.8808642,28.3692982],[76.8808651,28.3693523]]},"properties":{"_s":"L4_line","_l":"CH 29,100","Chainage":"29,100 m","_lat":28.369426,"_lng":76.880871}},{"type":"Feature","geometry":{"type":"LineString","coordinates":[[76.8798473,28.3692999],[76.8798418,28.3693538]]},"properties":{"_s":"L4_line","_l":"CH 29,200","Chainage":"29,200 m","_lat":28.369428,"_lng":76.879839}},{"type":"Feature","geometry":{"type":"LineString","coordinates":[[76.87898,28.3689104],[76.8789333,28.3689453]]},"properties":{"_s":"L4_line","_l":"CH 29,300","Chainage":"29,300 m","_lat":28.368996,"_lng":76.878872}},{"type":"Feature","geometry":{"type":"LineString","coordinates":[[76.878673,28.3680871],[76.8786118,28.3680887]]},"properties":{"_s":"L4_line","_l":"CH 29,400","Chainage":"29,400 m","_lat":28.368095,"_lng":76.878528}},{"type":"Feature","geometry":{"type":"LineString","coordinates":[[76.8786544,28.3671852],[76.8785932,28.3671862]]},"properties":{"_s":"L4_line","_l":"CH 29,500","Chainage":"29,500 m","_lat":28.367191,"_lng":76.87851}},{"type":"Feature","geometry":{"type":"LineString","coordinates":[[76.8786363,28.3662831],[76.8785751,28.366284]]},"properties":{"_s":"L4_line","_l":"CH 29,600","Chainage":"29,600 m","_lat":28.366289,"_lng":76.878492}},{"type":"Feature","geometry":{"type":"LineString","coordinates":[[76.8786183,28.3653809],[76.8785571,28.3653818]]},"properties":{"_s":"L4_line","_l":"CH 29,700","Chainage":"29,700 m","_lat":28.365387,"_lng":76.878473}},{"type":"Feature","geometry":{"type":"LineString","coordinates":[[76.8786002,28.3644787],[76.878539,28.3644797]]},"properties":{"_s":"L4_line","_l":"CH 29,800","Chainage":"29,800 m","_lat":28.364485,"_lng":76.878456}},{"type":"Feature","geometry":{"type":"LineString","coordinates":[[76.8785822,28.3635766],[76.878521,28.3635775]]},"properties":{"_s":"L4_line","_l":"CH 29,900","Chainage":"29,900 m","_lat":28.363583,"_lng":76.878437}},{"type":"Feature","geometry":{"type":"LineString","coordinates":[[76.8786677,28.3626894],[76.8786091,28.3626738]]},"properties":{"_s":"L4_line","_l":"CH 30,000","Chainage":"30,000 m","_lat":28.362656,"_lng":76.878528}},{"type":"Feature","geometry":{"type":"LineString","coordinates":[[76.8791299,28.3618948],[76.8790774,28.361867]]},"properties":{"_s":"L4_line","_l":"CH 30,100","Chainage":"30,100 m","_lat":28.361832,"_lng":76.879003}},{"type":"Feature","geometry":{"type":"LineString","coordinates":[[76.8795763,28.3610801],[76.8795188,28.3610616]]},"properties":{"_s":"L4_line","_l":"CH 30,200","Chainage":"30,200 m","_lat":28.36104,"_lng":76.879439}},{"type":"Feature","geometry":{"type":"LineString","coordinates":[[76.8799059,28.3602257],[76.879848,28.3602083]]},"properties":{"_s":"L4_line","_l":"CH 30,300","Chainage":"30,300 m","_lat":28.360188,"_lng":76.879767}},{"type":"Feature","geometry":{"type":"LineString","coordinates":[[76.8802333,28.3593711],[76.8801753,28.3593537]]},"properties":{"_s":"L4_line","_l":"CH 30,400","Chainage":"30,400 m","_lat":28.359334,"_lng":76.880095}},{"type":"Feature","geometry":{"type":"LineString","coordinates":[[76.8805606,28.3585165],[76.8805027,28.3584992]]},"properties":{"_s":"L4_line","_l":"CH 30,500","Chainage":"30,500 m","_lat":28.358479,"_lng":76.880422}},{"type":"Feature","geometry":{"type":"LineString","coordinates":[[76.880888,28.357662],[76.88083,28.3576446]]},"properties":{"_s":"L4_line","_l":"CH 30,600","Chainage":"30,600 m","_lat":28.357624,"_lng":76.880749}},{"type":"Feature","geometry":{"type":"LineString","coordinates":[[76.8812153,28.3568074],[76.8811574,28.35679]]},"properties":{"_s":"L4_line","_l":"CH 30,700","Chainage":"30,700 m","_lat":28.35677,"_lng":76.881077}},{"type":"Feature","geometry":{"type":"LineString","coordinates":[[76.8815427,28.3559528],[76.8814847,28.3559354]]},"properties":{"_s":"L4_line","_l":"CH 30,800","Chainage":"30,800 m","_lat":28.355915,"_lng":76.881404}},{"type":"Feature","geometry":{"type":"LineString","coordinates":[[76.88187,28.3550982],[76.881812,28.3550808]]},"properties":{"_s":"L4_line","_l":"CH 30,900","Chainage":"30,900 m","_lat":28.355061,"_lng":76.881731}},{"type":"Feature","geometry":{"type":"LineString","coordinates":[[76.8821968,28.3542433],[76.8821387,28.3542263]]},"properties":{"_s":"L4_line","_l":"CH 31,000","Chainage":"31,000 m","_lat":28.354207,"_lng":76.882058}},{"type":"Feature","geometry":{"type":"LineString","coordinates":[[76.8824561,28.3533687],[76.8823965,28.3533566]]},"properties":{"_s":"L4_line","_l":"CH 31,100","Chainage":"31,100 m","_lat":28.353344,"_lng":76.882314}},{"type":"Feature","geometry":{"type":"LineString","coordinates":[[76.8826839,28.3524892],[76.8826243,28.3524771]]},"properties":{"_s":"L4_line","_l":"CH 31,200","Chainage":"31,200 m","_lat":28.352464,"_lng":76.882542}},{"type":"Feature","geometry":{"type":"LineString","coordinates":[[76.8829117,28.3516097],[76.8828521,28.3515976]]},"properties":{"_s":"L4_line","_l":"CH 31,300","Chainage":"31,300 m","_lat":28.351585,"_lng":76.88277}},{"type":"Feature","geometry":{"type":"LineString","coordinates":[[76.8831395,28.3507302],[76.8830799,28.3507181]]},"properties":{"_s":"L4_line","_l":"CH 31,400","Chainage":"31,400 m","_lat":28.350705,"_lng":76.882997}},{"type":"Feature","geometry":{"type":"LineString","coordinates":[[76.8833673,28.3498507],[76.8833077,28.3498386]]},"properties":{"_s":"L4_line","_l":"CH 31,500","Chainage":"31,500 m","_lat":28.349826,"_lng":76.883225}},{"type":"Feature","geometry":{"type":"LineString","coordinates":[[76.8835948,28.348971],[76.8835351,28.3489592]]},"properties":{"_s":"L4_line","_l":"CH 31,600","Chainage":"31,600 m","_lat":28.348947,"_lng":76.883453}},{"type":"Feature","geometry":{"type":"LineString","coordinates":[[76.8837597,28.3480787],[76.883699,28.3480718]]},"properties":{"_s":"L4_line","_l":"CH 31,700","Chainage":"31,700 m","_lat":28.348066,"_lng":76.883616}},{"type":"Feature","geometry":{"type":"LineString","coordinates":[[76.8838897,28.3471838],[76.883829,28.3471769]]},"properties":{"_s":"L4_line","_l":"CH 31,800","Chainage":"31,800 m","_lat":28.347171,"_lng":76.883746}},{"type":"Feature","geometry":{"type":"LineString","coordinates":[[76.8840197,28.3462888],[76.883959,28.3462819]]},"properties":{"_s":"L4_line","_l":"CH 31,900","Chainage":"31,900 m","_lat":28.346276,"_lng":76.883876}},{"type":"Feature","geometry":{"type":"LineString","coordinates":[[76.8841497,28.3453939],[76.8840891,28.345387]]},"properties":{"_s":"L4_line","_l":"CH 32,000","Chainage":"32,000 m","_lat":28.345381,"_lng":76.884006}},{"type":"Feature","geometry":{"type":"LineString","coordinates":[[76.8842798,28.3444989],[76.8842191,28.344492]]},"properties":{"_s":"L4_line","_l":"CH 32,100","Chainage":"32,100 m","_lat":28.344486,"_lng":76.884136}},{"type":"Feature","geometry":{"type":"LineString","coordinates":[[76.8844098,28.343604],[76.8843491,28.3435971]]},"properties":{"_s":"L4_line","_l":"CH 32,200","Chainage":"32,200 m","_lat":28.343591,"_lng":76.884266}},{"type":"Feature","geometry":{"type":"LineString","coordinates":[[76.8845478,28.342711],[76.8844874,28.342702]]},"properties":{"_s":"L4_line","_l":"CH 32,300","Chainage":"32,300 m","_lat":28.342693,"_lng":76.884404}},{"type":"Feature","geometry":{"type":"LineString","coordinates":[[76.8847334,28.3418242],[76.8846733,28.3418143]]},"properties":{"_s":"L4_line","_l":"CH 32,400","Chainage":"32,400 m","_lat":28.341804,"_lng":76.88459}},{"type":"Feature","geometry":{"type":"LineString","coordinates":[[76.8849209,28.3409373],[76.8848608,28.3409274]]},"properties":{"_s":"L4_line","_l":"CH 32,500","Chainage":"32,500 m","_lat":28.340917,"_lng":76.884778}},{"type":"Feature","geometry":{"type":"LineString","coordinates":[[76.8851085,28.3400504],[76.8850483,28.3400405]]},"properties":{"_s":"L4_line","_l":"CH 32,600","Chainage":"32,600 m","_lat":28.340031,"_lng":76.884965}},{"type":"Feature","geometry":{"type":"LineString","coordinates":[[76.885303,28.3391656],[76.8852433,28.3391537]]},"properties":{"_s":"L4_line","_l":"CH 32,700","Chainage":"32,700 m","_lat":28.339141,"_lng":76.885161}},{"type":"Feature","geometry":{"type":"LineString","coordinates":[[76.885551,28.3382911],[76.8854917,28.3382778]]},"properties":{"_s":"L4_line","_l":"CH 32,800","Chainage":"32,800 m","_lat":28.338263,"_lng":76.88541}},{"type":"Feature","geometry":{"type":"LineString","coordinates":[[76.8858033,28.3374169],[76.885744,28.3374035]]},"properties":{"_s":"L4_line","_l":"CH 32,900","Chainage":"32,900 m","_lat":28.337389,"_lng":76.885662}},{"type":"Feature","geometry":{"type":"LineString","coordinates":[[76.8860814,28.3365512],[76.8860235,28.3365336]]},"properties":{"_s":"L4_line","_l":"CH 33,000","Chainage":"33,000 m","_lat":28.336513,"_lng":76.885943}},{"type":"Feature","geometry":{"type":"LineString","coordinates":[[76.8864204,28.3357004],[76.8863627,28.3356824]]},"properties":{"_s":"L4_line","_l":"CH 33,100","Chainage":"33,100 m","_lat":28.335661,"_lng":76.886282}},{"type":"Feature","geometry":{"type":"LineString","coordinates":[[76.88676,28.3348496],[76.8867023,28.3348316]]},"properties":{"_s":"L4_line","_l":"CH 33,200","Chainage":"33,200 m","_lat":28.33481,"_lng":76.886622}},{"type":"Feature","geometry":{"type":"LineString","coordinates":[[76.8871419,28.3340181],[76.8870879,28.3339925]]},"properties":{"_s":"L4_line","_l":"CH 33,300","Chainage":"33,300 m","_lat":28.333961,"_lng":76.887012}},{"type":"Feature","geometry":{"type":"LineString","coordinates":[[76.8876949,28.3332638],[76.8876445,28.3332331]]},"properties":{"_s":"L4_line","_l":"CH 33,400","Chainage":"33,400 m","_lat":28.333194,"_lng":76.887573}},{"type":"Feature","geometry":{"type":"LineString","coordinates":[[76.888272,28.3325198],[76.8882216,28.3324892]]},"properties":{"_s":"L4_line","_l":"CH 33,500","Chainage":"33,500 m","_lat":28.33245,"_lng":76.88815}},{"type":"Feature","geometry":{"type":"LineString","coordinates":[[76.8888491,28.3317759],[76.8887986,28.3317452]]},"properties":{"_s":"L4_line","_l":"CH 33,600","Chainage":"33,600 m","_lat":28.331706,"_lng":76.888727}},{"type":"Feature","geometry":{"type":"LineString","coordinates":[[76.8894261,28.3310319],[76.8893757,28.3310013]]},"properties":{"_s":"L4_line","_l":"CH 33,700","Chainage":"33,700 m","_lat":28.330962,"_lng":76.889304}},{"type":"Feature","geometry":{"type":"LineString","coordinates":[[76.8899808,28.3302733],[76.8899283,28.3302454]]},"properties":{"_s":"L4_line","_l":"CH 33,800","Chainage":"33,800 m","_lat":28.330211,"_lng":76.889854}},{"type":"Feature","geometry":{"type":"LineString","coordinates":[[76.8905051,28.3294994],[76.8904527,28.3294715]]},"properties":{"_s":"L4_line","_l":"CH 33,900","Chainage":"33,900 m","_lat":28.329437,"_lng":76.890379}},{"type":"Feature","geometry":{"type":"LineString","coordinates":[[76.8910295,28.3287255],[76.890977,28.3286976]]},"properties":{"_s":"L4_line","_l":"CH 34,000","Chainage":"34,000 m","_lat":28.328663,"_lng":76.890903}},{"type":"Feature","geometry":{"type":"LineString","coordinates":[[76.8915538,28.3279516],[76.8915013,28.3279238]]},"properties":{"_s":"L4_line","_l":"CH 34,100","Chainage":"34,100 m","_lat":28.327889,"_lng":76.891427}},{"type":"Feature","geometry":{"type":"LineString","coordinates":[[76.8920781,28.3271777],[76.8920256,28.3271499]]},"properties":{"_s":"L4_line","_l":"CH 34,200","Chainage":"34,200 m","_lat":28.327115,"_lng":76.891952}},{"type":"Feature","geometry":{"type":"LineString","coordinates":[[76.8926024,28.3264038],[76.8925499,28.326376]]},"properties":{"_s":"L4_line","_l":"CH 34,300","Chainage":"34,300 m","_lat":28.326341,"_lng":76.892476}},{"type":"Feature","geometry":{"type":"LineString","coordinates":[[76.8931267,28.3256299],[76.8930742,28.3256021]]},"properties":{"_s":"L4_line","_l":"CH 34,400","Chainage":"34,400 m","_lat":28.325567,"_lng":76.893}},{"type":"Feature","geometry":{"type":"LineString","coordinates":[[76.893651,28.324856],[76.8935985,28.3248282]]},"properties":{"_s":"L4_line","_l":"CH 34,500","Chainage":"34,500 m","_lat":28.324793,"_lng":76.893525}},{"type":"Feature","geometry":{"type":"LineString","coordinates":[[76.8941753,28.3240821],[76.8941228,28.3240543]]},"properties":{"_s":"L4_line","_l":"CH 34,600","Chainage":"34,600 m","_lat":28.324019,"_lng":76.894049}},{"type":"Feature","geometry":{"type":"LineString","coordinates":[[76.8946996,28.3233082],[76.8946471,28.3232804]]},"properties":{"_s":"L4_line","_l":"CH 34,700","Chainage":"34,700 m","_lat":28.323245,"_lng":76.894573}},{"type":"Feature","geometry":{"type":"LineString","coordinates":[[76.8952239,28.3225343],[76.8951714,28.3225065]]},"properties":{"_s":"L4_line","_l":"CH 34,800","Chainage":"34,800 m","_lat":28.322472,"_lng":76.895098}},{"type":"Feature","geometry":{"type":"LineString","coordinates":[[76.8957481,28.3217604],[76.8956956,28.3217326]]},"properties":{"_s":"L4_line","_l":"CH 34,900","Chainage":"34,900 m","_lat":28.321698,"_lng":76.895622}},{"type":"Feature","geometry":{"type":"LineString","coordinates":[[77.1078389,28.4205716],[77.107804,28.420616]]},"properties":{"_s":"L4_line","_l":"CH -350","Chainage":"-350 m","_lat":28.420616,"_lng":77.107804}}]}