{"type":"FeatureCollection","features":[{"type":"Feature","geometry":{"type":"Polygon","coordinates":[[[77.1048304,28.419115],[77.1046136,28.4190566],[77.1046136,28.4190566],[77.104632,28.4190033],[77.104632,28.4190033],[77.1048488,28.4190617],[77.1048488,28.4190617],[77.1048304,28.419115]]]},"properties":{"_s":"L1_all","_l":"1. Sector 56","Station No.":1,"Station":"Sector 56","Chainage":"0 m (0.00 km)","Station box":"80 m x 22 m","_lat":28.419059,"_lng":77.104731}},{"type":"Feature","geometry":{"type":"Polygon","coordinates":[[[77.0929565,28.4170758],[77.09273,28.4170831],[77.09273,28.4170831],[77.0927277,28.4170274],[77.0927277,28.4170274],[77.0929541,28.4170201],[77.0929541,28.4170201],[77.0929565,28.4170758]]]},"properties":{"_s":"L1_all","_l":"2. Sector 61","Station No.":2,"Station":"Sector 61","Chainage":"1,200 m (1.20 km)","Station box":"80 m x 22 m","_lat":28.417052,"_lng":77.092842}},{"type":"Feature","geometry":{"type":"Polygon","coordinates":[[[77.0811835,28.4143423],[77.0809652,28.4142886],[77.0809652,28.4142886],[77.0809821,28.4142349],[77.0809821,28.4142349],[77.0812004,28.4142886],[77.0812004,28.4142886],[77.0811835,28.4143423]]]},"properties":{"_s":"L1_all","_l":"3. Sector 62","Station No.":3,"Station":"Sector 62","Chainage":"2,400 m (2.40 km)","Station box":"80 m x 22 m","_lat":28.414289,"_lng":77.081083}},{"type":"Feature","geometry":{"type":"Polygon","coordinates":[[[77.0698007,28.4103576],[77.0695903,28.4102832],[77.0695903,28.4102832],[77.0696136,28.4102315],[77.0696136,28.4102315],[77.0698241,28.4103059],[77.0698241,28.4103059],[77.0698007,28.4103576]]]},"properties":{"_s":"L1_all","_l":"4. Nirvana Country","Station No.":4,"Station":"Nirvana Country","Chainage":"3,600 m (3.60 km)","Station box":"80 m x 22 m","_lat":28.410295,"_lng":77.069707}},{"type":"Feature","geometry":{"type":"Polygon","coordinates":[[[77.0582488,28.4060183],[77.0580386,28.4059434],[77.0580386,28.4059434],[77.0580621,28.4058917],[77.0580621,28.4058917],[77.0582723,28.4059666],[77.0582723,28.4059666],[77.0582488,28.4060183]]]},"properties":{"_s":"L1_all","_l":"5. Sector 66","Station No.":5,"Station":"Sector 66","Chainage":"4,830 m (4.83 km)","Station box":"80 m x 22 m","_lat":28.405955,"_lng":77.058155}},{"type":"Feature","geometry":{"type":"Polygon","coordinates":[[[77.0466002,28.4014464],[77.0463862,28.4013805],[77.0463862,28.4013805],[77.046407,28.4013279],[77.046407,28.4013279],[77.0466209,28.4013938],[77.0466209,28.4013938],[77.0466002,28.4014464]]]},"properties":{"_s":"L1_all","_l":"6. Vatika Chowk","Station No.":6,"Station":"Vatika Chowk","Chainage":"6,080 m (6.08 km)","Station box":"80 m x 22 m","_lat":28.401387,"_lng":77.046504}},{"type":"Feature","geometry":{"type":"Polygon","coordinates":[[[77.0348921,28.400546],[77.034666,28.4005317],[77.034666,28.4005317],[77.0346705,28.4004761],[77.0346705,28.4004761],[77.0348965,28.4004904],[77.0348965,28.4004904],[77.0348921,28.400546]]]},"properties":{"_s":"L1_all","_l":"7. Sector 69","Station No.":7,"Station":"Sector 69","Chainage":"7,240 m (7.24 km)","Station box":"80 m x 22 m","_lat":28.400511,"_lng":77.034781}},{"type":"Feature","geometry":{"type":"Polygon","coordinates":[[[77.0200171,28.4005044],[77.0197906,28.4005106],[77.0197906,28.4005106],[77.0197886,28.4004549],[77.0197886,28.4004549],[77.0200151,28.4004488],[77.0200151,28.4004488],[77.0200171,28.4005044]]]},"properties":{"_s":"L1_all","_l":"8. Sector 70","Station No.":8,"Station":"Sector 70","Chainage":"8,700 m (8.70 km)","Station box":"80 m x 22 m","_lat":28.40048,"_lng":77.019903}},{"type":"Feature","geometry":{"type":"Polygon","coordinates":[[[77.0066847,28.4009757],[77.0064628,28.4010158],[77.0064628,28.4010158],[77.0064501,28.4009612],[77.0064501,28.4009612],[77.0066721,28.4009211],[77.0066721,28.4009211],[77.0066847,28.4009757]]]},"properties":{"_s":"L1_all","_l":"9. Sector 75","Station No.":9,"Station":"Sector 75","Chainage":"10,010 m (10.01 km)","Station box":"80 m x 22 m","_lat":28.400968,"_lng":77.006567}},{"type":"Feature","geometry":{"type":"Polygon","coordinates":[[[76.9819702,28.4169759],[76.9817904,28.4170979],[76.9817904,28.4170979],[76.981752,28.4170537],[76.981752,28.4170537],[76.9819318,28.4169317],[76.9819318,28.4169317],[76.9819702,28.4169759]]]},"properties":{"_s":"L1_all","_l":"11. Sector 36A","Station No.":11,"Station":"Sector 36A","Chainage":"13,442 m (13.44 km)","Station box":"80 m x 22 m","_lat":28.417015,"_lng":76.981861}},{"type":"Feature","geometry":{"type":"Polygon","coordinates":[[[76.9712664,28.4251728],[76.9710401,28.4251832],[76.9710401,28.4251832],[76.9710368,28.4251276],[76.9710368,28.4251276],[76.9712632,28.4251172],[76.9712632,28.4251172],[76.9712664,28.4251728]]]},"properties":{"_s":"L1_all","_l":"12. Global City","Station No.":12,"Station":"Global City","Chainage":"14,982 m (14.98 km)","Station box":"80 m x 22 m","_lat":28.42515,"_lng":76.971152}},{"type":"Feature","geometry":{"type":"Polygon","coordinates":[[[76.9629463,28.4201379],[76.9630117,28.4199461],[76.9630117,28.4199461],[76.9630721,28.4199622],[76.9630721,28.4199622],[76.9630067,28.420154],[76.9630067,28.420154],[76.9629463,28.4201379]]]},"properties":{"_s":"L1_all","_l":"13. Sector 88","Station No.":13,"Station":"Sector 88","Chainage":"16,422 m (16.42 km)","Station box":"80 m x 22 m","_lat":28.42005,"_lng":76.963009}},{"type":"Feature","geometry":{"type":"Polygon","coordinates":[[[76.955966,28.4128471],[76.9557693,28.4127476],[76.9557693,28.4127476],[76.9558005,28.4126992],[76.9558005,28.4126992],[76.9559972,28.4127987],[76.9559972,28.4127987],[76.955966,28.4128471]]]},"properties":{"_s":"L1_all","_l":"14. Sector 84","Station No.":14,"Station":"Sector 84","Chainage":"17,672 m (17.67 km)","Station box":"80 m x 22 m","_lat":28.412773,"_lng":76.955883}},{"type":"Feature","geometry":{"type":"Polygon","coordinates":[[[76.9467755,28.4079761],[76.9465788,28.4078766],[76.9465788,28.4078766],[76.9466101,28.4078283],[76.9466101,28.4078283],[76.9468068,28.4079278],[76.9468068,28.4079278],[76.9467755,28.4079761]]]},"properties":{"_s":"L1_all","_l":"15. Sector 85 & 89","Station No.":15,"Station":"Sector 85 & 89","Chainage":"18,722 m (18.72 km)","Station box":"80 m x 22 m","_lat":28.407902,"_lng":76.946693}},{"type":"Feature","geometry":{"type":"Polygon","coordinates":[[[76.9357514,28.402305],[76.9355522,28.4022095],[76.9355522,28.4022095],[76.9355823,28.4021605],[76.9355823,28.4021605],[76.9357815,28.402256],[76.9357815,28.402256],[76.9357514,28.402305]]]},"properties":{"_s":"L1_all","_l":"16. Sector 86 & 90","Station No.":16,"Station":"Sector 86 & 90","Chainage":"19,972 m (19.97 km)","Station box":"80 m x 22 m","_lat":28.402233,"_lng":76.935667}},{"type":"Feature","geometry":{"type":"Polygon","coordinates":[[[76.9251561,28.3968775],[76.924959,28.3967788],[76.924959,28.3967788],[76.92499,28.3967303],[76.92499,28.3967303],[76.9251872,28.396829],[76.9251872,28.396829],[76.9251561,28.3968775]]]},"properties":{"_s":"L1_all","_l":"17. Sector 91","Station No.":17,"Station":"Sector 91","Chainage":"21,172 m (21.17 km)","Station box":"80 m x 22 m","_lat":28.396804,"_lng":76.925073}},{"type":"Feature","geometry":{"type":"Polygon","coordinates":[[[76.9159979,28.3919632],[76.9158114,28.3918493],[76.9158114,28.3918493],[76.9158472,28.3918035],[76.9158472,28.3918035],[76.9160337,28.3919174],[76.9160337,28.3919174],[76.9159979,28.3919632]]]},"properties":{"_s":"L1_all","_l":"18. Village Kankrola","Station No.":18,"Station":"Village Kankrola","Chainage":"22,222 m (22.22 km)","Station box":"80 m x 22 m","_lat":28.391883,"_lng":76.915923}},{"type":"Feature","geometry":{"type":"Polygon","coordinates":[[[76.9149072,28.3796234],[76.9151336,28.3796165],[76.9151336,28.3796165],[76.9151358,28.3796722],[76.9151358,28.3796722],[76.9149094,28.3796791],[76.9149094,28.3796791],[76.9149072,28.3796234]]]},"properties":{"_s":"L1_all","_l":"19. Sector M-15","Station No.":19,"Station":"Sector M-15","Chainage":"23,887 m (23.89 km)","Station box":"80 m x 22 m","_lat":28.379648,"_lng":76.915021}},{"type":"Feature","geometry":{"type":"Polygon","coordinates":[[[76.9195436,28.3747587],[76.9195357,28.3745584],[76.9195357,28.3745584],[76.9195987,28.3745565],[76.9195987,28.3745565],[76.9196066,28.3747567],[76.9196066,28.3747567],[76.9195436,28.3747587]]]},"properties":{"_s":"L1_all","_l":"20. Sector M-6/7","Station No.":20,"Station":"Sector M-6/7","Chainage":"24,832 m (24.83 km)","Station box":"80 m x 22 m","_lat":28.374658,"_lng":76.919571}},{"type":"Feature","geometry":{"type":"Polygon","coordinates":[[[76.9065626,28.3724757],[76.9063362,28.3724826],[76.9063362,28.3724826],[76.906334,28.3724269],[76.906334,28.3724269],[76.9065604,28.37242],[76.9065604,28.37242],[76.9065626,28.3724757]]]},"properties":{"_s":"L1_all","_l":"21. Sector M-4","Station No.":21,"Station":"Sector M-4","Chainage":"26,322 m (26.32 km)","Station box":"80 m x 22 m","_lat":28.372451,"_lng":76.906448}},{"type":"Feature","geometry":{"type":"Polygon","coordinates":[[[76.8963935,28.3709293],[76.8963864,28.370729],[76.8963864,28.370729],[76.8964494,28.3707273],[76.8964494,28.3707273],[76.8964565,28.3709275],[76.8964565,28.3709275],[76.8963935,28.3709293]]]},"properties":{"_s":"L1_all","_l":"22. Sector M-8","Station No.":22,"Station":"Sector M-8","Chainage":"27,442 m (27.44 km)","Station box":"80 m x 22 m","_lat":28.370828,"_lng":76.896421}},{"type":"Feature","geometry":{"type":"Polygon","coordinates":[[[76.8867929,28.369269],[76.8865665,28.3692761],[76.8865665,28.3692761],[76.8865643,28.3692204],[76.8865643,28.3692204],[76.8867907,28.3692133],[76.8867907,28.3692133],[76.8867929,28.369269]]]},"properties":{"_s":"L1_all","_l":"23. Sector M-8 (Phase-3A)","Station No.":23,"Station":"Sector M-8 (Phase-3A)","Chainage":"28,530 m (28.53 km)","Station box":"80 m x 22 m","_lat":28.369245,"_lng":76.886679}},{"type":"Feature","geometry":{"type":"Polygon","coordinates":[[[76.8785601,28.365284],[76.8785515,28.3650837],[76.8785515,28.3650837],[76.8786144,28.3650816],[76.8786144,28.3650816],[76.878623,28.3652819],[76.878623,28.3652819],[76.8785601,28.365284]]]},"properties":{"_s":"L1_all","_l":"24. IMT Manesar","Station No.":24,"Station":"IMT Manesar","Chainage":"29,722 m (29.72 km)","Station box":"80 m x 22 m","_lat":28.365183,"_lng":76.878587}},{"type":"Feature","geometry":{"type":"Polygon","coordinates":[[[76.8833371,28.3497442],[76.8833832,28.349548],[76.8833832,28.349548],[76.8834449,28.3495594],[76.8834449,28.3495594],[76.8833988,28.3497555],[76.8833988,28.3497555],[76.8833371,28.3497442]]]},"properties":{"_s":"L1_all","_l":"25. Sector P-4","Station No.":25,"Station":"Sector P-4","Chainage":"31,522 m (31.52 km)","Station box":"80 m x 22 m","_lat":28.349652,"_lng":76.883391}},{"type":"Feature","geometry":{"type":"Polygon","coordinates":[[[76.8849985,28.3402999],[76.8850356,28.3401022],[76.8850356,28.3401022],[76.8850977,28.3401113],[76.8850977,28.3401113],[76.8850606,28.340309],[76.8850606,28.340309],[76.8849985,28.3402999]]]},"properties":{"_s":"L1_all","_l":"26. Sector P-5","Station No.":26,"Station":"Sector P-5","Chainage":"32,582 m (32.58 km)","Station box":"80 m x 22 m","_lat":28.340206,"_lng":76.885048}},{"type":"Feature","geometry":{"type":"Polygon","coordinates":[[[76.8890961,28.3313695],[76.8892204,28.331202],[76.8892204,28.331202],[76.889273,28.3312326],[76.889273,28.3312326],[76.8891487,28.3314001],[76.8891487,28.3314001],[76.8890961,28.3313695]]]},"properties":{"_s":"L1_all","_l":"27. Sector P-7","Station No.":27,"Station":"Sector P-7","Chainage":"33,662 m (33.66 km)","Station box":"80 m x 22 m","_lat":28.331301,"_lng":76.889185}},{"type":"Feature","geometry":{"type":"Polygon","coordinates":[[[76.8945509,28.3234309],[76.8946633,28.323257],[76.8946633,28.323257],[76.894718,28.3232846],[76.894718,28.3232846],[76.8946055,28.3234585],[76.8946055,28.3234585],[76.8945509,28.3234309]]]},"properties":{"_s":"L1_all","_l":"28. Panchgaon","Station No.":28,"Station":"Panchgaon","Chainage":"34,692 m (34.69 km)","Station box":"80 m x 22 m","_lat":28.323358,"_lng":76.894634}},{"type":"Feature","geometry":{"type":"Polygon","coordinates":[[[76.9901021,28.4056107],[76.9898998,28.4057011],[76.9898998,28.4057011],[76.9898714,28.4056514],[76.9898714,28.4056514],[76.9900737,28.405561],[76.9900737,28.405561],[76.9901021,28.4056107]]]},"properties":{"_s":"L1_all","_l":"10. Kherki Daula","Station No.":10,"Station":"Kherki Daula","Chainage":"11,725 m (11.72 km)","Station box":"80 m x 22 m","_lat":28.405631,"_lng":76.989987}},{"type":"Feature","geometry":{"type":"LineString","coordinates":[[77.105153,28.4190772],[77.104377,28.4188527],[77.1043072,28.4190413],[77.1050831,28.4192658],[77.1051529,28.4190772]]},"properties":{"_s":"L1_line","Drawing layer":"Proposed station"}},{"type":"Feature","geometry":{"type":"LineString","coordinates":[[77.1047301,28.4190592],[77.1048285,28.4187934],[77.1047568,28.4187727],[77.1048114,28.4188395]]},"properties":{"_s":"L1_line","Drawing layer":"Proposed station"}},{"type":"Feature","geometry":{"type":"LineString","coordinates":[[77.0932474,28.4169469],[77.0924311,28.4169587],[77.0924347,28.4171571],[77.093251,28.4171454],[77.0932473,28.4169469]]},"properties":{"_s":"L1_line","Drawing layer":"Proposed station"}},{"type":"Feature","geometry":{"type":"LineString","coordinates":[[77.092841,28.417052],[77.0928359,28.4167724],[77.0927605,28.4167735],[77.0928368,28.4168208]]},"properties":{"_s":"L1_line","Drawing layer":"Proposed station"}},{"type":"Feature","geometry":{"type":"LineString","coordinates":[[77.0815049,28.4142975],[77.080723,28.4140898],[77.0806584,28.4142799],[77.0814403,28.4144876],[77.0815049,28.4142975]]},"properties":{"_s":"L1_line","Drawing layer":"Proposed station"}},{"type":"Feature","geometry":{"type":"LineString","coordinates":[[77.0810816,28.4142887],[77.0811726,28.4140208],[77.0811004,28.4140017],[77.0811569,28.4140672]]},"properties":{"_s":"L1_line","Drawing layer":"Proposed station"}},{"type":"Feature","geometry":{"type":"LineString","coordinates":[[77.0701257,28.4103439],[77.0693739,28.4100624],[77.0692864,28.4102452],[77.0700381,28.4105267],[77.0701256,28.4103439]]},"properties":{"_s":"L1_line","Drawing layer":"Proposed station"}},{"type":"Feature","geometry":{"type":"LineString","coordinates":[[77.069706,28.4102946],[77.0698294,28.410037],[77.06976,28.410011],[77.069808,28.4100816]]},"properties":{"_s":"L1_line","Drawing layer":"Proposed station"}},{"type":"Feature","geometry":{"type":"LineString","coordinates":[[77.0585738,28.4060053],[77.0578229,28.4057221],[77.0577349,28.4059047],[77.0584857,28.4061879],[77.0585738,28.4060053]]},"properties":{"_s":"L1_line","Drawing layer":"Proposed station"}},{"type":"Feature","geometry":{"type":"LineString","coordinates":[[77.0581543,28.405955],[77.0582784,28.4056977],[77.0582091,28.4056716],[77.058257,28.4057423]]},"properties":{"_s":"L1_line","Drawing layer":"Proposed station"}},{"type":"Feature","geometry":{"type":"LineString","coordinates":[[77.0469242,28.4014198],[77.0461589,28.4011686],[77.0460807,28.4013546],[77.046846,28.4016059],[77.0469241,28.4014198]]},"properties":{"_s":"L1_line","Drawing layer":"Proposed station"}},{"type":"Feature","geometry":{"type":"LineString","coordinates":[[77.0465024,28.4013872],[77.0466125,28.401125],[77.0465419,28.4011018],[77.0465935,28.4011704]]},"properties":{"_s":"L1_line","Drawing layer":"Proposed station"}},{"type":"Feature","geometry":{"type":"LineString","coordinates":[[77.0351969,28.4004456],[77.034384,28.4003795],[77.0343635,28.4005772],[77.0351764,28.4006432],[77.0351969,28.4004456]]},"properties":{"_s":"L1_line","Drawing layer":"Proposed station"}},{"type":"Feature","geometry":{"type":"LineString","coordinates":[[77.0347802,28.4005114],[77.0348091,28.4002329],[77.0347341,28.4002268],[77.0348041,28.4002811]]},"properties":{"_s":"L1_line","Drawing layer":"Proposed station"}},{"type":"Feature","geometry":{"type":"LineString","coordinates":[[77.0203088,28.4003771],[77.0194925,28.4003847],[77.0194949,28.4005831],[77.0203111,28.4005755],[77.0203087,28.4003771]]},"properties":{"_s":"L1_line","Drawing layer":"Proposed station"}},{"type":"Feature","geometry":{"type":"LineString","coordinates":[[77.0199018,28.4004801],[77.0198985,28.4002004],[77.0198231,28.4002011],[77.019899,28.4002488]]},"properties":{"_s":"L1_line","Drawing layer":"Proposed station"}},{"type":"Feature","geometry":{"type":"LineString","coordinates":[[77.0069477,28.4008063],[77.0061448,28.4009365],[77.0061853,28.4011318],[77.0069882,28.4010015],[77.0069477,28.4008063]]},"properties":{"_s":"L1_line","Drawing layer":"Proposed station"}},{"type":"Feature","geometry":{"type":"LineString","coordinates":[[77.0065665,28.400969],[77.0065094,28.4006939],[77.0064353,28.400706],[77.0065193,28.4007416]]},"properties":{"_s":"L1_line","Drawing layer":"Proposed station"}},{"type":"Feature","geometry":{"type":"LineString","coordinates":[[76.9821229,28.4167218],[76.9814652,28.4171496],[76.9815983,28.4173095],[76.9822559,28.4168817],[76.9821228,28.4167218]]},"properties":{"_s":"L1_line","Drawing layer":"Proposed station"}},{"type":"Feature","geometry":{"type":"LineString","coordinates":[[76.9818605,28.4170157],[76.981673,28.4167904],[76.9816123,28.4168299],[76.9817055,28.4168294]]},"properties":{"_s":"L1_line","Drawing layer":"Proposed station"}},{"type":"Feature","geometry":{"type":"LineString","coordinates":[[76.9715551,28.42504],[76.970739,28.4250629],[76.9707461,28.4252613],[76.9715622,28.4252383],[76.9715551,28.4250399]]},"properties":{"_s":"L1_line","Drawing layer":"Proposed station"}},{"type":"Feature","geometry":{"type":"LineString","coordinates":[[76.9711506,28.4251506],[76.9711405,28.4248711],[76.9710652,28.4248732],[76.9711423,28.4249195]]},"properties":{"_s":"L1_line","Drawing layer":"Proposed station"}},{"type":"Feature","geometry":{"type":"LineString","coordinates":[[76.9629902,28.420423],[76.9632416,28.4197362],[76.963028,28.4196751],[76.9627766,28.4203618],[76.9629902,28.420423]]},"properties":{"_s":"L1_line","Drawing layer":"Proposed station"}},{"type":"Feature","geometry":{"type":"LineString","coordinates":[[76.9630091,28.420049],[76.9633101,28.4201352],[76.9633333,28.4200717],[76.963258,28.4201202]]},"properties":{"_s":"L1_line","Drawing layer":"Proposed station"}},{"type":"Feature","geometry":{"type":"LineString","coordinates":[[76.95629,28.4128735],[76.9555897,28.4125023],[76.9554743,28.4126726],[76.9561745,28.4130437],[76.95629,28.4128734]]},"properties":{"_s":"L1_line","Drawing layer":"Proposed station"}},{"type":"Feature","geometry":{"type":"LineString","coordinates":[[76.9558821,28.412773],[76.9560448,28.4125331],[76.9559801,28.4124989],[76.9560166,28.4125747]]},"properties":{"_s":"L1_line","Drawing layer":"Proposed station"}},{"type":"Feature","geometry":{"type":"LineString","coordinates":[[76.9470995,28.4080025],[76.9463993,28.4076314],[76.9462839,28.4078016],[76.9469841,28.4081728],[76.9470995,28.4080025]]},"properties":{"_s":"L1_line","Drawing layer":"Proposed station"}},{"type":"Feature","geometry":{"type":"LineString","coordinates":[[76.9466917,28.4079021],[76.9468544,28.4076622],[76.9467897,28.4076279],[76.9468262,28.4077037]]},"properties":{"_s":"L1_line","Drawing layer":"Proposed station"}},{"type":"Feature","geometry":{"type":"LineString","coordinates":[[76.936076,28.4023249],[76.9353665,28.4019679],[76.9352554,28.4021404],[76.935965,28.4024974],[76.936076,28.4023249]]},"properties":{"_s":"L1_line","Drawing layer":"Proposed station"}},{"type":"Feature","geometry":{"type":"LineString","coordinates":[[76.9356657,28.4022326],[76.9358221,28.4019895],[76.9357566,28.4019566],[76.9357951,28.4020316]]},"properties":{"_s":"L1_line","Drawing layer":"Proposed station"}},{"type":"Feature","geometry":{"type":"LineString","coordinates":[[76.9254803,28.3969025],[76.9247781,28.3965343],[76.9246636,28.396705],[76.9253657,28.3970732],[76.9254802,28.3969025]]},"properties":{"_s":"L1_line","Drawing layer":"Proposed station"}},{"type":"Feature","geometry":{"type":"LineString","coordinates":[[76.9250719,28.3968037],[76.9252333,28.3965632],[76.9251685,28.3965292],[76.9252054,28.3966048]]},"properties":{"_s":"L1_line","Drawing layer":"Proposed station"}},{"type":"Feature","geometry":{"type":"LineString","coordinates":[[76.9163181,28.3920137],[76.915656,28.3915915],[76.9155247,28.3917525],[76.9161868,28.3921747],[76.9163181,28.3920137]]},"properties":{"_s":"L1_line","Drawing layer":"Proposed station"}},{"type":"Feature","geometry":{"type":"LineString","coordinates":[[76.9159214,28.3918831],[76.9161064,28.3916562],[76.9160453,28.3916173],[76.9160744,28.3916955]]},"properties":{"_s":"L1_line","Drawing layer":"Proposed station"}},{"type":"Feature","geometry":{"type":"LineString","coordinates":[[76.914616,28.3797517],[76.9154322,28.3797416],[76.915429,28.3795431],[76.9146129,28.3795532],[76.9146161,28.3797517]]},"properties":{"_s":"L1_line","Drawing layer":"Proposed station"}},{"type":"Feature","geometry":{"type":"LineString","coordinates":[[76.9150225,28.3796474],[76.915027,28.3799271],[76.9151023,28.3799261],[76.9150262,28.3798787]]},"properties":{"_s":"L1_line","Drawing layer":"Proposed station"}},{"type":"Feature","geometry":{"type":"LineString","coordinates":[[76.9196888,28.3750161],[76.9196769,28.3742943],[76.9194525,28.3742972],[76.9194645,28.375019],[76.9196889,28.3750161]]},"properties":{"_s":"L1_line","Drawing layer":"Proposed station"}},{"type":"Feature","geometry":{"type":"LineString","coordinates":[[76.9195707,28.3746566],[76.9198869,28.3746526],[76.9198858,28.3745859],[76.9198322,28.3746533]]},"properties":{"_s":"L1_line","Drawing layer":"Proposed station"}},{"type":"Feature","geometry":{"type":"LineString","coordinates":[[76.9068537,28.3723473],[76.9060376,28.3723576],[76.9060408,28.3725561],[76.9068569,28.3725458],[76.9068537,28.3723473]]},"properties":{"_s":"L1_line","Drawing layer":"Proposed station"}},{"type":"Feature","geometry":{"type":"LineString","coordinates":[[76.9064473,28.3724517],[76.9064427,28.372172],[76.9063674,28.372173],[76.9064435,28.3722204]]},"properties":{"_s":"L1_line","Drawing layer":"Proposed station"}},{"type":"Feature","geometry":{"type":"LineString","coordinates":[[76.8965377,28.3711872],[76.8965287,28.3704654],[76.8963043,28.3704675],[76.8963133,28.3711893],[76.8965377,28.3711872]]},"properties":{"_s":"L1_line","Drawing layer":"Proposed station"}},{"type":"Feature","geometry":{"type":"LineString","coordinates":[[76.896421,28.3708273],[76.8967372,28.3708243],[76.8967364,28.3707576],[76.8966825,28.3708248]]},"properties":{"_s":"L1_line","Drawing layer":"Proposed station"}},{"type":"Feature","geometry":{"type":"LineString","coordinates":[[76.8870839,28.3691404],[76.8862679,28.3691513],[76.8862713,28.3693498],[76.8870873,28.3693389],[76.8870839,28.3691404]]},"properties":{"_s":"L1_line","Drawing layer":"Proposed station"}},{"type":"Feature","geometry":{"type":"LineString","coordinates":[[76.8866776,28.3692451],[76.8866728,28.3689654],[76.8865975,28.3689664],[76.8866736,28.3690138]]},"properties":{"_s":"L1_line","Drawing layer":"Proposed station"}},{"type":"Feature","geometry":{"type":"LineString","coordinates":[[76.8787062,28.365541],[76.8786917,28.3648193],[76.8784673,28.3648228],[76.8784818,28.3655445],[76.8787062,28.365541]]},"properties":{"_s":"L1_line","Drawing layer":"Proposed station"}},{"type":"Feature","geometry":{"type":"LineString","coordinates":[[76.8785868,28.3651819],[76.8789029,28.3651769],[76.8789016,28.3651103],[76.8788482,28.3651778]]},"properties":{"_s":"L1_line","Drawing layer":"Proposed station"}},{"type":"Feature","geometry":{"type":"LineString","coordinates":[[76.883409,28.3500248],[76.8835913,28.3493212],[76.8833726,28.3492768],[76.8831903,28.3499804],[76.8834091,28.3500248]]},"properties":{"_s":"L1_line","Drawing layer":"Proposed station"}},{"type":"Feature","geometry":{"type":"LineString","coordinates":[[76.8833908,28.3496508],[76.883699,28.3497133],[76.8837158,28.3496483],[76.8836457,28.3497024]]},"properties":{"_s":"L1_line","Drawing layer":"Proposed station"}},{"type":"Feature","geometry":{"type":"LineString","coordinates":[[76.8850831,28.3405777],[76.8852332,28.3398681],[76.8850126,28.3398316],[76.8848626,28.3405411],[76.8850831,28.3405776]]},"properties":{"_s":"L1_line","Drawing layer":"Proposed station"}},{"type":"Feature","geometry":{"type":"LineString","coordinates":[[76.8850479,28.3402046],[76.8853586,28.3402561],[76.8853725,28.3401905],[76.8853048,28.3402471]]},"properties":{"_s":"L1_line","Drawing layer":"Proposed station"}},{"type":"Feature","geometry":{"type":"LineString","coordinates":[[76.8890464,28.3316538],[76.8895081,28.3310586],[76.8893231,28.3309463],[76.8888615,28.3315415],[76.8890464,28.3316538]]},"properties":{"_s":"L1_line","Drawing layer":"Proposed station"}},{"type":"Feature","geometry":{"type":"LineString","coordinates":[[76.8891848,28.3313],[76.8894454,28.3314583],[76.889488,28.3314034],[76.8894003,28.3314309]]},"properties":{"_s":"L1_line","Drawing layer":"Proposed station"}},{"type":"Feature","geometry":{"type":"LineString","coordinates":[[76.894521,28.3237174],[76.8949405,28.3230982],[76.8947481,28.3229962],[76.8943287,28.3236153],[76.8945211,28.3237173]]},"properties":{"_s":"L1_line","Drawing layer":"Proposed station"}},{"type":"Feature","geometry":{"type":"LineString","coordinates":[[76.8946346,28.3233568],[76.8949057,28.3235006],[76.8949444,28.3234434],[76.8948588,28.3234757]]},"properties":{"_s":"L1_line","Drawing layer":"Proposed station"}},{"type":"Feature","geometry":{"type":"LineString","coordinates":[[76.9903054,28.4053861],[76.9895694,28.4056986],[76.9896666,28.4058775],[76.9904025,28.4055651],[76.9903054,28.4053861]]},"properties":{"_s":"L1_line","Drawing layer":"Proposed station"}},{"type":"Feature","geometry":{"type":"LineString","coordinates":[[76.989986,28.4056318],[76.9898491,28.4053797],[76.9897811,28.4054085],[76.9898728,28.4054233]]},"properties":{"_s":"L1_line","Drawing layer":"Proposed station"}},{"type":"Feature","geometry":{"type":"LineString","coordinates":[[76.9163181,28.3920137],[76.915656,28.3915915]]},"properties":{"_s":"L1_line","Drawing layer":"Proposed station"}},{"type":"Feature","geometry":{"type":"LineString","coordinates":[[76.8965377,28.3711872],[76.8965287,28.3704654]]},"properties":{"_s":"L1_line","Drawing layer":"Proposed station"}}]}