{"type":"FeatureCollection","features":[{"type":"Feature","geometry":{"type":"Polygon","coordinates":[[[76.9807033,28.4100259],[76.9809872,28.4105486],[76.9781286,28.4124659],[76.9755079,28.4140388],[76.9736578,28.4151877],[76.9720642,28.4159539],[76.971081,28.4163409],[76.9692532,28.4143122],[76.97088,28.413085],[76.9712245,28.41305],[76.9712426,28.4131541],[76.9722817,28.4131173],[76.9722099,28.4126164],[76.9750719,28.412575],[76.975084,28.4116562],[76.9793235,28.4104085],[76.9807033,28.4100259]]]},"properties":{"_s":"L3_all","_l":"Metro Depot","Feature":"Depot boundary","_lat":28.412857,"_lng":76.974671}},{"type":"Feature","geometry":{"type":"LineString","coordinates":[[76.9806865,28.4105788],[76.9804367,28.4102191]]},"properties":{"_s":"L3_line","Feature":"Depot entry"}},{"type":"Feature","geometry":{"type":"LineString","coordinates":[[76.9844447,28.40823],[76.9840484,28.4084658],[76.9840484,28.4084658],[76.9840473,28.4084665],[76.9840462,28.4084671],[76.9840452,28.4084678],[76.9840441,28.4084684],[76.984043,28.408469],[76.9840419,28.4084697],[76.9840408,28.4084703],[76.9840397,28.408471],[76.9840387,28.4084716],[76.9840376,28.4084723],[76.9840365,28.4084729],[76.9840354,28.4084736],[76.9840343,28.4084742],[76.9840333,28.4084749],[76.9840322,28.4084755],[76.9840311,28.4084761],[76.98403,28.4084768],[76.9840289,28.4084774],[76.9840279,28.4084781],[76.9840268,28.4084787],[76.9840257,28.4084794],[76.9840246,28.40848],[76.9840235,28.4084807],[76.9840225,28.4084813],[76.9840214,28.408482],[76.9840203,28.4084826],[76.9840192,28.4084833],[76.9840181,28.4084839],[76.9840171,28.4084846],[76.984016,28.4084852],[76.9840149,28.4084859],[76.9840138,28.4084865],[76.9840127,28.4084872],[76.9840117,28.4084878],[76.9840106,28.4084885],[76.9840095,28.4084891],[76.9840084,28.4084898],[76.9840073,28.4084904],[76.9840063,28.408491],[76.9840052,28.4084917],[76.9840041,28.4084923],[76.984003,28.408493],[76.984002,28.4084936],[76.9840009,28.4084943],[76.9839998,28.4084949],[76.9839987,28.4084956],[76.9839976,28.4084963],[76.9839966,28.4084969],[76.9839955,28.4084976],[76.9839944,28.4084982],[76.9839933,28.4084989],[76.9839923,28.4084995],[76.9839912,28.4085002],[76.9839901,28.4085008],[76.983989,28.4085015],[76.983988,28.4085021],[76.9839869,28.4085028],[76.9839858,28.4085034],[76.9839847,28.4085041],[76.9839836,28.4085047],[76.9839826,28.4085054],[76.9839815,28.408506],[76.9839804,28.4085067],[76.9839793,28.4085073],[76.9839783,28.408508],[76.9839772,28.4085086],[76.9839761,28.4085093],[76.983975,28.4085099],[76.983974,28.4085106],[76.9839729,28.4085113],[76.9839718,28.4085119],[76.9839707,28.4085126],[76.9839697,28.4085132],[76.9839686,28.4085139],[76.9839675,28.4085145],[76.9839664,28.4085152],[76.9839654,28.4085158],[76.9839643,28.4085165],[76.9839632,28.4085171],[76.9839621,28.4085178],[76.9839611,28.4085185],[76.98396,28.4085191],[76.9839589,28.4085198],[76.9839579,28.4085204],[76.9839568,28.4085211],[76.9839557,28.4085217],[76.9839546,28.4085224],[76.9839536,28.408523],[76.9839525,28.4085237],[76.9839514,28.4085244],[76.9839503,28.408525],[76.9839493,28.4085257],[76.9839482,28.4085263],[76.9839471,28.408527],[76.9839461,28.4085276],[76.983945,28.4085283],[76.9839439,28.408529],[76.9839428,28.4085296],[76.9839418,28.4085303],[76.9839407,28.4085309],[76.9839396,28.4085316],[76.9839385,28.4085323],[76.9839375,28.4085329],[76.9839364,28.4085336],[76.9839353,28.4085342],[76.9839343,28.4085349],[76.9839332,28.4085355],[76.9839321,28.4085362],[76.9839311,28.4085369],[76.98393,28.4085375],[76.9839289,28.4085382],[76.9839278,28.4085388],[76.9839268,28.4085395],[76.9839257,28.4085402],[76.9839246,28.4085408],[76.9839236,28.4085415],[76.9839225,28.4085421],[76.9839214,28.4085428],[76.9839203,28.4085435],[76.9839193,28.4085441],[76.9839182,28.4085448],[76.9839171,28.4085454],[76.9839161,28.4085461],[76.983915,28.4085468],[76.9839139,28.4085474],[76.9839129,28.4085481],[76.9839118,28.4085488],[76.9839107,28.4085494],[76.9839097,28.4085501],[76.9839086,28.4085507],[76.9839075,28.4085514],[76.9839065,28.4085521],[76.9839054,28.4085527],[76.9839043,28.4085534],[76.9839032,28.4085541],[76.9839022,28.4085547],[76.9839011,28.4085554],[76.9839,28.408556],[76.983899,28.4085567],[76.9838979,28.4085574],[76.9838968,28.408558],[76.9838958,28.4085587],[76.9838947,28.4085594],[76.9838936,28.40856],[76.9838926,28.4085607],[76.9838915,28.4085614],[76.9838904,28.408562],[76.9838894,28.4085627],[76.9838883,28.4085634],[76.9838872,28.408564],[76.9838862,28.4085647],[76.9838851,28.4085653],[76.983884,28.408566],[76.983883,28.4085667],[76.9838819,28.4085673],[76.9838808,28.408568],[76.9838798,28.4085687],[76.9838787,28.4085693],[76.9838777,28.40857],[76.9838766,28.4085707],[76.9838755,28.4085713],[76.9838745,28.408572],[76.9838734,28.4085727],[76.9838723,28.4085733],[76.9838713,28.408574],[76.9838702,28.4085747],[76.9838691,28.4085753],[76.9838681,28.408576],[76.983867,28.4085767],[76.9838659,28.4085773],[76.9838649,28.408578],[76.9838638,28.4085787],[76.9838627,28.4085793],[76.9838617,28.40858],[76.9838606,28.4085807],[76.9838596,28.4085814],[76.9838585,28.408582],[76.9838574,28.4085827],[76.9838564,28.4085834],[76.9838553,28.408584],[76.9838553,28.408584],[76.9806865,28.4105788]]},"properties":{"_s":"L3_line","Feature":"Depot entry"}},{"type":"Feature","geometry":{"type":"LineString","coordinates":[[76.9854571,28.4074719],[76.9852818,28.4075762],[76.9852818,28.4075762],[76.9852803,28.4075771],[76.9852787,28.407578],[76.9852772,28.407579],[76.9852756,28.4075799],[76.9852741,28.4075808],[76.9852725,28.4075817],[76.985271,28.4075827],[76.9852694,28.4075836],[76.9852679,28.4075845],[76.9852663,28.4075855],[76.9852648,28.4075864],[76.9852632,28.4075873],[76.9852617,28.4075883],[76.9852601,28.4075892],[76.9852586,28.4075902],[76.985257,28.4075911],[76.9852555,28.407592],[76.9852539,28.407593],[76.9852524,28.4075939],[76.9852509,28.4075949],[76.9852493,28.4075958],[76.9852478,28.4075967],[76.9852462,28.4075977],[76.9852447,28.4075986],[76.9852432,28.4075996],[76.9852416,28.4076005],[76.9852401,28.4076015],[76.9852385,28.4076024],[76.985237,28.4076034],[76.9852355,28.4076043],[76.9852339,28.4076053],[76.9852324,28.4076062],[76.9852309,28.4076072],[76.9852293,28.4076081],[76.9852278,28.4076091],[76.9852263,28.4076101],[76.9852247,28.407611],[76.9852232,28.407612],[76.9852217,28.4076129],[76.9852201,28.4076139],[76.9852186,28.4076148],[76.9852171,28.4076158],[76.9852155,28.4076168],[76.985214,28.4076177],[76.9852125,28.4076187],[76.985211,28.4076197],[76.9852094,28.4076206],[76.9852079,28.4076216],[76.9852064,28.4076226],[76.9852049,28.4076235],[76.9852033,28.4076245],[76.9852018,28.4076255],[76.9852003,28.4076264],[76.9851988,28.4076274],[76.9851973,28.4076284],[76.9851957,28.4076293],[76.9851942,28.4076303],[76.9851927,28.4076313],[76.9851912,28.4076323],[76.9851897,28.4076332],[76.9851882,28.4076342],[76.9851866,28.4076352],[76.9851851,28.4076362],[76.9851836,28.4076371],[76.9851821,28.4076381],[76.9851806,28.4076391],[76.9851791,28.4076401],[76.9851776,28.4076411],[76.985176,28.4076421],[76.9851745,28.407643],[76.985173,28.407644],[76.9851715,28.407645],[76.98517,28.407646],[76.9851685,28.407647],[76.985167,28.407648],[76.9851655,28.407649],[76.985164,28.4076499],[76.9851625,28.4076509],[76.985161,28.4076519],[76.9851595,28.4076529],[76.985158,28.4076539],[76.9851565,28.4076549],[76.985155,28.4076559],[76.9851535,28.4076569],[76.985152,28.4076579],[76.9851505,28.4076589],[76.985149,28.4076599],[76.9851475,28.4076609],[76.985146,28.4076619],[76.9851445,28.4076629],[76.985143,28.4076639],[76.9851415,28.4076649],[76.98514,28.4076659],[76.9851385,28.4076669],[76.985137,28.4076679],[76.9851355,28.4076689],[76.985134,28.4076699],[76.9851325,28.4076709],[76.9851311,28.4076719],[76.9851296,28.4076729],[76.9851281,28.4076739],[76.9851266,28.4076749],[76.9851251,28.407676],[76.9851236,28.407677],[76.9851221,28.407678],[76.9851206,28.407679],[76.9851192,28.40768],[76.9851177,28.407681],[76.9851162,28.407682],[76.9851147,28.407683],[76.9851132,28.4076841],[76.9851117,28.4076851],[76.9851103,28.4076861],[76.9851088,28.4076871],[76.9851073,28.4076881],[76.9851058,28.4076892],[76.9851044,28.4076902],[76.9851029,28.4076912],[76.9851014,28.4076922],[76.9850999,28.4076933],[76.9850985,28.4076943],[76.985097,28.4076953],[76.9850955,28.4076963],[76.985094,28.4076974],[76.9850926,28.4076984],[76.9850911,28.4076994],[76.9850896,28.4077004],[76.9850881,28.4077015],[76.9850867,28.4077025],[76.9850852,28.4077035],[76.9850837,28.4077046],[76.9850823,28.4077056],[76.9850808,28.4077066],[76.9850793,28.4077077],[76.9850779,28.4077087],[76.9850764,28.4077097],[76.985075,28.4077108],[76.9850735,28.4077118],[76.985072,28.4077129],[76.9850706,28.4077139],[76.9850691,28.4077149],[76.9850677,28.407716],[76.9850662,28.407717],[76.9850647,28.4077181],[76.9850633,28.4077191],[76.9850618,28.4077202],[76.9850604,28.4077212],[76.9850589,28.4077223],[76.9850575,28.4077233],[76.985056,28.4077243],[76.9850546,28.4077254],[76.9850531,28.4077264],[76.9850516,28.4077275],[76.9850502,28.4077285],[76.9850487,28.4077296],[76.9850473,28.4077307],[76.9850458,28.4077317],[76.9850444,28.4077328],[76.985043,28.4077338],[76.9850415,28.4077349],[76.9850401,28.4077359],[76.9850386,28.407737],[76.9850372,28.407738],[76.9850357,28.4077391],[76.9850343,28.4077402],[76.9850328,28.4077412],[76.9850314,28.4077423],[76.98503,28.4077433],[76.9850285,28.4077444],[76.9850271,28.4077455],[76.9850256,28.4077465],[76.9850242,28.4077476],[76.9850228,28.4077487],[76.9850213,28.4077497],[76.9850199,28.4077508],[76.9850185,28.4077519],[76.985017,28.4077529],[76.9850156,28.407754],[76.9850142,28.4077551],[76.9850127,28.4077561],[76.9850127,28.4077561],[76.9848477,28.4078797],[76.9848477,28.4078797],[76.9848445,28.4078821],[76.9848414,28.4078845],[76.9848382,28.4078869],[76.984835,28.4078892],[76.9848318,28.4078916],[76.9848286,28.407894],[76.9848254,28.4078963],[76.9848222,28.4078987],[76.9848191,28.4079011],[76.9848159,28.4079035],[76.9848127,28.4079058],[76.9848095,28.4079082],[76.9848063,28.4079106],[76.9848031,28.4079129],[76.9847999,28.4079153],[76.9847967,28.4079176],[76.9847935,28.40792],[76.9847903,28.4079223],[76.9847871,28.4079247],[76.9847839,28.4079271],[76.9847807,28.4079294],[76.9847775,28.4079318],[76.9847743,28.4079341],[76.9847711,28.4079365],[76.9847679,28.4079388],[76.9847647,28.4079412],[76.9847614,28.4079435],[76.9847582,28.4079458],[76.984755,28.4079482],[76.9847518,28.4079505],[76.9847486,28.4079529],[76.9847454,28.4079552],[76.9847421,28.4079575],[76.9847389,28.4079599],[76.9847357,28.4079622],[76.9847325,28.4079646],[76.9847293,28.4079669],[76.984726,28.4079692],[76.9847228,28.4079715],[76.9847196,28.4079739],[76.9847163,28.4079762],[76.9847131,28.4079785],[76.9847099,28.4079808],[76.9847067,28.4079832],[76.9847034,28.4079855],[76.9847002,28.4079878],[76.9846969,28.4079901],[76.9846937,28.4079924],[76.9846905,28.4079948],[76.9846872,28.4079971],[76.984684,28.4079994],[76.9846807,28.4080017],[76.9846775,28.408004],[76.9846743,28.4080063],[76.984671,28.4080086],[76.9846678,28.4080109],[76.9846645,28.4080132],[76.9846613,28.4080155],[76.984658,28.4080179],[76.9846548,28.4080202],[76.9846515,28.4080225],[76.9846483,28.4080248],[76.984645,28.408027],[76.9846417,28.4080293],[76.9846385,28.4080316],[76.9846352,28.4080339],[76.984632,28.4080362],[76.9846287,28.4080385],[76.9846254,28.4080408],[76.9846222,28.4080431],[76.9846189,28.4080454],[76.9846156,28.4080477],[76.9846124,28.4080499],[76.9846091,28.4080522],[76.9846058,28.4080545],[76.9846026,28.4080568],[76.9845993,28.4080591],[76.984596,28.4080613],[76.9845927,28.4080636],[76.9845895,28.4080659],[76.9845862,28.4080682],[76.9845829,28.4080704],[76.9845796,28.4080727],[76.9845764,28.408075],[76.9845731,28.4080772],[76.9845698,28.4080795],[76.9845665,28.4080818],[76.9845632,28.408084],[76.9845599,28.4080863],[76.9845566,28.4080886],[76.9845534,28.4080908],[76.9845501,28.4080931],[76.9845468,28.4080953],[76.9845435,28.4080976],[76.9845402,28.4080999],[76.9845369,28.4081021],[76.9845336,28.4081044],[76.9845303,28.4081066],[76.984527,28.4081089],[76.9845237,28.4081111],[76.9845204,28.4081133],[76.9845171,28.4081156],[76.9845138,28.4081178],[76.9845105,28.4081201],[76.9845072,28.4081223],[76.9845039,28.4081246],[76.9845006,28.4081268],[76.9844973,28.408129],[76.9844939,28.4081313],[76.9844906,28.4081335],[76.9844873,28.4081357],[76.984484,28.408138],[76.9844807,28.4081402],[76.9844774,28.4081424],[76.9844741,28.4081446],[76.9844707,28.4081469],[76.9844674,28.4081491],[76.9844641,28.4081513],[76.9844608,28.4081535],[76.9844574,28.4081558],[76.9844541,28.408158],[76.9844508,28.4081602],[76.9844475,28.4081624],[76.9844441,28.4081646],[76.9844408,28.4081668],[76.9844375,28.408169],[76.9844341,28.4081713],[76.9844308,28.4081735],[76.9844275,28.4081757],[76.9844241,28.4081779],[76.9844208,28.4081801],[76.9844175,28.4081823],[76.9844141,28.4081845],[76.9844108,28.4081867],[76.9844075,28.4081889],[76.9844041,28.4081911],[76.9844008,28.4081933],[76.9843974,28.4081955],[76.9843941,28.4081977],[76.9843907,28.4081999],[76.9843874,28.4082021],[76.984384,28.4082042],[76.9843807,28.4082064],[76.9843773,28.4082086],[76.984374,28.4082108],[76.9843706,28.408213],[76.9843673,28.4082152],[76.9843639,28.4082174],[76.9843606,28.4082195],[76.9843572,28.4082217],[76.9843538,28.4082239],[76.9843505,28.4082261],[76.9843471,28.4082282],[76.9843437,28.4082304],[76.9843404,28.4082326],[76.984337,28.4082348],[76.9843337,28.4082369],[76.9843303,28.4082391],[76.9843269,28.4082413],[76.9843235,28.4082434],[76.9843202,28.4082456],[76.9843168,28.4082478],[76.9843134,28.4082499],[76.9843101,28.4082521],[76.9843067,28.4082542],[76.9843033,28.4082564],[76.9842999,28.4082585],[76.9842965,28.4082607],[76.9842932,28.4082628],[76.9842898,28.408265],[76.9842864,28.4082671],[76.984283,28.4082693],[76.9842796,28.4082714],[76.9842762,28.4082736],[76.9842729,28.4082757],[76.9842695,28.4082779],[76.9842661,28.40828],[76.9842627,28.4082822],[76.9842593,28.4082843],[76.9842559,28.4082864],[76.9842559,28.4082864],[76.9806646,28.4105472]]},"properties":{"_s":"L3_line","Feature":"Depot entry"}}]}