{"type":"FeatureCollection","features":[{"type":"Feature","properties":{"_s":"L6_all","_l":"","OBJECTID":1,"distance":0.3,"Unit":"KM","_lat":28.461482,"_lng":76.890397},"geometry":{"type":"MultiPolygon","coordinates":[[[[76.901536,28.468974],[76.901501,28.469129],[76.9015,28.46915],[76.901485,28.469268],[76.901465,28.469384],[76.901439,28.4695],[76.901407,28.469615],[76.90137,28.469728],[76.901327,28.46984],[76.901278,28.46995],[76.901224,28.470058],[76.901165,28.470164],[76.901101,28.470268],[76.901032,28.470369],[76.900957,28.470467],[76.900878,28.470562],[76.900795,28.470654],[76.900707,28.470743],[76.900614,28.470828],[76.900518,28.47091],[76.900417,28.470988],[76.900313,28.471062],[76.900205,28.471132],[76.900094,28.471197],[76.89998,28.471259],[76.899863,28.471315],[76.899743,28.471368],[76.89962,28.471415],[76.899496,28.471458],[76.899369,28.471496],[76.899241,28.471529],[76.899111,28.471557],[76.89898,28.47158],[76.898848,28.471598],[76.898715,28.471611],[76.898582,28.471619],[76.898448,28.471621],[76.898312,28.471619],[76.898177,28.471611],[76.896189,28.471454],[76.896083,28.471444],[76.894362,28.471256],[76.894357,28.471255],[76.893036,28.471108],[76.892886,28.471088],[76.892742,28.471063],[76.890109,28.470536],[76.888105,28.470148],[76.888076,28.470142],[76.886621,28.469846],[76.88653,28.469826],[76.886439,28.469804],[76.886349,28.469779],[76.88626,28.469752],[76.886136,28.469709],[76.886013,28.469661],[76.885894,28.469609],[76.885776,28.469552],[76.885662,28.469491],[76.885551,28.469425],[76.885443,28.469355],[76.885339,28.469282],[76.885238,28.469204],[76.885142,28.469122],[76.885049,28.469037],[76.884961,28.468948],[76.884878,28.468856],[76.884799,28.46876],[76.884724,28.468662],[76.884655,28.468561],[76.884591,28.468458],[76.884532,28.468352],[76.884478,28.468244],[76.884429,28.468134],[76.884386,28.468022],[76.884349,28.467908],[76.884317,28.467794],[76.884291,28.467678],[76.884271,28.467561],[76.884256,28.467444],[76.884248,28.467326],[76.884245,28.467208],[76.884248,28.46709],[76.884256,28.466972],[76.884271,28.466855],[76.884291,28.466738],[76.884307,28.466669],[76.884251,28.466657],[76.884123,28.466624],[76.883997,28.466586],[76.883872,28.466543],[76.88375,28.466496],[76.88363,28.466443],[76.883513,28.466386],[76.883398,28.466325],[76.883287,28.46626],[76.883179,28.46619],[76.883075,28.466116],[76.88302,28.466073],[76.882971,28.466068],[76.882839,28.46605],[76.882708,28.466027],[76.882578,28.465999],[76.88245,28.465966],[76.882323,28.465928],[76.882198,28.465885],[76.882076,28.465838],[76.881956,28.465786],[76.881839,28.465729],[76.881725,28.465668],[76.881614,28.465602],[76.881506,28.465532],[76.881402,28.465458],[76.881301,28.46538],[76.881205,28.465299],[76.881112,28.465213],[76.881024,28.465125],[76.88094,28.465032],[76.880861,28.464937],[76.880787,28.464839],[76.880718,28.464738],[76.880654,28.464634],[76.880594,28.464529],[76.880541,28.46442],[76.880492,28.46431],[76.880464,28.46424],[76.880439,28.464168],[76.8786,28.458798],[76.878575,28.458721],[76.878553,28.458643],[76.878533,28.458564],[76.878516,28.458485],[76.878495,28.458368],[76.878481,28.45825],[76.878472,28.458133],[76.878469,28.458015],[76.878472,28.457896],[76.878481,28.457779],[76.878495,28.457661],[76.878516,28.457544],[76.878542,28.457429],[76.878574,28.457314],[76.878611,28.457201],[76.878654,28.457089],[76.878702,28.456979],[76.878756,28.456871],[76.878815,28.456765],[76.87888,28.456661],[76.878949,28.45656],[76.879023,28.456462],[76.879102,28.456367],[76.879186,28.456275],[76.879274,28.456186],[76.879366,28.4561],[76.879463,28.456019],[76.879563,28.455941],[76.879668,28.455867],[76.879775,28.455797],[76.879887,28.455732],[76.880001,28.45567],[76.880118,28.455613],[76.880238,28.455561],[76.88036,28.455514],[76.880485,28.455471],[76.880611,28.455433],[76.880739,28.4554],[76.880869,28.455372],[76.881,28.455349],[76.881109,28.455334],[76.881218,28.455322],[76.881327,28.455314],[76.881437,28.455309],[76.88376,28.455245],[76.884317,28.454281],[76.884304,28.45404],[76.884301,28.453914],[76.884304,28.453796],[76.884313,28.453678],[76.884327,28.453561],[76.884347,28.453444],[76.884373,28.453328],[76.884405,28.453214],[76.884443,28.4531],[76.884486,28.452988],[76.884534,28.452878],[76.884588,28.45277],[76.884647,28.452664],[76.884711,28.452561],[76.884781,28.45246],[76.884855,28.452362],[76.884934,28.452266],[76.885017,28.452174],[76.885099,28.452092],[76.885184,28.452012],[76.885273,28.451936],[76.885365,28.451863],[76.887821,28.449994],[76.88785,28.449972],[76.887955,28.449898],[76.888062,28.449828],[76.888174,28.449763],[76.888288,28.449702],[76.888405,28.449645],[76.888525,28.449593],[76.888647,28.449545],[76.888772,28.449502],[76.888898,28.449464],[76.889026,28.449431],[76.889156,28.449403],[76.889287,28.44938],[76.889419,28.449362],[76.889552,28.449349],[76.889686,28.449341],[76.889819,28.449339],[76.889906,28.44934],[76.890305,28.44935],[76.890417,28.449355],[76.890529,28.449363],[76.89064,28.449375],[76.890751,28.44939],[76.890882,28.449413],[76.891012,28.449441],[76.89114,28.449474],[76.891267,28.449512],[76.891391,28.449555],[76.891513,28.449603],[76.891633,28.449655],[76.89175,28.449712],[76.891865,28.449773],[76.891976,28.449838],[76.892084,28.449908],[76.892188,28.449982],[76.892288,28.45006],[76.892385,28.450142],[76.892477,28.450227],[76.892565,28.450316],[76.892649,28.450408],[76.892728,28.450503],[76.892802,28.450601],[76.892871,28.450702],[76.892936,28.450806],[76.892995,28.450912],[76.893049,28.45102],[76.893097,28.45113],[76.89314,28.451242],[76.893177,28.451355],[76.893209,28.45147],[76.893235,28.451586],[76.893256,28.451702],[76.89327,28.45182],[76.893279,28.451938],[76.893282,28.452056],[76.893279,28.452174],[76.89327,28.452292],[76.893256,28.452409],[76.893235,28.452526],[76.893209,28.452642],[76.893178,28.452756],[76.893145,28.452855],[76.893224,28.452942],[76.893303,28.453037],[76.893377,28.453136],[76.893447,28.453237],[76.893511,28.45334],[76.89357,28.453446],[76.893624,28.453554],[76.893672,28.453664],[76.893715,28.453776],[76.893753,28.453889],[76.893784,28.454004],[76.89381,28.45412],[76.893829,28.454222],[76.893842,28.454324],[76.893851,28.454427],[76.893856,28.45453],[76.893869,28.455041],[76.895581,28.454984],[76.895696,28.454982],[76.89583,28.454985],[76.895963,28.454993],[76.896096,28.455006],[76.896228,28.455024],[76.896359,28.455047],[76.896489,28.455075],[76.896617,28.455108],[76.896744,28.455146],[76.896868,28.455188],[76.896991,28.455236],[76.89711,28.455288],[76.897228,28.455345],[76.897342,28.455406],[76.897453,28.455472],[76.897561,28.455542],[76.897665,28.455616],[76.897765,28.455694],[76.897862,28.455775],[76.897954,28.455861],[76.898042,28.455949],[76.898126,28.456041],[76.898205,28.456137],[76.898279,28.456235],[76.898349,28.456336],[76.898413,28.456439],[76.898472,28.456545],[76.898526,28.456653],[76.898574,28.456764],[76.898617,28.456875],[76.898655,28.456989],[76.898686,28.457103],[76.898713,28.457219],[76.898732,28.45733],[76.898746,28.457441],[76.898755,28.457552],[76.898759,28.457664],[76.898805,28.461989],[76.898805,28.462014],[76.898802,28.462132],[76.898794,28.46225],[76.898779,28.462367],[76.898759,28.462484],[76.898733,28.4626],[76.898701,28.462715],[76.898664,28.462828],[76.898621,28.46294],[76.898572,28.46305],[76.898568,28.463058],[76.898572,28.463065],[76.898626,28.463173],[76.898674,28.463283],[76.898717,28.463395],[76.898754,28.463508],[76.898786,28.463623],[76.898812,28.463738],[76.89883,28.463836],[76.898843,28.463935],[76.898847,28.463971],[76.898928,28.46397],[76.899061,28.463972],[76.899195,28.46398],[76.899328,28.463993],[76.89946,28.464011],[76.899591,28.464034],[76.899721,28.464062],[76.899849,28.464095],[76.899975,28.464133],[76.9001,28.464176],[76.900222,28.464223],[76.900342,28.464275],[76.900459,28.464332],[76.900574,28.464393],[76.900685,28.464459],[76.900792,28.464529],[76.900897,28.464603],[76.900997,28.464681],[76.901094,28.464762],[76.901186,28.464848],[76.901274,28.464936],[76.901358,28.465029],[76.901437,28.465124],[76.901511,28.465222],[76.901581,28.465323],[76.901645,28.465427],[76.901704,28.465532],[76.901758,28.465641],[76.901806,28.465751],[76.901849,28.465862],[76.901887,28.465976],[76.901918,28.466091],[76.901944,28.466206],[76.901965,28.466323],[76.901979,28.466441],[76.901988,28.466558],[76.901991,28.466676],[76.90199,28.466754],[76.901986,28.466831],[76.90198,28.466908],[76.901971,28.466985],[76.901911,28.467443],[76.9019,28.467524],[76.901885,28.467605],[76.901864,28.467699],[76.90172,28.468296],[76.901702,28.468366],[76.901536,28.468974]],[[76.898868,28.467135],[76.898928,28.466676],[76.896711,28.466957],[76.895887,28.467087],[76.895796,28.464209],[76.895129,28.464188],[76.895124,28.462047],[76.895742,28.462014],[76.895696,28.457689],[76.891625,28.457824],[76.891564,28.457334],[76.890861,28.45724],[76.890794,28.45459],[76.888104,28.454541],[76.888792,28.453379],[76.890219,28.452056],[76.889819,28.452046],[76.887364,28.453914],[76.887414,28.454873],[76.885664,28.457901],[76.881532,28.458015],[76.883371,28.463385],[76.884594,28.463084],[76.885044,28.464042],[76.887127,28.463368],[76.887297,28.463761],[76.887697,28.463761],[76.888184,28.464516],[76.88848,28.46718],[76.887308,28.467208],[76.888763,28.467504],[76.890775,28.467894],[76.893418,28.468422],[76.894739,28.468569],[76.89646,28.468758],[76.898448,28.468914],[76.898448,28.46884],[76.898472,28.468712],[76.898544,28.468392],[76.898724,28.467731],[76.898868,28.467135]]]]}},{"type":"Feature","properties":{"_s":"L6_all","_l":"","OBJECTID":2,"distance":0.5,"Unit":"KM","_lat":28.461397,"_lng":76.890478},"geometry":{"type":"MultiPolygon","coordinates":[[[[76.902499,28.471661],[76.90243,28.471738],[76.902359,28.471814],[76.902287,28.471889],[76.902212,28.471962],[76.902136,28.472034],[76.902058,28.472104],[76.901979,28.472173],[76.901897,28.472241],[76.901815,28.472306],[76.90173,28.47237],[76.901644,28.472433],[76.901556,28.472494],[76.901467,28.472553],[76.901377,28.47261],[76.901285,28.472666],[76.901191,28.472719],[76.901097,28.472771],[76.901001,28.472821],[76.900904,28.47287],[76.900806,28.472916],[76.900706,28.472961],[76.900606,28.473003],[76.900504,28.473044],[76.900402,28.473082],[76.900299,28.473119],[76.900194,28.473154],[76.900089,28.473186],[76.899983,28.473217],[76.899877,28.473246],[76.89977,28.473272],[76.899662,28.473297],[76.899553,28.473319],[76.899444,28.473339],[76.899335,28.473357],[76.899225,28.473373],[76.899115,28.473387],[76.899004,28.473399],[76.898893,28.473409],[76.898782,28.473416],[76.898671,28.473422],[76.89856,28.473425],[76.898448,28.473426],[76.898335,28.473425],[76.898222,28.473421],[76.898109,28.473416],[76.897996,28.473408],[76.896008,28.473252],[76.895832,28.473235],[76.89411,28.473046],[76.894102,28.473046],[76.892781,28.472899],[76.892656,28.472883],[76.892531,28.472865],[76.892411,28.472845],[76.892292,28.472823],[76.889664,28.472298],[76.887667,28.47191],[76.887618,28.4719],[76.886163,28.471605],[76.886011,28.471571],[76.88586,28.471534],[76.88571,28.471493],[76.885562,28.471447],[76.885458,28.471413],[76.885354,28.471376],[76.885252,28.471337],[76.88515,28.471297],[76.88505,28.471254],[76.88495,28.47121],[76.884852,28.471163],[76.884755,28.471115],[76.884659,28.471065],[76.884565,28.471013],[76.884471,28.470959],[76.88438,28.470903],[76.884289,28.470846],[76.8842,28.470787],[76.884112,28.470726],[76.884026,28.470664],[76.883942,28.4706],[76.883859,28.470534],[76.883777,28.470467],[76.883698,28.470398],[76.88362,28.470328],[76.883544,28.470256],[76.883469,28.470183],[76.883397,28.470108],[76.883326,28.470032],[76.883257,28.469954],[76.883191,28.469876],[76.883126,28.469796],[76.883063,28.469714],[76.883002,28.469632],[76.882943,28.469548],[76.882886,28.469464],[76.882832,28.469378],[76.882779,28.469291],[76.882729,28.469203],[76.882681,28.469114],[76.882635,28.469025],[76.882591,28.468934],[76.88255,28.468843],[76.88251,28.468751],[76.882473,28.468658],[76.882439,28.468564],[76.882406,28.46847],[76.882376,28.468375],[76.882349,28.46828],[76.882324,28.468184],[76.882301,28.468088],[76.88228,28.467991],[76.882262,28.467894],[76.88225,28.467817],[76.882208,28.467793],[76.882167,28.467769],[76.882157,28.467767],[76.882049,28.467742],[76.881942,28.467716],[76.881835,28.467687],[76.88173,28.467657],[76.881625,28.467624],[76.88152,28.467589],[76.881417,28.467553],[76.881314,28.467514],[76.881213,28.467473],[76.881113,28.467431],[76.881013,28.467386],[76.880915,28.46734],[76.880818,28.467292],[76.880722,28.467242],[76.880628,28.46719],[76.880534,28.467136],[76.880442,28.46708],[76.880352,28.467023],[76.880263,28.466964],[76.880175,28.466903],[76.880089,28.466841],[76.880004,28.466776],[76.879922,28.466711],[76.87984,28.466644],[76.879761,28.466575],[76.879683,28.466504],[76.879607,28.466432],[76.879532,28.466359],[76.87946,28.466284],[76.879389,28.466208],[76.87932,28.466131],[76.879253,28.466052],[76.879189,28.465972],[76.879126,28.465891],[76.879065,28.465809],[76.879006,28.465725],[76.878949,28.46564],[76.878895,28.465555],[76.878842,28.465468],[76.878792,28.46538],[76.878744,28.465291],[76.878698,28.465202],[76.878654,28.465111],[76.878612,28.46502],[76.878573,28.464928],[76.878527,28.46481],[76.878484,28.464691],[76.876646,28.459321],[76.876604,28.459192],[76.876566,28.459061],[76.876533,28.45893],[76.876505,28.458798],[76.876487,28.458701],[76.876471,28.458603],[76.876458,28.458506],[76.876447,28.458408],[76.876438,28.45831],[76.876432,28.458211],[76.876428,28.458113],[76.876427,28.458014],[76.876428,28.457916],[76.876432,28.457818],[76.876438,28.457719],[76.876447,28.457621],[76.876458,28.457523],[76.876471,28.457426],[76.876487,28.457328],[76.876505,28.457231],[76.876525,28.457134],[76.876548,28.457038],[76.876574,28.456942],[76.876601,28.456847],[76.876631,28.456752],[76.876664,28.456658],[76.876698,28.456564],[76.876735,28.456471],[76.876774,28.456379],[76.876816,28.456288],[76.87686,28.456197],[76.876906,28.456108],[76.876954,28.456019],[76.877004,28.455931],[76.877057,28.455844],[76.877111,28.455759],[76.877168,28.455674],[76.877227,28.45559],[76.877288,28.455508],[76.877351,28.455427],[76.877415,28.455347],[76.877482,28.455268],[76.877551,28.455191],[76.877622,28.455115],[76.877694,28.45504],[76.877769,28.454967],[76.877845,28.454895],[76.877923,28.454824],[76.878002,28.454756],[76.878083,28.454688],[76.878166,28.454623],[76.878251,28.454558],[76.878337,28.454496],[76.878425,28.454435],[76.878514,28.454376],[76.878604,28.454319],[76.878696,28.454263],[76.878789,28.45421],[76.878884,28.454158],[76.87898,28.454107],[76.879077,28.454059],[76.879175,28.454013],[76.879274,28.453968],[76.879375,28.453926],[76.879476,28.453885],[76.879579,28.453846],[76.879682,28.45381],[76.879786,28.453775],[76.879891,28.453742],[76.879997,28.453712],[76.880104,28.453683],[76.880211,28.453657],[76.880319,28.453632],[76.880427,28.45361],[76.880536,28.45359],[76.880646,28.453572],[76.880827,28.453546],[76.881008,28.453527],[76.881191,28.453513],[76.881374,28.453505],[76.882283,28.45348],[76.882289,28.453423],[76.882303,28.453325],[76.882318,28.453228],[76.882337,28.453131],[76.882357,28.453034],[76.88238,28.452938],[76.882405,28.452842],[76.882433,28.452746],[76.882463,28.452652],[76.882495,28.452557],[76.88253,28.452464],[76.882567,28.452371],[76.882606,28.452279],[76.882648,28.452188],[76.882691,28.452097],[76.882737,28.452007],[76.882785,28.451919],[76.882836,28.451831],[76.882888,28.451744],[76.882943,28.451658],[76.883,28.451574],[76.883058,28.45149],[76.883119,28.451408],[76.883182,28.451326],[76.883247,28.451246],[76.883314,28.451168],[76.883383,28.45109],[76.883453,28.451014],[76.883521,28.450945],[76.883589,28.450877],[76.88366,28.45081],[76.883731,28.450744],[76.883805,28.45068],[76.883879,28.450617],[76.883956,28.450555],[76.884033,28.450495],[76.886489,28.448627],[76.886538,28.44859],[76.886624,28.448527],[76.886712,28.448467],[76.886801,28.448408],[76.886891,28.44835],[76.886983,28.448295],[76.887077,28.448241],[76.887171,28.448189],[76.887267,28.448139],[76.887364,28.44809],[76.887462,28.448044],[76.887562,28.448],[76.887662,28.447957],[76.887763,28.447916],[76.887866,28.447878],[76.887969,28.447841],[76.888073,28.447806],[76.888178,28.447774],[76.888284,28.447743],[76.888391,28.447715],[76.888498,28.447688],[76.888606,28.447664],[76.888714,28.447641],[76.888823,28.447621],[76.888933,28.447603],[76.889043,28.447587],[76.889153,28.447573],[76.889263,28.447561],[76.889374,28.447551],[76.889485,28.447544],[76.889597,28.447539],[76.889708,28.447535],[76.889819,28.447534],[76.889963,28.447536],[76.890363,28.447546],[76.890549,28.447554],[76.890736,28.447567],[76.890921,28.447587],[76.891105,28.447613],[76.891215,28.447631],[76.891324,28.447651],[76.891432,28.447674],[76.89154,28.447698],[76.891647,28.447725],[76.891754,28.447753],[76.89186,28.447784],[76.891965,28.447816],[76.892069,28.447851],[76.892172,28.447888],[76.892275,28.447926],[76.892376,28.447967],[76.892477,28.44801],[76.892576,28.448054],[76.892674,28.4481],[76.892771,28.448149],[76.892867,28.448199],[76.892962,28.448251],[76.893055,28.448305],[76.893147,28.44836],[76.893237,28.448417],[76.893326,28.448477],[76.893414,28.448537],[76.8935,28.4486],[76.893585,28.448664],[76.893668,28.44873],[76.893749,28.448797],[76.893829,28.448866],[76.893906,28.448936],[76.893983,28.449008],[76.894057,28.449081],[76.894129,28.449156],[76.8942,28.449232],[76.894269,28.449309],[76.894336,28.449388],[76.8944,28.449468],[76.894463,28.449549],[76.894524,28.449632],[76.894583,28.449715],[76.89464,28.4498],[76.894694,28.449886],[76.894747,28.449973],[76.894797,28.45006],[76.894845,28.450149],[76.894891,28.450239],[76.894935,28.450329],[76.894977,28.450421],[76.895016,28.450513],[76.895053,28.450606],[76.895087,28.450699],[76.89512,28.450793],[76.89515,28.450888],[76.895177,28.450983],[76.895203,28.451079],[76.895226,28.451176],[76.895246,28.451272],[76.895264,28.451369],[76.89528,28.451467],[76.895293,28.451565],[76.895304,28.451663],[76.895313,28.451761],[76.895319,28.451859],[76.895323,28.451957],[76.895324,28.452056],[76.895323,28.452154],[76.895319,28.452253],[76.895313,28.452351],[76.895304,28.452449],[76.895302,28.452473],[76.895322,28.452507],[76.895372,28.452595],[76.895421,28.452683],[76.895467,28.452773],[76.89551,28.452864],[76.895552,28.452955],[76.895591,28.453047],[76.895628,28.45314],[76.895642,28.453179],[76.895696,28.453178],[76.895807,28.453179],[76.895919,28.453182],[76.89603,28.453187],[76.896141,28.453195],[76.896252,28.453205],[76.896362,28.453216],[76.896473,28.45323],[76.896582,28.453246],[76.896692,28.453265],[76.896801,28.453285],[76.896909,28.453307],[76.897017,28.453332],[76.897125,28.453358],[76.897231,28.453387],[76.897337,28.453417],[76.897442,28.45345],[76.897546,28.453485],[76.89765,28.453521],[76.897752,28.45356],[76.897853,28.453601],[76.897954,28.453643],[76.898053,28.453688],[76.898151,28.453734],[76.898248,28.453782],[76.898344,28.453832],[76.898439,28.453884],[76.898532,28.453938],[76.898624,28.453994],[76.898715,28.454051],[76.898804,28.45411],[76.898891,28.454171],[76.898977,28.454233],[76.899062,28.454297],[76.899145,28.454363],[76.899226,28.45443],[76.899306,28.454499],[76.899384,28.45457],[76.89946,28.454641],[76.899534,28.454715],[76.899607,28.454789],[76.899677,28.454865],[76.899746,28.454943],[76.899813,28.455022],[76.899878,28.455102],[76.899941,28.455183],[76.900001,28.455265],[76.90006,28.455349],[76.900117,28.455434],[76.900172,28.455519],[76.900224,28.455606],[76.900275,28.455694],[76.900323,28.455783],[76.900369,28.455872],[76.900412,28.455963],[76.900454,28.456054],[76.900493,28.456146],[76.90053,28.456239],[76.900565,28.456333],[76.900597,28.456427],[76.900627,28.456522],[76.900655,28.456617],[76.90068,28.456713],[76.900703,28.456809],[76.900723,28.456906],[76.900741,28.456998],[76.900756,28.45709],[76.900769,28.457182],[76.900779,28.457275],[76.900788,28.457368],[76.900794,28.457461],[76.900799,28.457554],[76.900801,28.457647],[76.900846,28.461916],[76.900847,28.461972],[76.900847,28.462014],[76.900846,28.462113],[76.900843,28.462211],[76.900836,28.462309],[76.900828,28.462407],[76.900819,28.462486],[76.900881,28.462508],[76.900984,28.462547],[76.901085,28.462588],[76.901186,28.46263],[76.901285,28.462675],[76.901383,28.462721],[76.90148,28.462769],[76.901576,28.462819],[76.901671,28.462871],[76.901764,28.462925],[76.901856,28.462981],[76.901946,28.463038],[76.902036,28.463097],[76.902123,28.463158],[76.902209,28.46322],[76.902294,28.463284],[76.902377,28.46335],[76.902458,28.463417],[76.902538,28.463486],[76.902616,28.463557],[76.902692,28.463628],[76.902766,28.463702],[76.902839,28.463776],[76.902909,28.463853],[76.902978,28.46393],[76.903045,28.464009],[76.90311,28.464089],[76.903173,28.46417],[76.903233,28.464252],[76.903292,28.464336],[76.903349,28.464421],[76.903404,28.464506],[76.903456,28.464593],[76.903507,28.464681],[76.903555,28.46477],[76.903601,28.464859],[76.903644,28.46495],[76.903686,28.465041],[76.903725,28.465133],[76.903762,28.465226],[76.903797,28.46532],[76.903829,28.465414],[76.903859,28.465509],[76.903887,28.465604],[76.903912,28.4657],[76.903935,28.465796],[76.903956,28.465893],[76.903974,28.46599],[76.903989,28.466087],[76.904003,28.466185],[76.904014,28.466283],[76.904022,28.466381],[76.904028,28.46648],[76.904032,28.466578],[76.904033,28.466676],[76.904031,28.466805],[76.904025,28.466934],[76.904014,28.467063],[76.904,28.467191],[76.90394,28.467649],[76.903921,28.467784],[76.903896,28.467918],[76.903861,28.468076],[76.903717,28.468672],[76.903687,28.468789],[76.903531,28.469361],[76.903525,28.469388],[76.903523,28.469405],[76.90351,28.469503],[76.903494,28.469601],[76.903476,28.469698],[76.903456,28.469794],[76.903433,28.469891],[76.903407,28.469987],[76.90338,28.470082],[76.90335,28.470177],[76.903317,28.470271],[76.903283,28.470364],[76.903246,28.470457],[76.903207,28.470549],[76.903165,28.470641],[76.903121,28.470731],[76.903075,28.470821],[76.903027,28.47091],[76.902977,28.470997],[76.902924,28.471084],[76.90287,28.47117],[76.902813,28.471255],[76.902754,28.471338],[76.902693,28.471421],[76.90263,28.471502],[76.902566,28.471582],[76.902499,28.471661]],[[76.899061,28.463972],[76.898928,28.46397],[76.898847,28.463971],[76.898843,28.463935],[76.89883,28.463836],[76.898812,28.463738],[76.898786,28.463623],[76.898754,28.463508],[76.898717,28.463395],[76.898674,28.463283],[76.898626,28.463173],[76.898572,28.463065],[76.898568,28.463058],[76.898572,28.46305],[76.898621,28.46294],[76.898664,28.462828],[76.898701,28.462715],[76.898733,28.4626],[76.898759,28.462484],[76.898779,28.462367],[76.898794,28.46225],[76.898802,28.462132],[76.898805,28.462014],[76.898805,28.461989],[76.898759,28.457664],[76.898755,28.457552],[76.898746,28.457441],[76.898732,28.45733],[76.898713,28.457219],[76.898686,28.457103],[76.898655,28.456989],[76.898617,28.456875],[76.898574,28.456764],[76.898526,28.456653],[76.898472,28.456545],[76.898413,28.456439],[76.898349,28.456336],[76.898279,28.456235],[76.898205,28.456137],[76.898126,28.456041],[76.898042,28.455949],[76.897954,28.455861],[76.897862,28.455775],[76.897765,28.455694],[76.897665,28.455616],[76.897561,28.455542],[76.897453,28.455472],[76.897342,28.455406],[76.897228,28.455345],[76.89711,28.455288],[76.896991,28.455236],[76.896868,28.455188],[76.896744,28.455146],[76.896617,28.455108],[76.896489,28.455075],[76.896359,28.455047],[76.896228,28.455024],[76.896096,28.455006],[76.895963,28.454993],[76.89583,28.454985],[76.895696,28.454982],[76.895581,28.454984],[76.893869,28.455041],[76.893856,28.45453],[76.893851,28.454427],[76.893842,28.454324],[76.893829,28.454222],[76.89381,28.45412],[76.893784,28.454004],[76.893753,28.453889],[76.893715,28.453776],[76.893672,28.453664],[76.893624,28.453554],[76.89357,28.453446],[76.893511,28.45334],[76.893447,28.453237],[76.893377,28.453136],[76.893303,28.453037],[76.893224,28.452942],[76.893145,28.452855],[76.893178,28.452756],[76.893209,28.452642],[76.893235,28.452526],[76.893256,28.452409],[76.89327,28.452292],[76.893279,28.452174],[76.893282,28.452056],[76.893279,28.451938],[76.89327,28.45182],[76.893256,28.451702],[76.893235,28.451586],[76.893209,28.45147],[76.893177,28.451355],[76.89314,28.451242],[76.893097,28.45113],[76.893049,28.45102],[76.892995,28.450912],[76.892936,28.450806],[76.892871,28.450702],[76.892802,28.450601],[76.892728,28.450503],[76.892649,28.450408],[76.892565,28.450316],[76.892477,28.450227],[76.892385,28.450142],[76.892288,28.45006],[76.892188,28.449982],[76.892084,28.449908],[76.891976,28.449838],[76.891865,28.449773],[76.89175,28.449712],[76.891633,28.449655],[76.891513,28.449603],[76.891391,28.449555],[76.891267,28.449512],[76.89114,28.449474],[76.891012,28.449441],[76.890882,28.449413],[76.890751,28.44939],[76.89064,28.449375],[76.890529,28.449363],[76.890417,28.449355],[76.890305,28.44935],[76.889906,28.44934],[76.889819,28.449339],[76.889686,28.449341],[76.889552,28.449349],[76.889419,28.449362],[76.889287,28.44938],[76.889156,28.449403],[76.889026,28.449431],[76.888898,28.449464],[76.888772,28.449502],[76.888647,28.449545],[76.888525,28.449593],[76.888405,28.449645],[76.888288,28.449702],[76.888174,28.449763],[76.888062,28.449828],[76.887955,28.449898],[76.88785,28.449972],[76.887821,28.449994],[76.885365,28.451863],[76.885273,28.451936],[76.885184,28.452012],[76.885099,28.452092],[76.885017,28.452174],[76.884934,28.452266],[76.884855,28.452362],[76.884781,28.45246],[76.884711,28.452561],[76.884647,28.452664],[76.884588,28.45277],[76.884534,28.452878],[76.884486,28.452988],[76.884443,28.4531],[76.884405,28.453214],[76.884373,28.453328],[76.884347,28.453444],[76.884327,28.453561],[76.884313,28.453678],[76.884304,28.453796],[76.884301,28.453914],[76.884304,28.45404],[76.884317,28.454281],[76.88376,28.455245],[76.881437,28.455309],[76.881327,28.455314],[76.881218,28.455322],[76.881109,28.455334],[76.881,28.455349],[76.880869,28.455372],[76.880739,28.4554],[76.880611,28.455433],[76.880485,28.455471],[76.88036,28.455514],[76.880238,28.455561],[76.880118,28.455613],[76.880001,28.45567],[76.879887,28.455732],[76.879775,28.455797],[76.879668,28.455867],[76.879563,28.455941],[76.879463,28.456019],[76.879366,28.4561],[76.879274,28.456186],[76.879186,28.456275],[76.879102,28.456367],[76.879023,28.456462],[76.878949,28.45656],[76.87888,28.456661],[76.878815,28.456765],[76.878756,28.456871],[76.878702,28.456979],[76.878654,28.457089],[76.878611,28.457201],[76.878574,28.457314],[76.878542,28.457429],[76.878516,28.457544],[76.878495,28.457661],[76.878481,28.457779],[76.878472,28.457896],[76.878469,28.458015],[76.878472,28.458133],[76.878481,28.45825],[76.878495,28.458368],[76.878516,28.458485],[76.878533,28.458564],[76.878553,28.458643],[76.878575,28.458721],[76.8786,28.458798],[76.880439,28.464168],[76.880464,28.46424],[76.880492,28.46431],[76.880541,28.46442],[76.880594,28.464529],[76.880654,28.464634],[76.880718,28.464738],[76.880787,28.464839],[76.880861,28.464937],[76.88094,28.465032],[76.881024,28.465125],[76.881112,28.465213],[76.881205,28.465299],[76.881301,28.46538],[76.881402,28.465458],[76.881506,28.465532],[76.881614,28.465602],[76.881725,28.465668],[76.881839,28.465729],[76.881956,28.465786],[76.882076,28.465838],[76.882198,28.465885],[76.882323,28.465928],[76.88245,28.465966],[76.882578,28.465999],[76.882708,28.466027],[76.882839,28.46605],[76.882971,28.466068],[76.88302,28.466073],[76.883075,28.466116],[76.883179,28.46619],[76.883287,28.46626],[76.883398,28.466325],[76.883513,28.466386],[76.88363,28.466443],[76.88375,28.466496],[76.883872,28.466543],[76.883997,28.466586],[76.884123,28.466624],[76.884251,28.466657],[76.884307,28.466669],[76.884291,28.466738],[76.884271,28.466855],[76.884256,28.466972],[76.884248,28.46709],[76.884245,28.467208],[76.884248,28.467326],[76.884256,28.467444],[76.884271,28.467561],[76.884291,28.467678],[76.884317,28.467794],[76.884349,28.467908],[76.884386,28.468022],[76.884429,28.468134],[76.884478,28.468244],[76.884532,28.468352],[76.884591,28.468458],[76.884655,28.468561],[76.884724,28.468662],[76.884799,28.46876],[76.884878,28.468856],[76.884961,28.468948],[76.885049,28.469037],[76.885142,28.469122],[76.885238,28.469204],[76.885339,28.469282],[76.885443,28.469355],[76.885551,28.469425],[76.885662,28.469491],[76.885776,28.469552],[76.885894,28.469609],[76.886013,28.469661],[76.886136,28.469709],[76.88626,28.469752],[76.886349,28.469779],[76.886439,28.469804],[76.88653,28.469826],[76.886621,28.469846],[76.888076,28.470142],[76.888105,28.470148],[76.890109,28.470536],[76.892742,28.471063],[76.892886,28.471088],[76.893036,28.471108],[76.894357,28.471255],[76.894362,28.471256],[76.896083,28.471444],[76.896189,28.471454],[76.898177,28.471611],[76.898312,28.471619],[76.898448,28.471621],[76.898582,28.471619],[76.898715,28.471611],[76.898848,28.471598],[76.89898,28.47158],[76.899111,28.471557],[76.899241,28.471529],[76.899369,28.471496],[76.899496,28.471458],[76.89962,28.471415],[76.899743,28.471368],[76.899863,28.471315],[76.89998,28.471259],[76.900094,28.471197],[76.900205,28.471132],[76.900313,28.471062],[76.900417,28.470988],[76.900518,28.47091],[76.900614,28.470828],[76.900707,28.470743],[76.900795,28.470654],[76.900878,28.470562],[76.900957,28.470467],[76.901032,28.470369],[76.901101,28.470268],[76.901165,28.470164],[76.901224,28.470058],[76.901278,28.46995],[76.901327,28.46984],[76.90137,28.469728],[76.901407,28.469615],[76.901439,28.4695],[76.901465,28.469384],[76.901485,28.469268],[76.9015,28.46915],[76.901501,28.469129],[76.901536,28.468974],[76.901702,28.468366],[76.90172,28.468296],[76.901864,28.467699],[76.901885,28.467605],[76.9019,28.467524],[76.901911,28.467443],[76.901971,28.466985],[76.90198,28.466908],[76.901986,28.466831],[76.90199,28.466754],[76.901991,28.466676],[76.901988,28.466558],[76.901979,28.466441],[76.901965,28.466323],[76.901944,28.466206],[76.901918,28.466091],[76.901887,28.465976],[76.901849,28.465862],[76.901806,28.465751],[76.901758,28.465641],[76.901704,28.465532],[76.901645,28.465427],[76.901581,28.465323],[76.901511,28.465222],[76.901437,28.465124],[76.901358,28.465029],[76.901274,28.464936],[76.901186,28.464848],[76.901094,28.464762],[76.900997,28.464681],[76.900897,28.464603],[76.900792,28.464529],[76.900685,28.464459],[76.900574,28.464393],[76.900459,28.464332],[76.900342,28.464275],[76.900222,28.464223],[76.9001,28.464176],[76.899975,28.464133],[76.899849,28.464095],[76.899721,28.464062],[76.899591,28.464034],[76.89946,28.464011],[76.899328,28.463993],[76.899195,28.46398],[76.899061,28.463972]]]]}},{"type":"Feature","properties":{"_s":"L6_all","_l":"","OBJECTID":3,"distance":1.0,"Unit":"KM","_lat":28.461322,"_lng":76.890598},"geometry":{"type":"MultiPolygon","coordinates":[[[[76.907178,28.473595],[76.90706,28.473762],[76.906939,28.473927],[76.906813,28.47409],[76.906683,28.47425],[76.90655,28.474407],[76.906412,28.474562],[76.906271,28.474714],[76.906126,28.474863],[76.905977,28.47501],[76.905825,28.475154],[76.905669,28.475294],[76.90551,28.475432],[76.905347,28.475567],[76.905181,28.475698],[76.905012,28.475826],[76.90484,28.475951],[76.904665,28.476073],[76.904486,28.476191],[76.904305,28.476306],[76.904122,28.476417],[76.903935,28.476524],[76.903746,28.476628],[76.903554,28.476728],[76.90336,28.476825],[76.903163,28.476918],[76.902965,28.477007],[76.902764,28.477092],[76.902561,28.477173],[76.902356,28.477251],[76.902149,28.477324],[76.901941,28.477393],[76.901731,28.477459],[76.901519,28.47752],[76.901306,28.477577],[76.901091,28.47763],[76.900875,28.477679],[76.900658,28.477724],[76.90044,28.477764],[76.900221,28.4778],[76.900002,28.477832],[76.899781,28.47786],[76.89956,28.477884],[76.899338,28.477903],[76.899116,28.477918],[76.898894,28.477929],[76.898671,28.477935],[76.898448,28.477937],[76.898222,28.477935],[76.897995,28.477929],[76.897769,28.477917],[76.897543,28.477902],[76.895555,28.477746],[76.895379,28.47773],[76.895203,28.477712],[76.893481,28.477524],[76.893465,28.477522],[76.892143,28.477375],[76.891894,28.477344],[76.891645,28.477308],[76.891405,28.477268],[76.891166,28.477223],[76.888553,28.476701],[76.886571,28.476317],[76.886473,28.476297],[76.885018,28.476001],[76.884865,28.475969],[76.884713,28.475935],[76.884562,28.475899],[76.884411,28.47586],[76.884261,28.47582],[76.884112,28.475778],[76.883963,28.475733],[76.883815,28.475687],[76.883607,28.475617],[76.8834,28.475544],[76.883195,28.475467],[76.882992,28.475385],[76.882791,28.4753],[76.882593,28.475211],[76.882396,28.475119],[76.882202,28.475022],[76.88201,28.474922],[76.881821,28.474818],[76.881635,28.47471],[76.881451,28.474599],[76.88127,28.474484],[76.881092,28.474366],[76.880916,28.474245],[76.880744,28.47412],[76.880575,28.473992],[76.880409,28.47386],[76.880247,28.473726],[76.880087,28.473588],[76.879932,28.473447],[76.879779,28.473304],[76.879631,28.473157],[76.879486,28.473008],[76.879344,28.472855],[76.879207,28.472701],[76.879073,28.472543],[76.878943,28.472383],[76.878818,28.472221],[76.878696,28.472056],[76.878578,28.471889],[76.878465,28.471719],[76.878355,28.471548],[76.87825,28.471374],[76.87815,28.471198],[76.878104,28.471115],[76.878073,28.471098],[76.877884,28.470994],[76.877698,28.470887],[76.877514,28.470776],[76.877333,28.470661],[76.877154,28.470543],[76.876979,28.470421],[76.876807,28.470296],[76.876638,28.470168],[76.876472,28.470037],[76.87631,28.469902],[76.87615,28.469765],[76.875995,28.469624],[76.875842,28.46948],[76.875694,28.469334],[76.875549,28.469184],[76.875407,28.469032],[76.87527,28.468877],[76.875136,28.46872],[76.875006,28.46856],[76.874881,28.468397],[76.874759,28.468232],[76.874641,28.468065],[76.874528,28.467896],[76.874418,28.467724],[76.874313,28.467551],[76.874213,28.467375],[76.874116,28.467198],[76.874025,28.467018],[76.873937,28.466837],[76.873854,28.466655],[76.873776,28.46647],[76.873683,28.466235],[76.873597,28.465997],[76.871759,28.460627],[76.871716,28.460498],[76.871676,28.460368],[76.871637,28.460238],[76.871601,28.460108],[76.871566,28.459977],[76.871534,28.459845],[76.871505,28.459713],[76.871477,28.459581],[76.871441,28.459387],[76.871409,28.459192],[76.871383,28.458996],[76.871361,28.458801],[76.871344,28.458604],[76.871332,28.458408],[76.871325,28.458211],[76.871322,28.458014],[76.871325,28.457817],[76.871332,28.457621],[76.871344,28.457424],[76.871361,28.457228],[76.871383,28.457032],[76.87141,28.456836],[76.871441,28.456642],[76.871477,28.456447],[76.871519,28.456254],[76.871564,28.456061],[76.871615,28.45587],[76.87167,28.455679],[76.87173,28.455489],[76.871795,28.455301],[76.871864,28.455114],[76.871938,28.454928],[76.872017,28.454744],[76.8721,28.454561],[76.872187,28.45438],[76.872279,28.454201],[76.872375,28.454023],[76.872476,28.453848],[76.872581,28.453674],[76.87269,28.453503],[76.872804,28.453333],[76.872922,28.453166],[76.873043,28.453001],[76.873169,28.452839],[76.873299,28.452679],[76.873432,28.452521],[76.87357,28.452367],[76.873711,28.452214],[76.873856,28.452065],[76.874005,28.451918],[76.874157,28.451775],[76.874313,28.451634],[76.874472,28.451496],[76.874635,28.451362],[76.874801,28.45123],[76.87497,28.451102],[76.875142,28.450977],[76.875317,28.450856],[76.875495,28.450738],[76.875676,28.450623],[76.87586,28.450512],[76.876047,28.450404],[76.876236,28.450301],[76.876428,28.4502],[76.876622,28.450104],[76.876818,28.450011],[76.877017,28.449922],[76.877218,28.449837],[76.87742,28.449756],[76.877625,28.449678],[76.877832,28.449605],[76.87804,28.449536],[76.878251,28.44947],[76.878462,28.449409],[76.87853,28.449391],[76.878636,28.449233],[76.878753,28.449066],[76.878875,28.448901],[76.879001,28.448739],[76.879131,28.448579],[76.879264,28.448421],[76.879402,28.448266],[76.879543,28.448114],[76.879678,28.447975],[76.879815,28.447839],[76.879956,28.447705],[76.880099,28.447574],[76.880246,28.447446],[76.880395,28.44732],[76.880548,28.447197],[76.880703,28.447076],[76.883158,28.445208],[76.883257,28.445134],[76.883429,28.445009],[76.883604,28.444887],[76.883783,28.444769],[76.883964,28.444654],[76.884148,28.444543],[76.884334,28.444436],[76.884523,28.444332],[76.884715,28.444232],[76.884909,28.444135],[76.885105,28.444042],[76.885304,28.443953],[76.885505,28.443868],[76.885708,28.443787],[76.885912,28.44371],[76.886119,28.443636],[76.886328,28.443567],[76.886538,28.443502],[76.886749,28.44344],[76.886963,28.443383],[76.887177,28.44333],[76.887393,28.443281],[76.88761,28.443237],[76.887828,28.443196],[76.888046,28.44316],[76.888266,28.443128],[76.888487,28.4431],[76.888708,28.443076],[76.888929,28.443057],[76.889152,28.443042],[76.889374,28.443031],[76.889596,28.443025],[76.889819,28.443023],[76.890107,28.443026],[76.890507,28.443036],[76.890694,28.443042],[76.89088,28.443052],[76.891066,28.443064],[76.891252,28.443079],[76.891438,28.443097],[76.891623,28.443118],[76.891808,28.443143],[76.891992,28.44317],[76.892211,28.443206],[76.892429,28.443247],[76.892645,28.443291],[76.892861,28.44334],[76.893076,28.443393],[76.893289,28.44345],[76.8935,28.443512],[76.893711,28.443577],[76.893919,28.443646],[76.894126,28.44372],[76.894331,28.443797],[76.894533,28.443878],[76.894734,28.443963],[76.894933,28.444052],[76.895129,28.444145],[76.895323,28.444241],[76.895515,28.444342],[76.895704,28.444446],[76.895891,28.444553],[76.896075,28.444664],[76.896256,28.444779],[76.896434,28.444897],[76.896609,28.445019],[76.896781,28.445144],[76.89695,28.445272],[76.897116,28.445403],[76.897279,28.445538],[76.897438,28.445675],[76.897594,28.445816],[76.897746,28.44596],[76.897894,28.446106],[76.89804,28.446256],[76.898181,28.446408],[76.898318,28.446563],[76.898452,28.44672],[76.898582,28.44688],[76.898707,28.447043],[76.898829,28.447207],[76.898947,28.447375],[76.89906,28.447544],[76.89917,28.447716],[76.899275,28.447889],[76.899375,28.448065],[76.899472,28.448242],[76.899564,28.448421],[76.899651,28.448603],[76.899734,28.448785],[76.899813,28.448969],[76.899886,28.449155],[76.899956,28.449342],[76.900014,28.449513],[76.900211,28.449597],[76.90041,28.449686],[76.900607,28.449778],[76.900801,28.449875],[76.900992,28.449975],[76.901181,28.450079],[76.901368,28.450187],[76.901552,28.450298],[76.901733,28.450413],[76.901911,28.450531],[76.902086,28.450652],[76.902258,28.450777],[76.902428,28.450905],[76.902593,28.451037],[76.902756,28.451171],[76.902915,28.451309],[76.903071,28.45145],[76.903223,28.451593],[76.903372,28.45174],[76.903517,28.451889],[76.903658,28.452041],[76.903796,28.452196],[76.903929,28.452354],[76.904059,28.452514],[76.904185,28.452676],[76.904307,28.452841],[76.904424,28.453008],[76.904538,28.453178],[76.904647,28.453349],[76.904752,28.453523],[76.904853,28.453698],[76.904949,28.453876],[76.905041,28.454055],[76.905129,28.454236],[76.905212,28.454419],[76.90529,28.454603],[76.905364,28.454789],[76.905433,28.454976],[76.905498,28.455164],[76.905558,28.455354],[76.905613,28.455544],[76.905664,28.455736],[76.90571,28.455929],[76.905751,28.456122],[76.905785,28.456306],[76.905815,28.45649],[76.905841,28.456675],[76.905863,28.45686],[76.90588,28.457046],[76.905893,28.457232],[76.905901,28.457418],[76.905906,28.457604],[76.905933,28.460112],[76.905988,28.460158],[76.906147,28.460296],[76.906303,28.460437],[76.906456,28.46058],[76.906604,28.460727],[76.906749,28.460876],[76.906891,28.461028],[76.907028,28.461183],[76.907162,28.461341],[76.907292,28.461501],[76.907417,28.461663],[76.907539,28.461828],[76.907657,28.461995],[76.90777,28.462165],[76.907879,28.462336],[76.907985,28.46251],[76.908085,28.462685],[76.908182,28.462863],[76.908274,28.463042],[76.908361,28.463223],[76.908444,28.463406],[76.908523,28.46359],[76.908596,28.463776],[76.908666,28.463963],[76.90873,28.464151],[76.90879,28.464341],[76.908846,28.464531],[76.908896,28.464723],[76.908942,28.464916],[76.908983,28.465109],[76.90902,28.465303],[76.909051,28.465498],[76.909078,28.465694],[76.9091,28.46589],[76.909117,28.466086],[76.909129,28.466282],[76.909136,28.466479],[76.909139,28.466676],[76.909138,28.466805],[76.909134,28.466934],[76.909129,28.467063],[76.909122,28.467192],[76.909113,28.46732],[76.909101,28.467449],[76.909088,28.467577],[76.909072,28.467705],[76.909013,28.468164],[76.908994,28.468298],[76.908973,28.468433],[76.90895,28.468567],[76.908924,28.468701],[76.908891,28.468859],[76.908855,28.469016],[76.908711,28.469613],[76.908651,28.469846],[76.908555,28.470198],[76.908541,28.470287],[76.908504,28.470481],[76.908463,28.470674],[76.908417,28.470867],[76.908367,28.471059],[76.908311,28.471249],[76.908252,28.471439],[76.908187,28.471627],[76.908118,28.471814],[76.908044,28.472],[76.907965,28.472184],[76.907882,28.472367],[76.907795,28.472548],[76.907703,28.472727],[76.907607,28.472905],[76.907506,28.47308],[76.907401,28.473254],[76.907292,28.473426],[76.907178,28.473595]],[[76.902499,28.471661],[76.902566,28.471582],[76.90263,28.471502],[76.902693,28.471421],[76.902754,28.471338],[76.902813,28.471255],[76.90287,28.47117],[76.902924,28.471084],[76.902977,28.470997],[76.903027,28.47091],[76.903075,28.470821],[76.903121,28.470731],[76.903165,28.470641],[76.903207,28.470549],[76.903246,28.470457],[76.903283,28.470364],[76.903317,28.470271],[76.90335,28.470177],[76.90338,28.470082],[76.903407,28.469987],[76.903433,28.469891],[76.903456,28.469794],[76.903476,28.469698],[76.903494,28.469601],[76.90351,28.469503],[76.903523,28.469405],[76.903525,28.469388],[76.903531,28.469361],[76.903687,28.468789],[76.903717,28.468672],[76.903861,28.468076],[76.903896,28.467918],[76.903921,28.467784],[76.90394,28.467649],[76.904,28.467191],[76.904014,28.467063],[76.904025,28.466934],[76.904031,28.466805],[76.904033,28.466676],[76.904032,28.466578],[76.904028,28.46648],[76.904022,28.466381],[76.904014,28.466283],[76.904003,28.466185],[76.903989,28.466087],[76.903974,28.46599],[76.903956,28.465893],[76.903935,28.465796],[76.903912,28.4657],[76.903887,28.465604],[76.903859,28.465509],[76.903829,28.465414],[76.903797,28.46532],[76.903762,28.465226],[76.903725,28.465133],[76.903686,28.465041],[76.903644,28.46495],[76.903601,28.464859],[76.903555,28.46477],[76.903507,28.464681],[76.903456,28.464593],[76.903404,28.464506],[76.903349,28.464421],[76.903292,28.464336],[76.903233,28.464252],[76.903173,28.46417],[76.90311,28.464089],[76.903045,28.464009],[76.902978,28.46393],[76.902909,28.463853],[76.902839,28.463776],[76.902766,28.463702],[76.902692,28.463628],[76.902616,28.463557],[76.902538,28.463486],[76.902458,28.463417],[76.902377,28.46335],[76.902294,28.463284],[76.902209,28.46322],[76.902123,28.463158],[76.902036,28.463097],[76.901946,28.463038],[76.901856,28.462981],[76.901764,28.462925],[76.901671,28.462871],[76.901576,28.462819],[76.90148,28.462769],[76.901383,28.462721],[76.901285,28.462675],[76.901186,28.46263],[76.901085,28.462588],[76.900984,28.462547],[76.900881,28.462508],[76.900819,28.462486],[76.900828,28.462407],[76.900836,28.462309],[76.900843,28.462211],[76.900846,28.462113],[76.900847,28.462014],[76.900847,28.461972],[76.900846,28.461916],[76.900801,28.457647],[76.900799,28.457554],[76.900794,28.457461],[76.900788,28.457368],[76.900779,28.457275],[76.900769,28.457182],[76.900756,28.45709],[76.900741,28.456998],[76.900723,28.456906],[76.900703,28.456809],[76.90068,28.456713],[76.900655,28.456617],[76.900627,28.456522],[76.900597,28.456427],[76.900565,28.456333],[76.90053,28.456239],[76.900493,28.456146],[76.900454,28.456054],[76.900412,28.455963],[76.900369,28.455872],[76.900323,28.455783],[76.900275,28.455694],[76.900224,28.455606],[76.900172,28.455519],[76.900117,28.455434],[76.90006,28.455349],[76.900001,28.455265],[76.899941,28.455183],[76.899878,28.455102],[76.899813,28.455022],[76.899746,28.454943],[76.899677,28.454865],[76.899607,28.454789],[76.899534,28.454715],[76.89946,28.454641],[76.899384,28.45457],[76.899306,28.454499],[76.899226,28.45443],[76.899145,28.454363],[76.899062,28.454297],[76.898977,28.454233],[76.898891,28.454171],[76.898804,28.45411],[76.898715,28.454051],[76.898624,28.453994],[76.898532,28.453938],[76.898439,28.453884],[76.898344,28.453832],[76.898248,28.453782],[76.898151,28.453734],[76.898053,28.453688],[76.897954,28.453643],[76.897853,28.453601],[76.897752,28.45356],[76.89765,28.453521],[76.897546,28.453485],[76.897442,28.45345],[76.897337,28.453417],[76.897231,28.453387],[76.897125,28.453358],[76.897017,28.453332],[76.896909,28.453307],[76.896801,28.453285],[76.896692,28.453265],[76.896582,28.453246],[76.896473,28.45323],[76.896362,28.453216],[76.896252,28.453205],[76.896141,28.453195],[76.89603,28.453187],[76.895919,28.453182],[76.895807,28.453179],[76.895696,28.453178],[76.895642,28.453179],[76.895628,28.45314],[76.895591,28.453047],[76.895552,28.452955],[76.89551,28.452864],[76.895467,28.452773],[76.895421,28.452683],[76.895372,28.452595],[76.895322,28.452507],[76.895302,28.452473],[76.895304,28.452449],[76.895313,28.452351],[76.895319,28.452253],[76.895323,28.452154],[76.895324,28.452056],[76.895323,28.451957],[76.895319,28.451859],[76.895313,28.451761],[76.895304,28.451663],[76.895293,28.451565],[76.89528,28.451467],[76.895264,28.451369],[76.895246,28.451272],[76.895226,28.451176],[76.895203,28.451079],[76.895177,28.450983],[76.89515,28.450888],[76.89512,28.450793],[76.895087,28.450699],[76.895053,28.450606],[76.895016,28.450513],[76.894977,28.450421],[76.894935,28.450329],[76.894891,28.450239],[76.894845,28.450149],[76.894797,28.45006],[76.894747,28.449973],[76.894694,28.449886],[76.89464,28.4498],[76.894583,28.449715],[76.894524,28.449632],[76.894463,28.449549],[76.8944,28.449468],[76.894336,28.449388],[76.894269,28.449309],[76.8942,28.449232],[76.894129,28.449156],[76.894057,28.449081],[76.893983,28.449008],[76.893906,28.448936],[76.893829,28.448866],[76.893749,28.448797],[76.893668,28.44873],[76.893585,28.448664],[76.8935,28.4486],[76.893414,28.448537],[76.893326,28.448477],[76.893237,28.448417],[76.893147,28.44836],[76.893055,28.448305],[76.892962,28.448251],[76.892867,28.448199],[76.892771,28.448149],[76.892674,28.4481],[76.892576,28.448054],[76.892477,28.44801],[76.892376,28.447967],[76.892275,28.447926],[76.892172,28.447888],[76.892069,28.447851],[76.891965,28.447816],[76.89186,28.447784],[76.891754,28.447753],[76.891647,28.447725],[76.89154,28.447698],[76.891432,28.447674],[76.891324,28.447651],[76.891215,28.447631],[76.891105,28.447613],[76.890921,28.447587],[76.890736,28.447567],[76.890549,28.447554],[76.890363,28.447546],[76.889963,28.447536],[76.889819,28.447534],[76.889708,28.447535],[76.889597,28.447539],[76.889485,28.447544],[76.889374,28.447551],[76.889263,28.447561],[76.889153,28.447573],[76.889043,28.447587],[76.888933,28.447603],[76.888823,28.447621],[76.888714,28.447641],[76.888606,28.447664],[76.888498,28.447688],[76.888391,28.447715],[76.888284,28.447743],[76.888178,28.447774],[76.888073,28.447806],[76.887969,28.447841],[76.887866,28.447878],[76.887763,28.447916],[76.887662,28.447957],[76.887562,28.448],[76.887462,28.448044],[76.887364,28.44809],[76.887267,28.448139],[76.887171,28.448189],[76.887077,28.448241],[76.886983,28.448295],[76.886891,28.44835],[76.886801,28.448408],[76.886712,28.448467],[76.886624,28.448527],[76.886538,28.44859],[76.886489,28.448627],[76.884033,28.450495],[76.883956,28.450555],[76.883879,28.450617],[76.883805,28.45068],[76.883731,28.450744],[76.88366,28.45081],[76.883589,28.450877],[76.883521,28.450945],[76.883453,28.451014],[76.883383,28.45109],[76.883314,28.451168],[76.883247,28.451246],[76.883182,28.451326],[76.883119,28.451408],[76.883058,28.45149],[76.883,28.451574],[76.882943,28.451658],[76.882888,28.451744],[76.882836,28.451831],[76.882785,28.451919],[76.882737,28.452007],[76.882691,28.452097],[76.882648,28.452188],[76.882606,28.452279],[76.882567,28.452371],[76.88253,28.452464],[76.882495,28.452557],[76.882463,28.452652],[76.882433,28.452746],[76.882405,28.452842],[76.88238,28.452938],[76.882357,28.453034],[76.882337,28.453131],[76.882318,28.453228],[76.882303,28.453325],[76.882289,28.453423],[76.882283,28.45348],[76.881374,28.453505],[76.881191,28.453513],[76.881008,28.453527],[76.880827,28.453546],[76.880646,28.453572],[76.880536,28.45359],[76.880427,28.45361],[76.880319,28.453632],[76.880211,28.453657],[76.880104,28.453683],[76.879997,28.453712],[76.879891,28.453742],[76.879786,28.453775],[76.879682,28.45381],[76.879579,28.453846],[76.879476,28.453885],[76.879375,28.453926],[76.879274,28.453968],[76.879175,28.454013],[76.879077,28.454059],[76.87898,28.454107],[76.878884,28.454158],[76.878789,28.45421],[76.878696,28.454263],[76.878604,28.454319],[76.878514,28.454376],[76.878425,28.454435],[76.878337,28.454496],[76.878251,28.454558],[76.878166,28.454623],[76.878083,28.454688],[76.878002,28.454756],[76.877923,28.454824],[76.877845,28.454895],[76.877769,28.454967],[76.877694,28.45504],[76.877622,28.455115],[76.877551,28.455191],[76.877482,28.455268],[76.877415,28.455347],[76.877351,28.455427],[76.877288,28.455508],[76.877227,28.45559],[76.877168,28.455674],[76.877111,28.455759],[76.877057,28.455844],[76.877004,28.455931],[76.876954,28.456019],[76.876906,28.456108],[76.87686,28.456197],[76.876816,28.456288],[76.876774,28.456379],[76.876735,28.456471],[76.876698,28.456564],[76.876664,28.456658],[76.876631,28.456752],[76.876601,28.456847],[76.876574,28.456942],[76.876548,28.457038],[76.876525,28.457134],[76.876505,28.457231],[76.876487,28.457328],[76.876471,28.457426],[76.876458,28.457523],[76.876447,28.457621],[76.876438,28.457719],[76.876432,28.457818],[76.876428,28.457916],[76.876427,28.458014],[76.876428,28.458113],[76.876432,28.458211],[76.876438,28.45831],[76.876447,28.458408],[76.876458,28.458506],[76.876471,28.458603],[76.876487,28.458701],[76.876505,28.458798],[76.876533,28.45893],[76.876566,28.459061],[76.876604,28.459192],[76.876646,28.459321],[76.878484,28.464691],[76.878527,28.46481],[76.878573,28.464928],[76.878612,28.46502],[76.878654,28.465111],[76.878698,28.465202],[76.878744,28.465291],[76.878792,28.46538],[76.878842,28.465468],[76.878895,28.465555],[76.878949,28.46564],[76.879006,28.465725],[76.879065,28.465809],[76.879126,28.465891],[76.879189,28.465972],[76.879253,28.466052],[76.87932,28.466131],[76.879389,28.466208],[76.87946,28.466284],[76.879532,28.466359],[76.879607,28.466432],[76.879683,28.466504],[76.879761,28.466575],[76.87984,28.466644],[76.879922,28.466711],[76.880004,28.466776],[76.880089,28.466841],[76.880175,28.466903],[76.880263,28.466964],[76.880352,28.467023],[76.880442,28.46708],[76.880534,28.467136],[76.880628,28.46719],[76.880722,28.467242],[76.880818,28.467292],[76.880915,28.46734],[76.881013,28.467386],[76.881113,28.467431],[76.881213,28.467473],[76.881314,28.467514],[76.881417,28.467553],[76.88152,28.467589],[76.881625,28.467624],[76.88173,28.467657],[76.881835,28.467687],[76.881942,28.467716],[76.882049,28.467742],[76.882157,28.467767],[76.882167,28.467769],[76.882208,28.467793],[76.88225,28.467817],[76.882262,28.467894],[76.88228,28.467991],[76.882301,28.468088],[76.882324,28.468184],[76.882349,28.46828],[76.882376,28.468375],[76.882406,28.46847],[76.882439,28.468564],[76.882473,28.468658],[76.88251,28.468751],[76.88255,28.468843],[76.882591,28.468934],[76.882635,28.469025],[76.882681,28.469114],[76.882729,28.469203],[76.882779,28.469291],[76.882832,28.469378],[76.882886,28.469464],[76.882943,28.469548],[76.883002,28.469632],[76.883063,28.469714],[76.883126,28.469796],[76.883191,28.469876],[76.883257,28.469954],[76.883326,28.470032],[76.883397,28.470108],[76.883469,28.470183],[76.883544,28.470256],[76.88362,28.470328],[76.883698,28.470398],[76.883777,28.470467],[76.883859,28.470534],[76.883942,28.4706],[76.884026,28.470664],[76.884112,28.470726],[76.8842,28.470787],[76.884289,28.470846],[76.88438,28.470903],[76.884471,28.470959],[76.884565,28.471013],[76.884659,28.471065],[76.884755,28.471115],[76.884852,28.471163],[76.88495,28.47121],[76.88505,28.471254],[76.88515,28.471297],[76.885252,28.471337],[76.885354,28.471376],[76.885458,28.471413],[76.885562,28.471447],[76.88571,28.471493],[76.88586,28.471534],[76.886011,28.471571],[76.886163,28.471605],[76.887618,28.4719],[76.887667,28.47191],[76.889664,28.472298],[76.892292,28.472823],[76.892411,28.472845],[76.892531,28.472865],[76.892656,28.472883],[76.892781,28.472899],[76.894102,28.473046],[76.89411,28.473046],[76.895832,28.473235],[76.896008,28.473252],[76.897996,28.473408],[76.898109,28.473416],[76.898222,28.473421],[76.898335,28.473425],[76.898448,28.473426],[76.89856,28.473425],[76.898671,28.473422],[76.898782,28.473416],[76.898893,28.473409],[76.899004,28.473399],[76.899115,28.473387],[76.899225,28.473373],[76.899335,28.473357],[76.899444,28.473339],[76.899553,28.473319],[76.899662,28.473297],[76.89977,28.473272],[76.899877,28.473246],[76.899983,28.473217],[76.900089,28.473186],[76.900194,28.473154],[76.900299,28.473119],[76.900402,28.473082],[76.900504,28.473044],[76.900606,28.473003],[76.900706,28.472961],[76.900806,28.472916],[76.900904,28.47287],[76.901001,28.472821],[76.901097,28.472771],[76.901191,28.472719],[76.901285,28.472666],[76.901377,28.47261],[76.901467,28.472553],[76.901556,28.472494],[76.901644,28.472433],[76.90173,28.47237],[76.901815,28.472306],[76.901897,28.472241],[76.901979,28.472173],[76.902058,28.472104],[76.902136,28.472034],[76.902212,28.471962],[76.902287,28.471889],[76.902359,28.471814],[76.90243,28.471738],[76.902499,28.471661]]]]}},{"type":"Feature","properties":{"_s":"L6_all","_l":"","OBJECTID":4,"distance":3.0,"Unit":"KM","_lat":28.461281,"_lng":76.890734},"geometry":{"type":"MultiPolygon","coordinates":[[[[76.927236,28.47817],[76.926752,28.47927],[76.926214,28.480351],[76.925623,28.481411],[76.924981,28.482446],[76.924287,28.483456],[76.923545,28.484438],[76.922755,28.485391],[76.921918,28.486312],[76.921037,28.4872],[76.920113,28.488053],[76.919148,28.48887],[76.918143,28.489649],[76.9171,28.490389],[76.916022,28.491087],[76.914911,28.491743],[76.913768,28.492356],[76.912596,28.492924],[76.911397,28.493447],[76.910174,28.493923],[76.908928,28.494351],[76.907662,28.49473],[76.906379,28.495061],[76.90508,28.495342],[76.903769,28.495572],[76.902448,28.495752],[76.901119,28.49588],[76.899785,28.495958],[76.898448,28.495984],[76.897089,28.495957],[76.895732,28.495877],[76.893744,28.495721],[76.892687,28.495621],[76.890965,28.495432],[76.890915,28.495427],[76.889594,28.49528],[76.888097,28.49508],[76.88666,28.494825],[76.884109,28.494315],[76.882187,28.493942],[76.881892,28.493883],[76.880437,28.493588],[76.879523,28.493389],[76.878616,28.493165],[76.877718,28.492917],[76.876828,28.492644],[76.875583,28.492216],[76.874359,28.49174],[76.87316,28.491218],[76.871988,28.49065],[76.870846,28.490037],[76.869734,28.489381],[76.868656,28.488682],[76.867614,28.487943],[76.866609,28.487164],[76.865643,28.486347],[76.864719,28.485494],[76.863838,28.484606],[76.863002,28.483684],[76.862796,28.483436],[76.862672,28.483341],[76.861707,28.482524],[76.860783,28.48167],[76.859902,28.480782],[76.859065,28.479861],[76.858275,28.478909],[76.857533,28.477926],[76.85684,28.476917],[76.856197,28.475881],[76.855606,28.474822],[76.855068,28.473741],[76.854584,28.47264],[76.854306,28.471933],[76.854049,28.47122],[76.852212,28.46585],[76.851961,28.465074],[76.851736,28.464292],[76.851538,28.463504],[76.851366,28.462712],[76.851163,28.461544],[76.851018,28.46037],[76.850931,28.459192],[76.850902,28.458011],[76.850932,28.45683],[76.851019,28.455652],[76.851165,28.454478],[76.851369,28.453311],[76.85163,28.452152],[76.851948,28.451005],[76.852322,28.449872],[76.852752,28.448753],[76.853236,28.447653],[76.853775,28.446572],[76.854366,28.445513],[76.855009,28.444477],[76.855703,28.443468],[76.856445,28.442486],[76.857235,28.441534],[76.858072,28.440613],[76.858953,28.439725],[76.859877,28.438872],[76.860843,28.438055],[76.861847,28.437277],[76.86289,28.436538],[76.863967,28.43584],[76.865078,28.435184],[76.86551,28.434952],[76.865573,28.434893],[76.866461,28.43413],[76.867384,28.433399],[76.869839,28.431531],[76.870135,28.431308],[76.871178,28.430569],[76.872255,28.429871],[76.873366,28.429215],[76.874508,28.428602],[76.87568,28.428034],[76.876878,28.427512],[76.878101,28.427037],[76.879346,28.426609],[76.880611,28.426229],[76.881894,28.425899],[76.883192,28.425618],[76.884502,28.425388],[76.885822,28.425208],[76.88715,28.42508],[76.888484,28.425002],[76.889819,28.424977],[76.890683,28.424987],[76.891083,28.424997],[76.892201,28.425043],[76.893318,28.425125],[76.89443,28.425244],[76.895536,28.425398],[76.896847,28.425628],[76.898144,28.425909],[76.899427,28.426239],[76.900692,28.426619],[76.901937,28.427047],[76.90316,28.427522],[76.904358,28.428044],[76.90553,28.428612],[76.906672,28.429225],[76.907783,28.429881],[76.908861,28.430579],[76.909903,28.431318],[76.910907,28.432097],[76.911873,28.432913],[76.912797,28.433766],[76.913678,28.434654],[76.914514,28.435575],[76.915305,28.436527],[76.915972,28.43741],[76.916386,28.43773],[76.917351,28.438547],[76.918275,28.4394],[76.919156,28.440288],[76.919993,28.441208],[76.920783,28.442161],[76.921526,28.443143],[76.922219,28.444152],[76.922862,28.445187],[76.923453,28.446247],[76.923992,28.447327],[76.924476,28.448428],[76.924906,28.449546],[76.92528,28.45068],[76.925598,28.451827],[76.925859,28.452985],[76.92605,28.454092],[76.926096,28.454175],[76.926687,28.455234],[76.927226,28.456315],[76.92771,28.457415],[76.92814,28.458533],[76.928515,28.459667],[76.928833,28.460814],[76.929094,28.461973],[76.929297,28.46314],[76.929443,28.464314],[76.929531,28.465492],[76.92956,28.466673],[76.929548,28.467447],[76.929511,28.46822],[76.929448,28.468991],[76.929361,28.469761],[76.929302,28.470219],[76.929183,28.471027],[76.929037,28.471832],[76.928829,28.472778],[76.928685,28.473375],[76.928612,28.473611],[76.928596,28.473672],[76.928522,28.473991],[76.928504,28.474071],[76.928357,28.47477],[76.92804,28.475917],[76.927666,28.477051],[76.927236,28.47817]],[[76.907178,28.473595],[76.907292,28.473426],[76.907401,28.473254],[76.907506,28.47308],[76.907607,28.472905],[76.907703,28.472727],[76.907795,28.472548],[76.907882,28.472367],[76.907965,28.472184],[76.908044,28.472],[76.908118,28.471814],[76.908187,28.471627],[76.908252,28.471439],[76.908311,28.471249],[76.908367,28.471059],[76.908417,28.470867],[76.908463,28.470674],[76.908504,28.470481],[76.908541,28.470287],[76.908555,28.470198],[76.908651,28.469846],[76.908711,28.469613],[76.908855,28.469016],[76.908891,28.468859],[76.908924,28.468701],[76.90895,28.468567],[76.908973,28.468433],[76.908994,28.468298],[76.909013,28.468164],[76.909072,28.467705],[76.909088,28.467577],[76.909101,28.467449],[76.909113,28.46732],[76.909122,28.467192],[76.909129,28.467063],[76.909134,28.466934],[76.909138,28.466805],[76.909139,28.466676],[76.909136,28.466479],[76.909129,28.466282],[76.909117,28.466086],[76.9091,28.46589],[76.909078,28.465694],[76.909051,28.465498],[76.90902,28.465303],[76.908983,28.465109],[76.908942,28.464916],[76.908896,28.464723],[76.908846,28.464531],[76.90879,28.464341],[76.90873,28.464151],[76.908666,28.463963],[76.908596,28.463776],[76.908523,28.46359],[76.908444,28.463406],[76.908361,28.463223],[76.908274,28.463042],[76.908182,28.462863],[76.908085,28.462685],[76.907985,28.46251],[76.907879,28.462336],[76.90777,28.462165],[76.907657,28.461995],[76.907539,28.461828],[76.907417,28.461663],[76.907292,28.461501],[76.907162,28.461341],[76.907028,28.461183],[76.906891,28.461028],[76.906749,28.460876],[76.906604,28.460727],[76.906456,28.46058],[76.906303,28.460437],[76.906147,28.460296],[76.905988,28.460158],[76.905933,28.460112],[76.905906,28.457604],[76.905901,28.457418],[76.905893,28.457232],[76.90588,28.457046],[76.905863,28.45686],[76.905841,28.456675],[76.905815,28.45649],[76.905785,28.456306],[76.905751,28.456122],[76.90571,28.455929],[76.905664,28.455736],[76.905613,28.455544],[76.905558,28.455354],[76.905498,28.455164],[76.905433,28.454976],[76.905364,28.454789],[76.90529,28.454603],[76.905212,28.454419],[76.905129,28.454236],[76.905041,28.454055],[76.904949,28.453876],[76.904853,28.453698],[76.904752,28.453523],[76.904647,28.453349],[76.904538,28.453178],[76.904424,28.453008],[76.904307,28.452841],[76.904185,28.452676],[76.904059,28.452514],[76.903929,28.452354],[76.903796,28.452196],[76.903658,28.452041],[76.903517,28.451889],[76.903372,28.45174],[76.903223,28.451593],[76.903071,28.45145],[76.902915,28.451309],[76.902756,28.451171],[76.902593,28.451037],[76.902428,28.450905],[76.902258,28.450777],[76.902086,28.450652],[76.901911,28.450531],[76.901733,28.450413],[76.901552,28.450298],[76.901368,28.450187],[76.901181,28.450079],[76.900992,28.449975],[76.900801,28.449875],[76.900607,28.449778],[76.90041,28.449686],[76.900211,28.449597],[76.900014,28.449513],[76.899956,28.449342],[76.899886,28.449155],[76.899813,28.448969],[76.899734,28.448785],[76.899651,28.448603],[76.899564,28.448421],[76.899472,28.448242],[76.899375,28.448065],[76.899275,28.447889],[76.89917,28.447716],[76.89906,28.447544],[76.898947,28.447375],[76.898829,28.447207],[76.898707,28.447043],[76.898582,28.44688],[76.898452,28.44672],[76.898318,28.446563],[76.898181,28.446408],[76.89804,28.446256],[76.897894,28.446106],[76.897746,28.44596],[76.897594,28.445816],[76.897438,28.445675],[76.897279,28.445538],[76.897116,28.445403],[76.89695,28.445272],[76.896781,28.445144],[76.896609,28.445019],[76.896434,28.444897],[76.896256,28.444779],[76.896075,28.444664],[76.895891,28.444553],[76.895704,28.444446],[76.895515,28.444342],[76.895323,28.444241],[76.895129,28.444145],[76.894933,28.444052],[76.894734,28.443963],[76.894533,28.443878],[76.894331,28.443797],[76.894126,28.44372],[76.893919,28.443646],[76.893711,28.443577],[76.8935,28.443512],[76.893289,28.44345],[76.893076,28.443393],[76.892861,28.44334],[76.892645,28.443291],[76.892429,28.443247],[76.892211,28.443206],[76.891992,28.44317],[76.891808,28.443143],[76.891623,28.443118],[76.891438,28.443097],[76.891252,28.443079],[76.891066,28.443064],[76.89088,28.443052],[76.890694,28.443042],[76.890507,28.443036],[76.890107,28.443026],[76.889819,28.443023],[76.889596,28.443025],[76.889374,28.443031],[76.889152,28.443042],[76.888929,28.443057],[76.888708,28.443076],[76.888487,28.4431],[76.888266,28.443128],[76.888046,28.44316],[76.887828,28.443196],[76.88761,28.443237],[76.887393,28.443281],[76.887177,28.44333],[76.886963,28.443383],[76.886749,28.44344],[76.886538,28.443502],[76.886328,28.443567],[76.886119,28.443636],[76.885912,28.44371],[76.885708,28.443787],[76.885505,28.443868],[76.885304,28.443953],[76.885105,28.444042],[76.884909,28.444135],[76.884715,28.444232],[76.884523,28.444332],[76.884334,28.444436],[76.884148,28.444543],[76.883964,28.444654],[76.883783,28.444769],[76.883604,28.444887],[76.883429,28.445009],[76.883257,28.445134],[76.883158,28.445208],[76.880703,28.447076],[76.880548,28.447197],[76.880395,28.44732],[76.880246,28.447446],[76.880099,28.447574],[76.879956,28.447705],[76.879815,28.447839],[76.879678,28.447975],[76.879543,28.448114],[76.879402,28.448266],[76.879264,28.448421],[76.879131,28.448579],[76.879001,28.448739],[76.878875,28.448901],[76.878753,28.449066],[76.878636,28.449233],[76.87853,28.449391],[76.878462,28.449409],[76.878251,28.44947],[76.87804,28.449536],[76.877832,28.449605],[76.877625,28.449678],[76.87742,28.449756],[76.877218,28.449837],[76.877017,28.449922],[76.876818,28.450011],[76.876622,28.450104],[76.876428,28.4502],[76.876236,28.450301],[76.876047,28.450404],[76.87586,28.450512],[76.875676,28.450623],[76.875495,28.450738],[76.875317,28.450856],[76.875142,28.450977],[76.87497,28.451102],[76.874801,28.45123],[76.874635,28.451362],[76.874472,28.451496],[76.874313,28.451634],[76.874157,28.451775],[76.874005,28.451918],[76.873856,28.452065],[76.873711,28.452214],[76.87357,28.452367],[76.873432,28.452521],[76.873299,28.452679],[76.873169,28.452839],[76.873043,28.453001],[76.872922,28.453166],[76.872804,28.453333],[76.87269,28.453503],[76.872581,28.453674],[76.872476,28.453848],[76.872375,28.454023],[76.872279,28.454201],[76.872187,28.45438],[76.8721,28.454561],[76.872017,28.454744],[76.871938,28.454928],[76.871864,28.455114],[76.871795,28.455301],[76.87173,28.455489],[76.87167,28.455679],[76.871615,28.45587],[76.871564,28.456061],[76.871519,28.456254],[76.871477,28.456447],[76.871441,28.456642],[76.87141,28.456836],[76.871383,28.457032],[76.871361,28.457228],[76.871344,28.457424],[76.871332,28.457621],[76.871325,28.457817],[76.871322,28.458014],[76.871325,28.458211],[76.871332,28.458408],[76.871344,28.458604],[76.871361,28.458801],[76.871383,28.458996],[76.871409,28.459192],[76.871441,28.459387],[76.871477,28.459581],[76.871505,28.459713],[76.871534,28.459845],[76.871566,28.459977],[76.871601,28.460108],[76.871637,28.460238],[76.871676,28.460368],[76.871716,28.460498],[76.871759,28.460627],[76.873597,28.465997],[76.873683,28.466235],[76.873776,28.46647],[76.873854,28.466655],[76.873937,28.466837],[76.874025,28.467018],[76.874116,28.467198],[76.874213,28.467375],[76.874313,28.467551],[76.874418,28.467724],[76.874528,28.467896],[76.874641,28.468065],[76.874759,28.468232],[76.874881,28.468397],[76.875006,28.46856],[76.875136,28.46872],[76.87527,28.468877],[76.875407,28.469032],[76.875549,28.469184],[76.875694,28.469334],[76.875842,28.46948],[76.875995,28.469624],[76.87615,28.469765],[76.87631,28.469902],[76.876472,28.470037],[76.876638,28.470168],[76.876807,28.470296],[76.876979,28.470421],[76.877154,28.470543],[76.877333,28.470661],[76.877514,28.470776],[76.877698,28.470887],[76.877884,28.470994],[76.878073,28.471098],[76.878104,28.471115],[76.87815,28.471198],[76.87825,28.471374],[76.878355,28.471548],[76.878465,28.471719],[76.878578,28.471889],[76.878696,28.472056],[76.878818,28.472221],[76.878943,28.472383],[76.879073,28.472543],[76.879207,28.472701],[76.879344,28.472855],[76.879486,28.473008],[76.879631,28.473157],[76.879779,28.473304],[76.879932,28.473447],[76.880087,28.473588],[76.880247,28.473726],[76.880409,28.47386],[76.880575,28.473992],[76.880744,28.47412],[76.880916,28.474245],[76.881092,28.474366],[76.88127,28.474484],[76.881451,28.474599],[76.881635,28.47471],[76.881821,28.474818],[76.88201,28.474922],[76.882202,28.475022],[76.882396,28.475119],[76.882593,28.475211],[76.882791,28.4753],[76.882992,28.475385],[76.883195,28.475467],[76.8834,28.475544],[76.883607,28.475617],[76.883815,28.475687],[76.883963,28.475733],[76.884112,28.475778],[76.884261,28.47582],[76.884411,28.47586],[76.884562,28.475899],[76.884713,28.475935],[76.884865,28.475969],[76.885018,28.476001],[76.886473,28.476297],[76.886571,28.476317],[76.888553,28.476701],[76.891166,28.477223],[76.891405,28.477268],[76.891645,28.477308],[76.891894,28.477344],[76.892143,28.477375],[76.893465,28.477522],[76.893481,28.477524],[76.895203,28.477712],[76.895379,28.47773],[76.895555,28.477746],[76.897543,28.477902],[76.897769,28.477917],[76.897995,28.477929],[76.898222,28.477935],[76.898448,28.477937],[76.898671,28.477935],[76.898894,28.477929],[76.899116,28.477918],[76.899338,28.477903],[76.89956,28.477884],[76.899781,28.47786],[76.900002,28.477832],[76.900221,28.4778],[76.90044,28.477764],[76.900658,28.477724],[76.900875,28.477679],[76.901091,28.47763],[76.901306,28.477577],[76.901519,28.47752],[76.901731,28.477459],[76.901941,28.477393],[76.902149,28.477324],[76.902356,28.477251],[76.902561,28.477173],[76.902764,28.477092],[76.902965,28.477007],[76.903163,28.476918],[76.90336,28.476825],[76.903554,28.476728],[76.903746,28.476628],[76.903935,28.476524],[76.904122,28.476417],[76.904305,28.476306],[76.904486,28.476191],[76.904665,28.476073],[76.90484,28.475951],[76.905012,28.475826],[76.905181,28.475698],[76.905347,28.475567],[76.90551,28.475432],[76.905669,28.475294],[76.905825,28.475154],[76.905977,28.47501],[76.906126,28.474863],[76.906271,28.474714],[76.906412,28.474562],[76.90655,28.474407],[76.906683,28.47425],[76.906813,28.47409],[76.906939,28.473927],[76.90706,28.473762],[76.907178,28.473595]]]]}},{"type":"Feature","properties":{"_s":"L6_all","_l":"","OBJECTID":5,"distance":5.0,"Unit":"KM","_lat":28.462878,"_lng":76.892657},"geometry":{"type":"MultiPolygon","coordinates":[[[[76.927844,28.421571],[76.928319,28.422039],[76.928394,28.422174],[76.928868,28.422849],[76.92887,28.422852],[76.928943,28.422956],[76.929064,28.423068],[76.929208,28.423201],[76.92957,28.423534],[76.929602,28.423594],[76.929613,28.423613],[76.929647,28.423677],[76.930028,28.424253],[76.930056,28.424295],[76.930056,28.424296],[76.930504,28.424802],[76.930675,28.425035],[76.930883,28.42537],[76.931109,28.425733],[76.931195,28.42587],[76.931199,28.42588],[76.93138,28.42634],[76.931592,28.426886],[76.931607,28.426925],[76.93167,28.427015],[76.931941,28.427399],[76.932098,28.427595],[76.932384,28.427953],[76.932418,28.428008],[76.932865,28.428718],[76.932873,28.428731],[76.932832,28.428758],[76.932501,28.428972],[76.932,28.429297],[76.931112,28.429969],[76.931042,28.430018],[76.930732,28.430236],[76.93038,28.43048],[76.930313,28.430542],[76.930111,28.430726],[76.929688,28.431113],[76.929589,28.431209],[76.929487,28.431307],[76.928994,28.431797],[76.928953,28.431843],[76.928933,28.431864],[76.92892,28.431878],[76.9283,28.432545],[76.928267,28.432579],[76.92824,28.432599],[76.928473,28.432803],[76.928768,28.433072],[76.929228,28.433512],[76.929463,28.433636],[76.929888,28.433872],[76.930081,28.433979],[76.930154,28.43402],[76.930777,28.434404],[76.930846,28.434449],[76.93099,28.434545],[76.931539,28.434914],[76.931574,28.434937],[76.932232,28.435382],[76.932641,28.435661],[76.93272,28.435715],[76.932925,28.435856],[76.933202,28.436049],[76.933466,28.436237],[76.933618,28.436345],[76.934065,28.436641],[76.934201,28.436732],[76.934256,28.436768],[76.934311,28.436804],[76.93469,28.437128],[76.935249,28.437607],[76.935701,28.437979],[76.935739,28.43801],[76.935913,28.438152],[76.936396,28.438544],[76.937131,28.439119],[76.937228,28.439193],[76.937417,28.439334],[76.937701,28.439563],[76.937784,28.439628],[76.937795,28.439641],[76.93789,28.439748],[76.937973,28.439843],[76.938157,28.440052],[76.938163,28.440058],[76.938428,28.440258],[76.938461,28.440284],[76.938481,28.440299],[76.938654,28.440432],[76.938813,28.440523],[76.939173,28.440728],[76.939762,28.441041],[76.939864,28.441096],[76.940562,28.441418],[76.940699,28.441481],[76.941492,28.441851],[76.941592,28.441898],[76.941598,28.441946],[76.941722,28.442172],[76.942092,28.442853],[76.942354,28.44322],[76.942656,28.443569],[76.942975,28.443894],[76.943027,28.44382],[76.943078,28.443746],[76.943131,28.443659],[76.943185,28.443702],[76.943649,28.444078],[76.943682,28.444104],[76.94387,28.444272],[76.944289,28.444643],[76.944462,28.444793],[76.944609,28.444909],[76.94466,28.444938],[76.944701,28.445056],[76.945001,28.446004],[76.945108,28.44637],[76.945278,28.446957],[76.945531,28.447915],[76.94569,28.44858],[76.946088,28.449403],[76.946503,28.450317],[76.946896,28.451238],[76.947266,28.452166],[76.947613,28.453101],[76.947937,28.454043],[76.948237,28.454991],[76.948514,28.455944],[76.948548,28.456073],[76.948649,28.456457],[76.948657,28.456484],[76.949002,28.456479],[76.948954,28.457026],[76.948796,28.457023],[76.948997,28.457866],[76.949203,28.458833],[76.949385,28.459804],[76.949542,28.460778],[76.94958,28.461049],[76.949676,28.461755],[76.949786,28.462735],[76.949871,28.463716],[76.949933,28.464699],[76.949969,28.465683],[76.949982,28.466667],[76.949962,28.467956],[76.9499,28.469245],[76.949796,28.470531],[76.949651,28.471814],[76.949592,28.472272],[76.949394,28.473619],[76.949151,28.47496],[76.948804,28.476536],[76.948655,28.477132],[76.948556,28.477506],[76.948511,28.477703],[76.948298,28.47867],[76.948045,28.479629],[76.947769,28.480582],[76.94747,28.48153],[76.947147,28.482472],[76.946801,28.483408],[76.946432,28.484336],[76.94604,28.485258],[76.945625,28.486171],[76.945188,28.487076],[76.944451,28.487552],[76.944468,28.487693],[76.94447,28.48771],[76.94436,28.488097],[76.94413,28.488995],[76.944114,28.489086],[76.944113,28.489094],[76.943744,28.489739],[76.943219,28.490607],[76.942673,28.491465],[76.942106,28.492312],[76.941518,28.493148],[76.940909,28.493972],[76.94028,28.494785],[76.939632,28.495585],[76.938964,28.496373],[76.938276,28.497147],[76.93757,28.497908],[76.936844,28.498655],[76.936101,28.499389],[76.93534,28.500107],[76.934561,28.500811],[76.933764,28.501499],[76.932951,28.502172],[76.932122,28.50283],[76.931277,28.503471],[76.930416,28.504095],[76.929539,28.504703],[76.928648,28.505294],[76.927743,28.505867],[76.926823,28.506423],[76.92589,28.506961],[76.924944,28.507481],[76.923985,28.507983],[76.923014,28.508466],[76.922032,28.50893],[76.921038,28.509375],[76.920033,28.509801],[76.919019,28.510207],[76.917994,28.510594],[76.91696,28.510961],[76.915917,28.511308],[76.914866,28.511634],[76.913807,28.511941],[76.912741,28.512226],[76.911668,28.512492],[76.910588,28.512736],[76.909503,28.51296],[76.908413,28.513162],[76.907318,28.513344],[76.906218,28.513504],[76.905115,28.513643],[76.904009,28.513761],[76.9029,28.513858],[76.901789,28.513933],[76.900676,28.513987],[76.899562,28.514019],[76.898448,28.51403],[76.897315,28.514018],[76.896182,28.513985],[76.895051,28.51393],[76.893921,28.513852],[76.891932,28.513696],[76.89017,28.51353],[76.888448,28.513341],[76.888365,28.513332],[76.887043,28.513185],[76.885794,28.513032],[76.884549,28.512852],[76.883348,28.512652],[76.882154,28.512426],[76.879663,28.511929],[76.877802,28.511567],[76.87731,28.51147],[76.875855,28.511174],[76.874331,28.510842],[76.87282,28.510469],[76.871322,28.510055],[76.869839,28.509601],[76.868797,28.509254],[76.867763,28.508888],[76.866738,28.508501],[76.865723,28.508094],[76.864719,28.507669],[76.863725,28.507224],[76.862742,28.506759],[76.861771,28.506276],[76.860813,28.505775],[76.859867,28.505255],[76.858934,28.504717],[76.858014,28.504161],[76.857109,28.503587],[76.856217,28.502997],[76.855341,28.502389],[76.85448,28.501764],[76.853635,28.501123],[76.852805,28.500466],[76.851992,28.499793],[76.851196,28.499104],[76.850417,28.498401],[76.849656,28.497682],[76.848912,28.496949],[76.848187,28.496202],[76.847628,28.495599],[76.84726,28.495281],[76.846481,28.494577],[76.845924,28.494052],[76.84603,28.493657],[76.846037,28.493631],[76.845996,28.493091],[76.845993,28.493026],[76.845972,28.492546],[76.845971,28.492535],[76.845953,28.492148],[76.845952,28.492123],[76.845953,28.492113],[76.845974,28.491996],[76.845997,28.49174],[76.846024,28.491451],[76.84603,28.491407],[76.846055,28.491232],[76.846102,28.490906],[76.84611,28.490852],[76.846131,28.490705],[76.84618,28.490361],[76.846204,28.490059],[76.846203,28.489906],[76.846217,28.489816],[76.846218,28.489808],[76.846277,28.489271],[76.846321,28.488726],[76.846348,28.488182],[76.846341,28.488066],[76.846336,28.487992],[76.846335,28.487977],[76.84633,28.487939],[76.846296,28.487698],[76.846289,28.487638],[76.846273,28.487544],[76.846211,28.487187],[76.846195,28.487095],[76.846167,28.486938],[76.846129,28.486724],[76.846085,28.486636],[76.846041,28.486552],[76.846001,28.486009],[76.846,28.485999],[76.845998,28.485975],[76.845747,28.486044],[76.845605,28.486083],[76.845438,28.486129],[76.845129,28.486209],[76.845005,28.48625],[76.844756,28.486333],[76.844436,28.486427],[76.844234,28.486482],[76.844141,28.486318],[76.844067,28.486172],[76.843988,28.486031],[76.843898,28.485856],[76.843714,28.485481],[76.843445,28.484987],[76.843425,28.484948],[76.843364,28.484831],[76.843126,28.484407],[76.843116,28.484387],[76.843033,28.484202],[76.842857,28.483856],[76.842593,28.483314],[76.842329,28.482772],[76.842048,28.48223],[76.84175,28.481689],[76.841719,28.481634],[76.841572,28.481379],[76.841443,28.481194],[76.841411,28.481148],[76.841262,28.480989],[76.841054,28.480788],[76.841045,28.480607],[76.841031,28.480335],[76.84101,28.480062],[76.840986,28.479518],[76.840946,28.479148],[76.840928,28.478974],[76.840907,28.478778],[76.84089,28.478626],[76.840869,28.47843],[76.840832,28.478158],[76.840802,28.477946],[76.840794,28.477886],[76.840718,28.477342],[76.840626,28.476799],[76.840516,28.476255],[76.840441,28.475786],[76.840412,28.475712],[76.840353,28.475557],[76.84025,28.475266],[76.840217,28.475186],[76.840192,28.475123],[76.840062,28.474756],[76.840015,28.474626],[76.839803,28.474084],[76.839625,28.473541],[76.839448,28.473135],[76.839388,28.472999],[76.839217,28.472456],[76.839053,28.472068],[76.83909,28.471913],[76.839096,28.47186],[76.839152,28.471367],[76.839263,28.471018],[76.839247,28.470822],[76.839223,28.470278],[76.839216,28.469733],[76.839203,28.469566],[76.839175,28.469189],[76.839186,28.468735],[76.839246,28.468099],[76.839325,28.467554],[76.839404,28.467008],[76.839401,28.466978],[76.839355,28.466464],[76.839326,28.46628],[76.83927,28.46592],[76.839211,28.465376],[76.839136,28.464832],[76.839127,28.464754],[76.839077,28.464288],[76.839011,28.463903],[76.838971,28.463511],[76.838892,28.463201],[76.838852,28.462657],[76.838741,28.462113],[76.83864,28.461598],[76.838634,28.46157],[76.838561,28.461211],[76.838524,28.461026],[76.838412,28.460483],[76.838361,28.460014],[76.838302,28.459939],[76.838073,28.459397],[76.837856,28.458884],[76.837843,28.458855],[76.837672,28.458451],[76.837614,28.458312],[76.837543,28.458097],[76.837485,28.458],[76.83735,28.45777],[76.837155,28.457228],[76.837077,28.457028],[76.837049,28.456957],[76.836959,28.456685],[76.836839,28.456379],[76.836759,28.456177],[76.83673,28.456143],[76.83617,28.455577],[76.83633,28.455116],[76.836365,28.455116],[76.836506,28.454783],[76.836629,28.454568],[76.836918,28.454021],[76.836984,28.453906],[76.83698,28.453596],[76.836978,28.453475],[76.836978,28.453217],[76.837016,28.45293],[76.83707,28.452385],[76.837072,28.45208],[76.837045,28.451916],[76.837027,28.45184],[76.836875,28.451297],[76.836768,28.450866],[76.836818,28.450779],[76.836834,28.450752],[76.836848,28.450724],[76.836892,28.45066],[76.836916,28.45062],[76.837115,28.450283],[76.837162,28.450204],[76.83749,28.449726],[76.837539,28.449656],[76.837813,28.449274],[76.838176,28.449105],[76.838227,28.449083],[76.838402,28.449007],[76.838922,28.448782],[76.838981,28.448552],[76.839056,28.448235],[76.839083,28.448232],[76.839425,28.448195],[76.839432,28.448194],[76.839627,28.448172],[76.839639,28.448144],[76.839852,28.447636],[76.83991,28.447454],[76.83995,28.44734],[76.840092,28.446935],[76.840102,28.446907],[76.840158,28.446748],[76.84019,28.446654],[76.840273,28.44636],[76.840282,28.446317],[76.840358,28.445954],[76.840372,28.44589],[76.840388,28.445814],[76.840396,28.445768],[76.840484,28.445268],[76.840509,28.445158],[76.84056,28.444933],[76.840602,28.444834],[76.840649,28.444722],[76.840891,28.444175],[76.840945,28.444057],[76.841103,28.443711],[76.841141,28.443627],[76.84117,28.443572],[76.841411,28.443107],[76.841425,28.44308],[76.841475,28.442997],[76.841548,28.442873],[76.841596,28.442792],[76.841642,28.442714],[76.84175,28.442532],[76.841955,28.442197],[76.841974,28.442166],[76.842097,28.441984],[76.842097,28.441953],[76.842106,28.441953],[76.842106,28.441953],[76.842113,28.441953],[76.842256,28.441722],[76.842433,28.441436],[76.842486,28.441359],[76.842517,28.441312],[76.842656,28.441108],[76.842872,28.440887],[76.843378,28.440367],[76.843408,28.440337],[76.843447,28.440291],[76.843618,28.440092],[76.843661,28.440042],[76.844126,28.439815],[76.844807,28.43946],[76.845116,28.439281],[76.845436,28.439095],[76.845412,28.438919],[76.845379,28.438683],[76.845277,28.438139],[76.845238,28.437954],[76.845209,28.437815],[76.845186,28.437709],[76.845185,28.437595],[76.845127,28.437051],[76.845096,28.4367],[76.845087,28.436593],[76.845079,28.436506],[76.845004,28.435962],[76.844994,28.435886],[76.844975,28.435652],[76.845002,28.435627],[76.845228,28.435415],[76.845308,28.435336],[76.845379,28.435266],[76.845785,28.434865],[76.84598,28.434679],[76.846362,28.434314],[76.846548,28.434131],[76.846919,28.433764],[76.847195,28.433489],[76.847448,28.433237],[76.847471,28.433214],[76.847993,28.432664],[76.848394,28.43227],[76.848553,28.432114],[76.848579,28.432088],[76.849101,28.431564],[76.849406,28.43126],[76.849411,28.431255],[76.849344,28.431128],[76.849343,28.431127],[76.849296,28.431036],[76.849235,28.430939],[76.848952,28.430488],[76.848663,28.430016],[76.848625,28.429953],[76.848617,28.42994],[76.848248,28.429391],[76.848071,28.429128],[76.848,28.429023],[76.847981,28.428995],[76.847879,28.428842],[76.847812,28.428742],[76.847805,28.428731],[76.847786,28.428705],[76.84751,28.428294],[76.847256,28.427831],[76.847224,28.427771],[76.84721,28.427746],[76.847161,28.427646],[76.846944,28.427198],[76.846914,28.427127],[76.846844,28.426955],[76.846488,28.426104],[76.846407,28.425881],[76.84629,28.425557],[76.846236,28.425425],[76.846241,28.42542],[76.847054,28.424748],[76.847883,28.424091],[76.848728,28.42345],[76.849589,28.422826],[76.850465,28.422218],[76.851356,28.421628],[76.852261,28.421055],[76.852757,28.420755],[76.853292,28.420322],[76.854068,28.41972],[76.856523,28.417852],[76.857017,28.417481],[76.857878,28.416857],[76.858754,28.41625],[76.859645,28.415659],[76.86055,28.415086],[76.861469,28.414531],[76.862401,28.413993],[76.863347,28.413473],[76.864305,28.412972],[76.865275,28.41249],[76.866257,28.412026],[76.86725,28.411581],[76.868254,28.411156],[76.869268,28.410749],[76.870292,28.410363],[76.871325,28.409997],[76.872367,28.40965],[76.873417,28.409324],[76.874475,28.409017],[76.87554,28.408732],[76.876613,28.408467],[76.877691,28.408223],[76.878775,28.407999],[76.879864,28.407797],[76.880693,28.407659],[76.881171,28.407958],[76.881332,28.408096],[76.881375,28.408165],[76.881632,28.408105],[76.882018,28.408005],[76.882136,28.407985],[76.882698,28.4083],[76.882962,28.408522],[76.883086,28.408613],[76.883441,28.409072],[76.883562,28.409263],[76.883707,28.409619],[76.883904,28.410121],[76.883922,28.410166],[76.883916,28.410172],[76.883634,28.410445],[76.883552,28.410525],[76.883513,28.410562],[76.883599,28.410708],[76.884013,28.411257],[76.884027,28.411287],[76.884113,28.411618],[76.8843,28.411804],[76.884604,28.412026],[76.8847,28.412111],[76.885236,28.412621],[76.885376,28.412754],[76.885414,28.412794],[76.885941,28.413252],[76.885946,28.413248],[76.886127,28.413146],[76.886888,28.412712],[76.88771,28.41217],[76.887717,28.412166],[76.888334,28.411746],[76.888415,28.411691],[76.888384,28.411436],[76.888351,28.410749],[76.888343,28.410589],[76.888343,28.410575],[76.888397,28.410508],[76.888769,28.410041],[76.888935,28.409853],[76.889126,28.409637],[76.88924,28.409508],[76.889269,28.409475],[76.889431,28.409291],[76.889534,28.409214],[76.889789,28.409018],[76.889851,28.40897],[76.890102,28.408788],[76.890415,28.408561],[76.890341,28.408297],[76.890332,28.408264],[76.890327,28.408248],[76.89035,28.408212],[76.890421,28.408099],[76.890641,28.40775],[76.89068,28.407688],[76.890723,28.407714],[76.890839,28.407796],[76.890905,28.407842],[76.890942,28.407868],[76.890955,28.407879],[76.89104,28.407918],[76.891198,28.408056],[76.891366,28.408206],[76.891624,28.408413],[76.891671,28.408441],[76.891835,28.408618],[76.892064,28.408865],[76.89216,28.408957],[76.89229,28.409076],[76.892331,28.409115],[76.892332,28.409116],[76.892308,28.409152],[76.892109,28.409454],[76.892077,28.409501],[76.891815,28.409926],[76.891742,28.410044],[76.891622,28.410248],[76.891641,28.410277],[76.89176,28.410462],[76.891686,28.410588],[76.891598,28.410738],[76.891547,28.410824],[76.891485,28.410928],[76.891365,28.411132],[76.891232,28.411435],[76.890967,28.41161],[76.890937,28.41163],[76.890892,28.411675],[76.89054,28.412015],[76.890595,28.412062],[76.890782,28.412219],[76.890936,28.412355],[76.891366,28.412737],[76.891438,28.412789],[76.891438,28.412789],[76.891619,28.412921],[76.891675,28.412955],[76.891963,28.413128],[76.892034,28.413171],[76.892153,28.413243],[76.892301,28.413332],[76.892413,28.413412],[76.892984,28.413816],[76.893065,28.413868],[76.893565,28.414195],[76.893614,28.414227],[76.893667,28.414261],[76.893689,28.414278],[76.89377,28.414341],[76.894173,28.414611],[76.89435,28.41473],[76.894417,28.414761],[76.894467,28.414784],[76.895033,28.415048],[76.895173,28.415104],[76.895315,28.415184],[76.895853,28.415487],[76.895882,28.415503],[76.896393,28.415777],[76.896595,28.415885],[76.896809,28.416032],[76.897082,28.416204],[76.897298,28.416322],[76.897765,28.416576],[76.897894,28.416659],[76.897987,28.416718],[76.898165,28.416838],[76.898585,28.417121],[76.898653,28.417166],[76.899377,28.417648],[76.899404,28.417666],[76.899844,28.417915],[76.899957,28.418047],[76.899997,28.418093],[76.900098,28.41821],[76.900616,28.418755],[76.901043,28.419299],[76.901179,28.419473],[76.901249,28.41954],[76.901392,28.419728],[76.901708,28.420144],[76.901744,28.420192],[76.901857,28.420321],[76.901862,28.420327],[76.902349,28.420864],[76.902371,28.420899],[76.902391,28.420932],[76.902545,28.421087],[76.902606,28.421109],[76.902647,28.421127],[76.902792,28.421189],[76.903129,28.4214],[76.903125,28.421404],[76.903439,28.421276],[76.903784,28.421139],[76.904001,28.421053],[76.904126,28.421003],[76.904279,28.42093],[76.904292,28.420924],[76.904402,28.420871],[76.904538,28.420806],[76.904652,28.42073],[76.904812,28.420624],[76.90484,28.420607],[76.90499,28.42051],[76.905046,28.420475],[76.905178,28.42039],[76.905379,28.420261],[76.905432,28.420233],[76.905499,28.420197],[76.906186,28.419822],[76.906357,28.419716],[76.906423,28.419683],[76.906637,28.419556],[76.906693,28.419487],[76.906765,28.4194],[76.906787,28.419373],[76.906788,28.419371],[76.906804,28.419352],[76.906822,28.419349],[76.906873,28.419342],[76.906907,28.419337],[76.907113,28.41917],[76.907436,28.418891],[76.907559,28.418785],[76.907817,28.418625],[76.908163,28.418343],[76.908246,28.418276],[76.908379,28.418167],[76.908486,28.418079],[76.908703,28.417947],[76.908933,28.417807],[76.90931,28.417534],[76.909619,28.417358],[76.909886,28.417168],[76.91009,28.417023],[76.910014,28.416989],[76.909883,28.416817],[76.90962,28.416473],[76.909586,28.416442],[76.909515,28.416376],[76.909448,28.416313],[76.909465,28.416299],[76.90962,28.416169],[76.909697,28.416105],[76.909947,28.415896],[76.910249,28.415643],[76.910307,28.415593],[76.910599,28.415351],[76.910994,28.415015],[76.911142,28.414895],[76.911251,28.414805],[76.911625,28.414515],[76.911475,28.41426],[76.911345,28.414016],[76.911312,28.413954],[76.911257,28.413851],[76.91122,28.413782],[76.911191,28.413727],[76.911184,28.413713],[76.911123,28.413486],[76.911039,28.413167],[76.910902,28.412752],[76.910897,28.412737],[76.910863,28.412632],[76.910859,28.412621],[76.910736,28.412228],[76.910688,28.412075],[76.910545,28.411569],[76.910534,28.411529],[76.910506,28.411461],[76.910669,28.41137],[76.910867,28.411258],[76.91116,28.411156],[76.91135,28.411091],[76.911487,28.411046],[76.911784,28.411166],[76.912788,28.411591],[76.913781,28.412036],[76.914763,28.4125],[76.915733,28.412982],[76.916691,28.413483],[76.917637,28.414003],[76.918569,28.414541],[76.919488,28.415096],[76.920393,28.415669],[76.921284,28.41626],[76.92216,28.416867],[76.923021,28.417491],[76.923866,28.418132],[76.924695,28.418789],[76.925508,28.419461],[76.926304,28.42015],[76.927083,28.420853],[76.927844,28.421571]],[[76.923545,28.484438],[76.923609,28.484354],[76.924287,28.483456],[76.924981,28.482446],[76.925623,28.481411],[76.926214,28.480351],[76.926752,28.47927],[76.926851,28.479046],[76.926911,28.478909],[76.927211,28.478228],[76.927236,28.47817],[76.927666,28.477051],[76.92804,28.475917],[76.928187,28.475383],[76.928214,28.475288],[76.928357,28.47477],[76.928504,28.474071],[76.928522,28.473991],[76.928596,28.473672],[76.928612,28.473611],[76.928685,28.473375],[76.928818,28.472823],[76.928829,28.472778],[76.929037,28.471832],[76.929078,28.471607],[76.929183,28.471027],[76.929302,28.470219],[76.929361,28.469761],[76.929448,28.468991],[76.929511,28.46822],[76.929548,28.467447],[76.929557,28.466913],[76.929449,28.46498],[76.929482,28.464954],[76.92949,28.464946],[76.929443,28.464314],[76.929297,28.46314],[76.929094,28.461973],[76.928833,28.460814],[76.928515,28.459667],[76.92814,28.458533],[76.92771,28.457415],[76.927226,28.456315],[76.926687,28.455234],[76.926096,28.454175],[76.92605,28.454092],[76.925859,28.452985],[76.925598,28.451827],[76.92528,28.45068],[76.924906,28.449546],[76.924476,28.448428],[76.923992,28.447327],[76.923453,28.446247],[76.922862,28.445187],[76.922219,28.444152],[76.921526,28.443143],[76.920783,28.442161],[76.919993,28.441208],[76.919156,28.440288],[76.918711,28.439839],[76.918275,28.4394],[76.917351,28.438547],[76.916386,28.43773],[76.916349,28.437702],[76.915972,28.43741],[76.915305,28.436527],[76.914514,28.435575],[76.913678,28.434654],[76.912797,28.433766],[76.912192,28.433208],[76.911873,28.432913],[76.910907,28.432097],[76.909903,28.431318],[76.908861,28.430579],[76.907783,28.429881],[76.906672,28.429225],[76.90553,28.428612],[76.904358,28.428044],[76.904029,28.427901],[76.90316,28.427522],[76.901937,28.427047],[76.900692,28.426619],[76.899427,28.426239],[76.898144,28.425909],[76.896847,28.425628],[76.895536,28.425398],[76.89443,28.425244],[76.893318,28.425125],[76.892989,28.425101],[76.892201,28.425043],[76.891083,28.424997],[76.890683,28.424987],[76.889819,28.424977],[76.888594,28.425],[76.888484,28.425002],[76.88715,28.42508],[76.885822,28.425208],[76.884502,28.425388],[76.883626,28.425542],[76.883626,28.425542],[76.883192,28.425618],[76.881894,28.425899],[76.880611,28.426229],[76.879346,28.426609],[76.878101,28.427037],[76.876878,28.427512],[76.87568,28.428034],[76.874508,28.428602],[76.873366,28.429215],[76.872255,28.429871],[76.871178,28.430569],[76.870135,28.431308],[76.869839,28.431531],[76.867384,28.433399],[76.866461,28.43413],[76.865573,28.434893],[76.86551,28.434952],[76.865078,28.435184],[76.86427,28.435661],[76.863967,28.43584],[76.86289,28.436538],[76.861847,28.437277],[76.860843,28.438055],[76.859877,28.438872],[76.859824,28.438921],[76.858953,28.439725],[76.858072,28.440613],[76.857235,28.441534],[76.856445,28.442486],[76.855703,28.443468],[76.855009,28.444477],[76.854366,28.445513],[76.853775,28.446572],[76.853236,28.447653],[76.852752,28.448753],[76.852348,28.449805],[76.852322,28.449872],[76.851948,28.451005],[76.85163,28.452152],[76.851369,28.453311],[76.851165,28.454478],[76.851019,28.455652],[76.850932,28.45683],[76.850902,28.458011],[76.850931,28.459192],[76.851018,28.46037],[76.851125,28.461236],[76.851163,28.461544],[76.851366,28.462712],[76.851538,28.463504],[76.851736,28.464292],[76.85176,28.464374],[76.851961,28.465074],[76.852212,28.46585],[76.854049,28.47122],[76.854306,28.471933],[76.854584,28.47264],[76.855068,28.473741],[76.855606,28.474822],[76.856197,28.475881],[76.856507,28.476381],[76.85684,28.476917],[76.857533,28.477926],[76.858275,28.478909],[76.859065,28.479861],[76.859902,28.480782],[76.860783,28.48167],[76.861707,28.482524],[76.862672,28.483341],[76.862796,28.483436],[76.863002,28.483684],[76.863838,28.484606],[76.864719,28.485494],[76.865643,28.486347],[76.866609,28.487164],[76.867614,28.487943],[76.868656,28.488682],[76.869734,28.489381],[76.870846,28.490037],[76.871988,28.49065],[76.87316,28.491218],[76.874359,28.49174],[76.875583,28.492216],[76.876828,28.492644],[76.877718,28.492917],[76.878616,28.493165],[76.879523,28.493389],[76.880437,28.493588],[76.881892,28.493883],[76.882187,28.493942],[76.884109,28.494315],[76.88666,28.494825],[76.888097,28.49508],[76.889594,28.49528],[76.890915,28.495427],[76.890965,28.495432],[76.892687,28.495621],[76.893744,28.495721],[76.895732,28.495877],[76.897089,28.495957],[76.898448,28.495984],[76.899785,28.495958],[76.901119,28.49588],[76.902448,28.495752],[76.903769,28.495572],[76.90508,28.495342],[76.906379,28.495061],[76.907662,28.49473],[76.908384,28.494514],[76.908928,28.494351],[76.910174,28.493923],[76.911397,28.493447],[76.912596,28.492924],[76.913768,28.492356],[76.914911,28.491743],[76.916022,28.491087],[76.9171,28.490389],[76.918143,28.489649],[76.919148,28.48887],[76.920113,28.488053],[76.921037,28.4872],[76.921918,28.486312],[76.922755,28.485391],[76.923545,28.484438]]]]}}]}