{"type":"FeatureCollection","features":[{"type":"Feature","properties":{"_s":"L9_all","_l":"Mubarikpur 2","OBJECTID":1,"Id":0,"Name":"Mubarikpur 2"},"geometry":{"type":"Point","coordinates":[76.827993,28.479117]}},{"type":"Feature","properties":{"_s":"L9_all","_l":"Jhanjrola","OBJECTID":2,"Id":0,"Name":"Jhanjrola"},"geometry":{"type":"Point","coordinates":[76.862089,28.491046]}},{"type":"Feature","properties":{"_s":"L9_all","_l":"Iqbalpur","OBJECTID":3,"Id":0,"Name":"Iqbalpur"},"geometry":{"type":"Point","coordinates":[76.882021,28.490342]}},{"type":"Feature","properties":{"_s":"L9_all","_l":"Mankrola","OBJECTID":4,"Id":0,"Name":"Mankrola"},"geometry":{"type":"Point","coordinates":[76.908295,28.499645]}},{"type":"Feature","properties":{"_s":"L9_all","_l":"Budhera","OBJECTID":5,"Id":0,"Name":"Budhera"},"geometry":{"type":"Point","coordinates":[76.92453,28.482799]}},{"type":"Feature","properties":{"_s":"L9_all","_l":"Dhankot","OBJECTID":6,"Id":0,"Name":"Dhankot"},"geometry":{"type":"Point","coordinates":[76.953457,28.473218]}},{"type":"Feature","properties":{"_s":"L9_all","_l":"Gopalpur","OBJECTID":7,"Id":0,"Name":"Gopalpur"},"geometry":{"type":"Point","coordinates":[76.9425,28.459193]}},{"type":"Feature","properties":{"_s":"L9_all","_l":"Harsaru","OBJECTID":8,"Id":0,"Name":"Harsaru"},"geometry":{"type":"Point","coordinates":[76.958499,28.434539]}},{"type":"Feature","properties":{"_s":"L9_all","_l":"Garhi Harsaru","OBJECTID":9,"Id":0,"Name":"Garhi Harsaru"},"geometry":{"type":"Point","coordinates":[76.937007,28.44688]}},{"type":"Feature","properties":{"_s":"L9_all","_l":"Hayatpur","OBJECTID":10,"Id":0,"Name":"Hayatpur"},"geometry":{"type":"Point","coordinates":[76.944622,28.420126]}},{"type":"Feature","properties":{"_s":"L9_all","_l":"Wazirpur","OBJECTID":11,"Id":0,"Name":"Wazirpur"},"geometry":{"type":"Point","coordinates":[76.916908,28.424315]}},{"type":"Feature","properties":{"_s":"L9_all","_l":"Meoka","OBJECTID":12,"Id":0,"Name":"Meoka"},"geometry":{"type":"Point","coordinates":[76.917146,28.406047]}},{"type":"Feature","properties":{"_s":"L9_all","_l":"Dhorka","OBJECTID":13,"Id":0,"Name":"Dhorka"},"geometry":{"type":"Point","coordinates":[76.902607,28.408471]}},{"type":"Feature","properties":{"_s":"L9_all","_l":"Bhangrola","OBJECTID":14,"Id":0,"Name":"Bhangrola"},"geometry":{"type":"Point","coordinates":[76.896264,28.396502]}},{"type":"Feature","properties":{"_s":"L9_all","_l":"Jhund Sarai Viran","OBJECTID":15,"Id":0,"Name":"Jhund Sarai Viran"},"geometry":{"type":"Point","coordinates":[76.881281,28.403526]}},{"type":"Feature","properties":{"_s":"L9_all","_l":"Patli Hajipur","OBJECTID":16,"Id":0,"Name":"Patli Hajipur"},"geometry":{"type":"Point","coordinates":[76.863665,28.415289]}},{"type":"Feature","properties":{"_s":"L9_all","_l":"Khaintawas","OBJECTID":17,"Id":0,"Name":"Khaintawas"},"geometry":{"type":"Point","coordinates":[76.879564,28.433039]}},{"type":"Feature","properties":{"_s":"L9_all","_l":"Hamirpur","OBJECTID":18,"Id":0,"Name":"Hamirpur"},"geometry":{"type":"Point","coordinates":[76.899845,28.437531]}},{"type":"Feature","properties":{"_s":"L9_all","_l":"Dhanawas","OBJECTID":19,"Id":0,"Name":"Dhanawas"},"geometry":{"type":"Point","coordinates":[76.891843,28.420452]}},{"type":"Feature","properties":{"_s":"L9_all","_l":"Farrukh Nagar","OBJECTID":20,"Id":0,"Name":"Farrukh Nagar"},"geometry":{"type":"Point","coordinates":[76.824303,28.438923]}},{"type":"Feature","properties":{"_s":"L9_all","_l":"Sultanpur","OBJECTID":21,"Id":0,"Name":"Sultanpur"},"geometry":{"type":"Point","coordinates":[76.863845,28.467934]}},{"type":"Feature","properties":{"_s":"L9_all","_l":"Saidpur Mohammadpur","OBJECTID":22,"Id":0,"Name":"Saidpur Mohammadpur"},"geometry":{"type":"Point","coordinates":[76.866867,28.443897]}},{"type":"Feature","properties":{"_s":"L9_all","_l":"Sadhrana","OBJECTID":23,"Id":0,"Name":"Sadhrana"},"geometry":{"type":"Point","coordinates":[76.910936,28.454971]}},{"type":"Feature","properties":{"_s":"L9_all","_l":"Chandu","OBJECTID":24,"Id":0,"Name":"Chandu"},"geometry":{"type":"Point","coordinates":[76.913619,28.468901]}},{"type":"Feature","properties":{"_s":"L9_all","_l":"Kaliawas","OBJECTID":25,"Id":0,"Name":"Kaliawas"},"geometry":{"type":"Point","coordinates":[76.889903,28.48357]}},{"type":"Feature","properties":{"_s":"L9_all","_l":"Mohammedpur","OBJECTID":26,"Id":0,"Name":"Mohammedpur"},"geometry":{"type":"Point","coordinates":[76.848879,28.445016]}},{"type":"Feature","properties":{"_s":"L9_all","_l":"Shadrana Barmripur","OBJECTID":27,"Id":0,"Name":"Shadrana Barmripur"},"geometry":{"type":"Point","coordinates":[76.905543,28.458916]}},{"type":"Feature","properties":{"_s":"L9_all","_l":"Dhani Ramnagar","OBJECTID":28,"Id":0,"Name":"Dhani Ramnagar"},"geometry":{"type":"Point","coordinates":[76.922761,28.443816]}},{"type":"Feature","properties":{"_s":"L9_all","_l":"Sikhwali","OBJECTID":29,"Id":0,"Name":"Sikhwali"},"geometry":{"type":"Point","coordinates":[76.929493,28.444466]}},{"type":"Feature","properties":{"_s":"L9_all","_l":"Tughlakpur","OBJECTID":30,"Id":0,"Name":"Tughlakpur"},"geometry":{"type":"Point","coordinates":[76.939826,28.45519]}},{"type":"Feature","properties":{"_s":"L9_all","_l":"Daya Bihar","OBJECTID":31,"Id":0,"Name":"Daya Bihar"},"geometry":{"type":"Point","coordinates":[76.93763,28.469703]}},{"type":"Feature","properties":{"_s":"L9_all","_l":"Omnagar","OBJECTID":32,"Id":0,"Name":"Omnagar"},"geometry":{"type":"Point","coordinates":[76.919086,28.472939]}},{"type":"Feature","properties":{"_s":"L9_all","_l":"Mirchiwali Dhani","OBJECTID":33,"Id":0,"Name":"Mirchiwali Dhani"},"geometry":{"type":"Point","coordinates":[76.882888,28.47319]}},{"type":"Feature","properties":{"_s":"L9_all","_l":"Harsinghwali Dhani","OBJECTID":34,"Id":0,"Name":"Harsinghwali Dhani"},"geometry":{"type":"Point","coordinates":[76.883774,28.474725]}}]}