{"type":"FeatureCollection","features":[{"type":"Feature","properties":{"_s":"L5_all","_l":"Sultanpur National Park Boundary","OBJECTID":1,"OID_":0,"Name":"Sultanpur National Park Boundary","_lat":28.461735,"_lng":76.890189},"geometry":{"type":"MultiPolygon","coordinates":[[[[76.88848,28.46718],[76.888184,28.464516],[76.887697,28.463761],[76.887297,28.463761],[76.887127,28.463368],[76.885044,28.464042],[76.884594,28.463084],[76.883371,28.463385],[76.881532,28.458015],[76.885664,28.457901],[76.887414,28.454873],[76.887364,28.453914],[76.889819,28.452046],[76.890219,28.452056],[76.888792,28.453379],[76.888104,28.454541],[76.890794,28.45459],[76.890861,28.45724],[76.891564,28.457334],[76.891625,28.457824],[76.895696,28.457689],[76.895742,28.462014],[76.895124,28.462047],[76.895129,28.464188],[76.895796,28.464209],[76.895887,28.467087],[76.896711,28.466957],[76.898928,28.466676],[76.898868,28.467135],[76.898724,28.467731],[76.898544,28.468392],[76.898472,28.468712],[76.898448,28.46884],[76.898448,28.468914],[76.89646,28.468758],[76.894739,28.468569],[76.893418,28.468422],[76.890775,28.467894],[76.888763,28.467504],[76.887308,28.467208],[76.88848,28.46718]]]]}}]}